store_id,street,state,city,zip,phone
17350,"250 S Colonial Dr",Alabaster,Alabama,35007,
4867,"520 Highway 119",Alabaster,Alabama,35007,205-663-5405
4910,"6181 Us Hwy 431",Albertville,Alabama,35950,256-878-3502
4946,"113 3rd St, Se",Aliceville,Alabama,35442,205-373-8475
7077,"1204 Dr. Mlk Expressway",Andalusia,Alabama,36420,334-222-0518
4870,"1407 Quintard Ave.",Anniston,Alabama,36201,256-236-3016
7660,"1404 Golden Springs Rd.",Anniston,Alabama,36207,256-832-0046
4941,"1204 N. Brindlee Mountain Pkwy.",Arab,Alabama,35016,256-586-6021
4815,"215 Hwy 31 South",Athens,Alabama,35611,256-233-0514
4972,"315 Third Street Nw",Attalla,Alabama,35954,256-538-9699
10208,"333 S College St",Auburn,Alabama,36830,334-466-8200
1777,"1888 Ogletree Road",Auburn,Alabama,36830,334-502-8363
2402,"770 East Glenn Avenue",Auburn,Alabama,36830,334-887-7043
8933,"1498 Opelika Rd",Auburn,Alabama,36830,334-887-7636
4938,"208 Mcmeans Ave.","Bay Minette",Alabama,36507,251-937-3933
6017,"12900 N. Wintzell Ave.","Bayou La Batre",Alabama,36509,251-824-3692
17439,"4889 Promenade Pkwy",Bessemer,Alabama,35022,
4830,"901 9th Avenue, N",Bessemer,Alabama,35020,205-426-1664
4964,"2901 Morgan Rd.",Bessemer,Alabama,35022,205-425-1837
16898,"4616 Highway 280",Birmingham,Alabama,35242,
16899,"1654 Gadsden Hwy",Birmingham,Alabama,35235,
17547,"5561 Grove Blvd",Birmingham,Alabama,35226,
4825,"220 Gadsden Highway, Off I-59 At Roebuck Parkway",Birmingham,Alabama,35235,205-836-8344
4859,"7501 1st Avenue N.",Birmingham,Alabama,35206,205-833-2972
4864,"105 Inverness Plaza Hwy 280",Birmingham,Alabama,35242,205-991-5201
4871,"632 Tuscaloosa Avenue",Birmingham,Alabama,35211,205-781-8495
4873,"1431 11th Avenue So.",Birmingham,Alabama,35205,205-933-8374
4898,"2228 Bessemer Road",Birmingham,Alabama,35208,205-787-4608
4936,"1675 Montclair Rd.",Birmingham,Alabama,35210,205-592-2424
4948,"5705 Chalkville Rd.",Birmingham,Alabama,35235,205-854-8055
4951,"3303 Clairmont Avenue S",Birmingham,Alabama,35222,205-322-3055
467,"8370 Hwy 31",Calera,Alabama,35040,205-668-0588
4973,"7 Camden Bypass",Camden,Alabama,36726,334-682-2900
4912,"2000 Center Point Pkwy","Center Point",Alabama,35215,205-853-8001
4863,"101 Chestnut Bypass",Centre,Alabama,35960,256-927-4346
4897,"155 Birmingham Road Suite 114",Centreville,Alabama,35042,205-926-4654
4861,"32815 Us Hwy 280",Childersburg,Alabama,35044,256-378-5534
7668,"19215 North 3rd St.",Citronelle,Alabama,36522,251-866-9605
4893,"1105 7th St., North",Clanton,Alabama,35045,205-755-4336
4866,"227 West College St.",Columbiana,Alabama,35051,205-669-3153
10416,"1906 Cherokee Ave Sw",Cullman,Alabama,35055,256-775-8778
4902,"610 2nd Avenue Nw",Cullman,Alabama,35055,256-739-4601
16621,"1698 Us Highway 98",Daphne,Alabama,36526,
4959,"27040 Hwy 98",Daphne,Alabama,36526,251-621-9096
17172,"1235 Point Mallard Parkway Se",Decatur,Alabama,35601,
4844,"812 Beltline Rd",Decatur,Alabama,35601,256-355-8465
4957,"312 Hwy 80 East",Demopolis,Alabama,36732,334-289-3657
16800,"4601 Montgomery Hwy Ste 300",Dothan,Alabama,36303,
4878,"1955 East Main Street",Dothan,Alabama,36301,334-794-7798
4919,"1270 West Main Street",Dothan,Alabama,36301,334-793-2372
7179,"5730 W. Main St.",Dothan,Alabama,36305,334-673-2850
10076,"850 Boll Weevil Circle",Enterprise,Alabama,36330,334-347-9949
4847,"210 W Front St",Evergreen,Alabama,36401,251-578-1811
4945,"51 S Greeno Rd.",Fairhope,Alabama,36532,251-928-3125
16663,"372 Cox Creek Pkwy",Florence,Alabama,35630,
4817,"1501 Florence Blvd",Florence,Alabama,35630,256-767-0520
4925,"1002 Cox Creek Pkwy.",Florence,Alabama,35633,256-766-2125
1806,"1300 South Mckenzie St",Foley,Alabama,36535,251-943-6614
17419,"3489 Lowery Pkwy",Fultondale,Alabama,35068,
4882,"1535 Decatur Hwy., Corner Of Walkers Chapel Road",Fultondale,Alabama,35068,205-849-9744
4845,"806 Hoke St., Corner Of Meighan Boulevard",Gadsden,Alabama,35903,256-492-4807
4849,"2608 W. Meighan Blvd",Gadsden,Alabama,35904,256-543-9709
4833,"205 Fieldstown Rd,",Gardendale,Alabama,35071,205-631-5638
4969,"536 Hudson Dr., Po Box 653",Gordo,Alabama,35466,205-364-7133
4782,"10115 Grand Bay Wilmer Rd. South","Grand Bay",Alabama,36541,251-865-6128
4917,"675 Tuscaloosa Street",Greensboro,Alabama,36744,334-624-8874
4953,"879 Fort Dale Rd.",Greenville,Alabama,36037,334-382-3146
17236,"3820 Gulf Shores Pkwy","Gulf Shores",Alabama,36542,
4968,"1445 Gunter Avenue",Guntersville,Alabama,35976,256-505-0803
4822,"1901 11th Ave.",Haleyville,Alabama,35565,205-486-9202
4960,"303 North Main St.",Hanceville,Alabama,35077,256-352-5779
4905,"240 Hwy 31 Southwest Suite #11",Hartselle,Alabama,35640,256-773-1768
10516,"5859 Highway 53",Harvest,Alabama,35749,256-851-5350
4965,"4685 Hwy 17",Helena,Alabama,35080,205-620-1618
17642,"531 Brookwood Village",Homewood,Alabama,35209,
4829,"418 West Valley Ave",Homewood,Alabama,35209,205-942-7503
4904,"3030 Independence Dr.",Homewood,Alabama,35209,205-871-9672
10181,"5400 Hwy 280",Hoover,Alabama,35242,205-980-7670
2662,"2301 John Hawkins Pkwy",Hoover,Alabama,35244,205-682-1065
4889,"1881 Chace Rd.",Hoover,Alabama,35244,205-987-7286
4913,"2201 Tyler Rd.",Hoover,Alabama,35226,205-823-1832
4828,"3022 Allison Bonnett Dr",Hueytown,Alabama,35023,205-744-0071
10037,"11030 South Memorial Pkwy.",Huntsville,Alabama,35803,256-650-1543
16685,"6275 University Dr Nw",Huntsville,Alabama,35806,
16706,"2750 Carl T Jones Dr Se Ste 7",Huntsville,Alabama,35802,
1774,"100 Providence Main St., #g",Huntsville,Alabama,35806,256-837-2057
2748,"930 Winchester Rd.",Huntsville,Alabama,35811,256-852-1915
4881,"2001 Cecil Ashburn Drive Se",Huntsville,Alabama,35802,256-880-1470
4899,"2212 Whitesburg Dr",Huntsville,Alabama,35801,256-533-6181
4908,"2525 Oakwood Ave, Northwest",Huntsville,Alabama,35810,256-533-5754
5413,"2210 Winchester Rd.",Huntsville,Alabama,35811,256-858-8595
4868,"813 College Ave.",Jackson,Alabama,36545,251-246-6634
4907,"1001 Pelham Rd., South",Jacksonville,Alabama,36265,256-435-2095
4834,"101 N Airport Rd., North",Jasper,Alabama,35504,205-387-0572
4975,"10 Veterans Memorial Parkway, Corner Of Highway 29 And 50",Lanett,Alabama,36863,334-644-2807
4840,"7596 Parkway Dr., Se",Leeds,Alabama,35094,205-699-2288
17652,"8207 Highway 72 W",Madison,Alabama,35758,
4884,"8503 Old Madison Pike",Madison,Alabama,35758,256-461-7799
7155,"8470 Hwy 72 West",Madison,Alabama,35758,256-837-3362
7215,"4736 Eastern Valley Rd.","Mc Calla",Alabama,35111,205-477-8049
5316,"12275 Hwy 231 431n",Meridianville,Alabama,35759,256-828-8550
4832,"604 Bessemer Super Hwy.",Midfield,Alabama,35228,205-925-0278
4909,"3680 Hwy 14",Millbrook,Alabama,36054,334-285-3041
11016,"4645 Airport Blvd",Mobile,Alabama,36608,251-266-7944
16248,"3201 Airport Blvd., Unit 1",Mobile,Alabama,36606,
16715,"790 Schillinger Rd S",Mobile,Alabama,36695,
1814,"3932 Cottage Hill Rd.",Mobile,Alabama,36609,251-661-1190
2567,"7081 Airport Rd",Mobile,Alabama,36608,251-342-0948
2675,"900 Government St.",Mobile,Alabama,36604,251-432-8320
4818,"4881 Schillinger Rd.",Mobile,Alabama,36619,251-661-6305
4877,"2280 Mlk Blvd.",Mobile,Alabama,36610,251-471-6229
4888,"4453 Old Shell Rd., Corner Of Mcgregeor",Mobile,Alabama,36608,251-344-9770
4900,"2550 Dauphin St.",Mobile,Alabama,36606,251-471-1573
4903,"3100 Dauphin Island Pkwy",Mobile,Alabama,36605,251-471-2591
7671,"1401 Hillcrest Rd.",Mobile,Alabama,36695,251-633-7298
8362,"7101 Cottage Hill Rd",Mobile,Alabama,36695,251-631-3623
7112,"700 Main St.",Montevallo,Alabama,35115,205-665-1004
16946,"2576 Berryhill Rd",Montgomery,Alabama,36117,
3095,"6891 Vaughn Road",Montgomery,Alabama,36116,334-396-8671
4856,"3190 Zelda Rd.",Montgomery,Alabama,36106,334-261-1071
4869,"6990 Atlanta Hwy., And Taylor Road",Montgomery,Alabama,36117,334-271-5861
4894,"3465 Atlanta Hwy., Coliseum Boulevard",Montgomery,Alabama,36109,334-277-8840
4895,"3000 Rosa L. Parks Ave.",Montgomery,Alabama,36105,334-263-0225
4906,"4240 Narrow Lane Road",Montgomery,Alabama,36111,334-284-3298
4947,"4790 Mobile Hwy",Montgomery,Alabama,36108,334-281-4119
4970,"1525 Forest Avenue",Montgomery,Alabama,36106,334-263-9272
7063,"55 Ray Thorington Rd.",Montgomery,Alabama,36117,334-215-4381
4967,"2828 Moody Parkway",Moody,Alabama,35004,205-640-7166
4931,"11648 Al Hwy. 157",Moulton,Alabama,35650,256-974-5291
2505,"93 Euclid Avenue","Mountain Brook",Alabama,35213,205-871-2151
4901,"1715 Woodward Ave.,","Muscle Shoals",Alabama,35661,256-381-7641
4372,"4280 Mitt Lary Rd.",Northport,Alabama,35475,205-339-0415
4835,"1910 Mcfarland Boulevard",Northport,Alabama,35476,205-339-3819
4854,"602 1st Avenue East",Oneonta,Alabama,35121,205-625-6420
16830,"2640 Enterprise Dr",Opelika,Alabama,36801,
4949,"1997 Pepperell Pkwy.",Opelika,Alabama,36801,334-749-6558
2899,"25761 Perdido Beach Blvd.","Orange Beach",Alabama,36561,251-974-1590
10207,"825 Quintard Dr.",Oxford,Alabama,36203,256-835-6766
17235,"400 Oxford Exchange Blvd",Oxford,Alabama,36203,
4826,"176 Andrews Ave.",Ozark,Alabama,36360,334-774-2654
4667,"100 Huntley Pkwy.",Pelham,Alabama,35124,205-685-0146
4814,"2738 U.s. Highway 31 South",Pelham,Alabama,35124,205-663-4581
4839,"118 Comer Avenue","Pell City",Alabama,35125,205-338-2628
1824,"5405 Summerville Rd","Phenix City",Alabama,36867,334-214-4508
4934,"2514 Crawford Road","Phenix City",Alabama,36867,334-297-6498
4956,"145 U.s. Hwy. 278 East By-pass",Piedmont,Alabama,36272,256-447-6133
585,"9505 Vaughn Road, Pike Road","Pike Road",Alabama,36064,334-277-1153
4926,"6665 Hwy 75",Pinson,Alabama,35126,205-681-9250
4916,"108 Park Rd, Corner Of Pleasant Grove Road","Pleasant Grove",Alabama,35127,205-744-1021
17348,"2754 Legends Pkwy",Prattville,Alabama,36066,
4838,"708 E. Main St.",Prattville,Alabama,36067,334-365-0661
4944,"1904 Cobbs Ford Rd.",Prattville,Alabama,36066,334-365-7606
4823,"3403 Rainbow Dr.","Rainbow City",Alabama,35906,256-442-4582
1822,"21975 Hwy 59",Robertsdale,Alabama,36567,251-947-8602
78,"14695 Hwy 43",Russellville,Alabama,35653,256-332-2869
10575,"24 Saraland Blvd., N,",Saraland,Alabama,36571,251-675-2747
6013,"801 S. Broad St.",Scottsboro,Alabama,35768,256-259-2832
4853,"520 Highland Ave",Selma,Alabama,36701,334-875-5530
4883,"9151 Moffett Road",Semmes,Alabama,36575,251-649-2206
10898,"9917-a Spanish Fort Blvd.","Spanish Fort",Alabama,36527,251-626-3113
4915,"2 N. Broadway Ave.",Sylacauga,Alabama,35150,256-249-4962
4842,"410 East Battle St.",Talladega,Alabama,35160,256-362-0163
4943,"10 Gilmer Ave.",Tallassee,Alabama,36078,334-283-3637
4858,"100 Us Hwy 231",Troy,Alabama,36081,334-566-9324
4891,"315 Main St.",Trussville,Alabama,35173,205-655-8804
10811,"1218 University Blvd.",Tuscaloosa,Alabama,35401,205-349-2660
16910,"1901 13th Ave E",Tuscaloosa,Alabama,35404,
3004,"8700 Hwy 69 South",Tuscaloosa,Alabama,35405,205-342-1401
4813,"4260 University Blvd East",Tuscaloosa,Alabama,35404,205-556-3031
4819,"808 Veterans Memorial Drive",Tuscaloosa,Alabama,35404,205-345-0531
4872,"3302 15th Street",Tuscaloosa,Alabama,35401,205-349-4115
7217,"4715 Rice Mine Rd. Ne",Tuscaloosa,Alabama,35406,205-345-3455
4940,"202 W. Martin Luther King Hwy.",Tuskegee,Alabama,36083,334-727-6586
4860,"101 Baskin St., North","Union Springs",Alabama,36089,334-738-3158
4874,"2480 Rocky Ridge Road",Vestavia,Alabama,35243,205-979-1571
4851,"4197 Crosshaven Dr.","Vestavia Hills",Alabama,35243,205-967-4951
4855,"1100 Montgomery Hwy.","Vestavia Hills",Alabama,35216,205-822-5664
4843,"434 Hwy 31",Warrior,Alabama,35180,205-647-4440
4865,"763 Wilson St.",Wetumpka,Alabama,36092,334-567-2083
17435,"1200 N Muldoon Rd",Anchorage,Alaska,99504,
17436,"150 W 100th Ave",Anchorage,Alaska,99515,
17404,"1801 E Parks Hwy",Wasilla,Alaska,99654,
48551,"3674 E Country Field Cir Ste A",Wasilla,Alaska,99654,907-373-9520
7264,"39510 N. Gavilan Peak Pkwy.",Anthem,Arizona,85086,623-551-1031
9293,"325 W Apache Trail","Apache Junction",Arizona,85120,480-983-1129
10229,"280 N. Avondale Blvd.",Avondale,Arizona,85323,623-882-2021
1716,"21087 W. Main St., Corner Of Verrado Way",Buckeye,Arizona,85396,623-853-2113
17432,"3699 Hwy 95","Bullhead City",Arizona,86442,
8826,"2350 Miracle Mile","Bullhead City",Arizona,86442,928-758-2212
9266,"522 Finney Flat Suite A","Camp Verde",Arizona,86322,928-567-2274
32,"5400 E Carefree Hwy/po Box 5482",Carefree,Arizona,85377,480-595-6755
86,"1686 E Florence Blvd","Casa Grande",Arizona,85122,520-876-4357
7852,"28138 N. Tatum Blvd.","Cave Creek",Arizona,85331,480-585-6097
16959,"3425 W Frye Rd",Chandler,Arizona,85226,
17615,"3777 S Arizona Ave",Chandler,Arizona,85248,
193,"4990 S. Arizona Ave.",Chandler,Arizona,85248,480-802-6748
3143,"990 E. Warner Rd.",Chandler,Arizona,85225,480-899-3260
3965,"5975 W. Chandler Blvd.",Chandler,Arizona,85226,480-753-1827
3967,"3990 W. Ray Road",Chandler,Arizona,85226,480-786-3478
5038,"2010 S. Dobson Rd.",Chandler,Arizona,85286,480-899-2183
5315,"2005 N. Dobson Rd.",Chandler,Arizona,85224,480-812-0063
5849,"990 E. Pecos Rd.",Chandler,Arizona,85225,480-857-2508
7075,"2995 E. Chandler Heights Rd.",Chandler,Arizona,85249,480-895-8369
7849,"1015 E. Ray Rd.",Chandler,Arizona,85225,480-917-3041
9283,"180 N. Dobson Rd., Chandler And Dobson",Chandler,Arizona,85224,480-812-0149
9319,"1179 South State Route 260",Cottonwood,Arizona,86326,928-634-2147
10859,"286 E. 7th Street",Douglas,Arizona,85607,520-364-1358
16354,"1650 S Milton Rd",Flagstaff,Arizona,86001,
9231,"3506 East Route 66",Flagstaff,Arizona,86004,928-526-6505
9309,"4744 S. Hwy 95","Fort Mohave",Arizona,86426,928-763-6822
16768,"16825 E Shea Blvd","Fountain Hills",Arizona,85268,
9279,"16545 East Palisades Blvd","Fountain Hills",Arizona,85268,480-836-8337
16564,"1515 E Warner Rd",Gilbert,Arizona,85296,
17076,"3931 S Gilbert Rd",Gilbert,Arizona,85297,
3268,"765 S. Lindsay Rd., Corner Of Warner",Gilbert,Arizona,85296,480-635-0118
3272,"2371 E. Guadalupe Rd.",Gilbert,Arizona,85234,480-507-5399
5891,"3170 S. Higley Rd.",Gilbert,Arizona,85295,480-279-5517
8365,"2428 S Val Vista Dr",Gilbert,Arizona,85295,480-917-7467
16700,"9350 W Northern Ave",Glendale,Arizona,85305,
17,"18591 N 59th Ave",Glendale,Arizona,85308,602-789-1166
17406,"10404 N 43rd Ave",Glendale,Arizona,85302,
7872,"7499 W. Bethany Home Rd., Corner Of 75th",Glendale,Arizona,85303,623-247-4091
8983,"5125 W. Olive Ave",Glendale,Arizona,85302,623-931-0882
11144,"100 North Broad St.",Globe,Arizona,85501,928-425-5777
16593,"1515 N Litchfield Rd",Goodyear,Arizona,85395,
17463,"995 S Cotton Ln",Goodyear,Arizona,85338,
3749,"2840 N. Dysart Rd., Corner Of Thomas",Goodyear,Arizona,85395,623-536-5310
9254,"240 W Continental Rd","Green Valley",Arizona,85622,520-625-7286
8977,"3501 Stockton Hill Rd.",Kingman,Arizona,86409,928-757-1999
7022,"75 N. Lake Havasu Ave.","Lake Havasu City",Arizona,86403,928-854-6300
5892,"5050 W. Baseline Rd.",Laveen,Arizona,85339,602-237-8681
5791,"4890 N. Litchfield Rd.","Litchfield Park",Arizona,85340,623-547-4799
6719,"44274 West-smith Enke Rd.",Maricopa,Arizona,85138,520-568-8290
9213,"305 E. Brown Rd.",Mesa,Arizona,85201,480-833-2986
16174,"1525 S Power Rd",Mesa,Arizona,85206,
17075,"5110 S Power Rd",Mesa,Arizona,85212,
5026,"1212 S. Greenfield Rd.",Mesa,Arizona,85206,480-654-8920
4795,"6015 E. Brown Road",Mesa,Arizona,85205,480-325-5869
16073,"1135 S Gilbert Rd",Mesa,Arizona,85204,
3436,"2809 S. Sossaman Rd.",Mesa,Arizona,85212,480-354-4992
10616,"7547 E. Southern Ave.",Mesa,Arizona,85209,480-830-9249
5303,"9152 E. Brown Rd.",Mesa,Arizona,85207,480-357-4833
9218,"1137 S. Dobson Rd #10, Dobson/ Southern",Mesa,Arizona,85202,480-964-1411
5029,"9230 E. Broadway Rd.",Mesa,Arizona,85208,480-986-3004
16765,"1230 S Longmore Ave",Mesa,Arizona,85202,
5779,"360 N. Val Vista Dr.",Mesa,Arizona,85213,480-807-0251
5812,"5954 E. Mcdowell Rd.",Mesa,Arizona,85215,480-830-4518
7837,"2807 N. Power Rd.",Mesa,Arizona,85215,480-396-8301
7836,"1151 E. Mckellips Rd.",Mesa,Arizona,85203,480-733-0437
5814,"9950 E. Guadalupe Rd.",Mesa,Arizona,85212,480-354-3758
16725,"2151 N Power Rd",Mesa,Arizona,85215,
10006,"10650 North Oracle Rd","Oro Valley",Arizona,85737,520-544-5544
16217,"10555 N Oracle Rd","Oro Valley",Arizona,85737,
8802,"131 W. Riverside Dr.",Parker,Arizona,85344,928-669-6168
16272,"8055 W Bell Rd",Peoria,Arizona,85382,
17304,"24890 N Lake Pleasant Pkwy",Peoria,Arizona,85383,
3745,"10727 W. Olive Ave.",Peoria,Arizona,85345,623-815-8074
5794,"9069 W. Lake Pleasant Pkwy.",Peoria,Arizona,85382,623-376-0549
69,"8332 W Thunderbird Rd",Peoria,Arizona,85381,623-776-3006
7115,"7530 W. Cactus Rd.",Peoria,Arizona,85381,623-334-4635
8952,"24865 N. Lake Pleasant Parkway",Peoria,Arizona,85383,623-566-1110
9237,"9856 W. Peoria Ave.",Peoria,Arizona,85345,623-977-8260
9294,"9172 W Union Hills Dr",Peoria,Arizona,85382,623-572-0054
9222,"4275 W. Thomas Rd.",Phoenix,Arizona,85019,602-272-5601
9225,"2406 East Thomas Rd., 24th Street And Thomas",Phoenix,Arizona,85016,602-956-1800
9347,"1525 North Central Avenue",Phoenix,Arizona,85004,602-256-2124
9340,"3610 W. Anthem Way",Phoenix,Arizona,85086,623-551-4299
10615,"5450 West Happy Valley Road",Phoenix,Arizona,85053,623-582-7991
9339,"21001 N Tatum Blvd Ste 82",Phoenix,Arizona,85050,480-419-3921
5778,"4040 N. 19th Ave.",Phoenix,Arizona,85015,602-265-3167
52,"4657 E Chandler Blvd",Phoenix,Arizona,85048,480-598-6776
9312,"4323 East Bell Road",Phoenix,Arizona,85032,602-404-3147
16366,"4515 E Thomas Rd",Phoenix,Arizona,85018,
9314,"3440 West Glendale Ave",Phoenix,Arizona,85051,602-336-4590
1744,"6650 W. Lower Buckeye Rd.",Phoenix,Arizona,85043,623-907-9254
6718,"5835 W. Indian School Rd.",Phoenix,Arizona,85031,623-247-4030
17418,"5715 N 19th Ave",Phoenix,Arizona,85015,
11478,"3502 West Camelback Rd",Phoenix,Arizona,85019,480-308-5478
9245,"12409 N. Tatum Blvd.",Phoenix,Arizona,85032,602-996-7320
17024,"2140 E Baseline Rd",Phoenix,Arizona,85042,
9202,"4742 E. Indian School",Phoenix,Arizona,85018,602-840-6500
7263,"10707 W. Camelback Rd.",Phoenix,Arizona,85037,623-872-5316
7860,"1615 E. Baseline Rd.",Phoenix,Arizona,85042,602-276-6001
10150,"28635 N. North Valley Parkway",Phoenix,Arizona,85085,623-582-9207
9327,"6021 S Central Ave",Phoenix,Arizona,85042,602-276-1191
3264,"3210 E. Union Hills Dr., Corner Of 32nd Street",Phoenix,Arizona,85050,602-788-4793
2372,"3975 E. Thunderbird Rd.",Phoenix,Arizona,85032,602-923-0891
3383,"7550 South 19th Ave.",Phoenix,Arizona,85041,602-323-0583
16292,"7409 W Virginia Ave",Phoenix,Arizona,85035,
7262,"18460 N. 7th St.",Phoenix,Arizona,85022,602-993-5781
2963,"711 E. Indian School Rd.",Phoenix,Arizona,85014,602-266-0273
16699,"21001 N Tatum Blvd Ste 20",Phoenix,Arizona,85050,
16335,"4734 E Ray Rd",Phoenix,Arizona,85044,
1759,"10 E Dunlap Ave",Phoenix,Arizona,85020,602-371-3709
9256,"3560 West Peoria Avenue",Phoenix,Arizona,85029,602-938-3400
8366,"1610 E Camelback Rd",Phoenix,Arizona,85016,602-277-1727
16065,"12602 N Paradise Village Pkwy W",Phoenix,Arizona,85032,
17312,"16806 N 7th St",Phoenix,Arizona,85022,
7116,"1855 W. Thunderbird Rd.",Phoenix,Arizona,85023,602-439-6862
6862,"1850 W. Dunlap Ave.",Phoenix,Arizona,85021,602-861-1537
9290,"4430 East Ray Road",Phoenix,Arizona,85044,480-785-1006
9297,"6002 North 7th Street",Phoenix,Arizona,85014,602-728-0437
3625,"8245 W. Thomas Rd.",Phoenix,Arizona,85033,623-849-1940
10920,"3933 E. Camelback Rd.",Phoenix,Arizona,85018,602-956-2494
3500,"1625 N. 44th St.",Phoenix,Arizona,85008,602-275-0120
17714,"1625 E Camelback Rd.",Phoenix,Arizona,85016,
8914,"50 W. Jefferson St., Suite 140",Phoenix,Arizona,85003,602-296-7611
16505,"2727 W Agua Fria Fwy",Phoenix,Arizona,85027,
10147,"901 Willow Lake Rd",Prescott,Arizona,86301,928-771-0278
9343,"506 North Miller Valley Road",Prescott,Arizona,86301,928-442-0312
5983,"3025 N. Windsong Dr.","Prescott Valley",Arizona,86314,928-772-1613
1719,"7587 S. Power Rd.","Queen Creek",Arizona,85142,480-988-3182
1720,"21201 East Ocotillo Rd.,","Queen Creek",Arizona,85142,480-987-1615
17429,"21398 S Ellsworth Loop Rd","Queen Creek",Arizona,85142,
10007,"6045 North Scottsdale Road",Scottsdale,Arizona,85250,480-998-1670
10529,"7111 East Bell Rd.",Scottsdale,Arizona,85254,480-948-1142
16141,"9000 E Indian Bend Rd",Scottsdale,Arizona,85250,
16355,"15444 N Frank Lloyd Wright Blvd",Scottsdale,Arizona,85260,
16668,"32351 N Scottsdale Rd",Scottsdale,Arizona,85266,
7839,"32331 N Scottsdale Rd",Scottsdale,Arizona,85266,480-575-0220
7845,"7552 E. Indian School Rd.",Scottsdale,Arizona,85251,480-945-6660
7862,"10160 Bell Road East",Scottsdale,Arizona,85260,480-473-4608
89,"10010 N Scottsdale Rd",Scottsdale,Arizona,85253,480-607-5025
9210,"10653 N. Scottsdale Rd.",Scottsdale,Arizona,85254,480-998-3500
9252,"14672 N Frank Lloyd Wright",Scottsdale,Arizona,85260,480-661-2936
9264,"23215 No Pima Rd.",Scottsdale,Arizona,85255,480-473-2711
9328,"7901 E Thomas Road",Scottsdale,Arizona,85251,480-945-0396
10425,"20 Airport Road",Sedona,Arizona,86336,928-282-8569
2412,"60 E Deuce Of Clubs Dr.","Show Low",Arizona,85901,928-532-3200
16220,"4151 E Highway 90","Sierra Vista",Arizona,85635,
8828,"2090 East Fry Blvd.","Sierra Vista",Arizona,85635,520-458-1254
7,"9901b W Thunderbird Blvd","Sun City",Arizona,85351,623-933-7233
9217,"10720 West Bell Rd.","Sun City",Arizona,85351,623-972-2124
9230,"19602 R H Johnson Blvd.","Sun City West",Arizona,85375,623-214-1015
3491,"9546 E. Riggs Rd.","Sun Lakes",Arizona,85248,480-895-3063
16675,"13731 W Bell Rd",Surprise,Arizona,85374,
1743,"13870 W. Greenway Rd.",Surprise,Arizona,85374,623-546-0512
5477,"15474 W. Greenway Rd.",Surprise,Arizona,85374,623-584-1964
5530,"15300 N. Cotton Lane",Surprise,Arizona,85388,623-584-8558
9306,"19505 N Sunrise Blvd",Surprise,Arizona,85374,623-556-4778
10815,"718 N Main St.",Taylor,Arizona,85939,928-536-2044
10928,"909 East Apache Blvd",Tempe,Arizona,85281,480-967-0799
16110,"1818 E Baseline Rd",Tempe,Arizona,85283,
17256,"1800 E Rio Salado Pkwy Ste 120",Tempe,Arizona,85281,
33,"1750 E Broadway Rd",Tempe,Arizona,85282,480-557-0970
40,"1424 W Baseline Rd",Tempe,Arizona,85283,480-897-9774
5950,"855 E. Elliot Road, Corner Of Rural",Tempe,Arizona,85284,480-456-3602
7078,"3303 S. Rural",Tempe,Arizona,85282,480-345-6328
9205,"802 S. Mill Ave.",Tempe,Arizona,85281,480-966-6271
17231,"9830 W Lower Buckeye Rd",Tolleson,Arizona,85353,
16296,"6500 E Grant Rd",Tucson,Arizona,85715,
17223,"4040 N Oracle Rd",Tucson,Arizona,85705,
16295,"3901 W Ina Rd",Tucson,Arizona,85741,
9302,"8920 E Tanque Verde",Tucson,Arizona,85749,520-760-9188
16772,"3699 E Broadway Blvd",Tucson,Arizona,85716,
7841,"4365 N Oracle Rd",Tucson,Arizona,85705,520-407-2127
7855,"2601 S. Houghton Rd., Golf Links",Tucson,Arizona,85730,520-751-8523
91,"8705 E Speedway Blvd",Tucson,Arizona,85710,520-721-7631
7876,"3832 East Speedway",Tucson,Arizona,85716,520-323-3923
7859,"6370 N. Campbell Ave., #120",Tucson,Arizona,85718,520-299-7390
16659,"1225 W Irvington Rd",Tucson,Arizona,85714,
8420,"7740 N Cortaro Rd",Tucson,Arizona,85743,520-579-9918
9232,"4748 E. Sunrise",Tucson,Arizona,85718,520-577-1044
9211,"6488 N. Oracle Road",Tucson,Arizona,85704,520-297-8397
9277,"6895 E. Sunrise",Tucson,Arizona,85750,520-615-4800
16983,"9615 E Old Spanish Trl",Tucson,Arizona,85748,
9336,"7901 E. Golf Links Road",Tucson,Arizona,85730,520-731-3098
10184,"825 East University Blvd., Suite 101",Tucson,Arizona,85719,520-624-4519
9274,"615 N. Alvernon",Tucson,Arizona,85711,520-320-1184
9374,"1900 W. Valencia Rd.",Tucson,Arizona,85746,520-807-2288
9272,"7499 E. Broadway",Tucson,Arizona,85710,520-296-6222
9273,"3785 West Ina Rd., Ina And Thornydale",Tucson,Arizona,85741,520-744-1054
10307,"6310 E. Broadway Blvd.",Tucson,Arizona,85710,520-514-4301
9207,"865 E. Grant",Tucson,Arizona,85719,520-622-4853
7867,"5100 E. Grant Rd.",Tucson,Arizona,85712,520-323-0012
10742,"2385 N. Silverbell Road",Tucson,Arizona,85745,520-622-8009
9270,"2033 W Wickenburg Way",Wickenburg,Arizona,85390,928-684-7841
10028,"11464 South Fortuna Rd.",Yuma,Arizona,85367,928-342-3433
17171,"1450 E Yuma Palms Pkwy",Yuma,Arizona,85365,
9278,"1555 S Avenue B",Yuma,Arizona,85364,928-819-0208
9334,"2800 S 4th Ave",Yuma,Arizona,85364,928-344-2341
10408,"2833 Bella Vista Way","Bella Vista",Arkansas,72714,479-876-2153
10432,"3220 N. Reynolds Rd.",Bryant,Arkansas,72022,501-847-0803
17282,"7377 Alcoa Rd",Bryant,Arkansas,72022,
10518,"825 Oak St.",Conway,Arkansas,72032,501-336-8684
17011,"501 Elsinger Blvd",Conway,Arkansas,72032,
10409,"2402 N. College Avenue",Fayetteville,Arkansas,72703,479-251-1872
16802,"3545 N Shiloh Dr",Fayetteville,Arkansas,72703,
17357,"4001 Phoenix Ave","Fort Smith",Arkansas,72903,
10539,"3630 Central Ave.","Hot Springs",Arkansas,71913,501-620-4332
10666,"110 Southwest Dr.",Jonesboro,Arkansas,72401,870-268-1743
17037,"3000 E Highland Dr Ste A",Jonesboro,Arkansas,72401,
10779,"1122 S. University Avenue","Little Rock",Arkansas,72204,501-660-4470
16486,"12700 Chenal Pkwy","Little Rock",Arkansas,72211,
17611,"420 S University Ave","Little Rock",Arkansas,72205,
10975,"2501 Mccain Blvd.","North Little Rock",Arkansas,72116,501-404-6059
10678,"1501 West Kings Highway",Paragould,Arkansas,72450,870-240-8405
10816,"1749 W. Walnut St.",Rogers,Arkansas,72756,479-246-0871
17544,"2404 Promenade Blvd",Rogers,Arkansas,72758,
11093,"101 East Main Street",Russellville,Arkansas,72801,479-498-0014
10430,"8604 Highway 107",Sherwood,Arkansas,72120,501-834-1090
10519,"2001 S.thompson St",Springdale,Arkansas,72764,479-927-1568
10019,"3908 N. Stateline Ave.",Texarkana,Arkansas,71854,870-772-0236
10255,"2015 Fayetteville Road","Van Buren",Arkansas,72956,479-471-1608
4291,"12058 Palmdale Rd",Adelanto,California,92301,760-246-2803
9751,"5623 Kanan Rd.","Agoura Hills",California,91301,818-991-5522
17657,"2700 5th St",Alameda,California,94501,
9128,"2314 Santa Clara Ave",Alameda,California,94501,510-523-4929
9250,"885 Island Dr Ste A",Alameda,California,94502,510-865-2155
9255,"931 Marina Village Pkwy",Alameda,California,94501,510-523-3504
9991,"3158 Danville Blvd",Alamo,California,94507,925-314-9714
17044,"1057 Eastshore Hwy",Albany,California,94710,
9595,"1382 Solano Ave",Albany,California,94706,510-559-3414
16041,"2120 W Main St",Alhambra,California,91801,
3968,"816 E. Main Street",Alhambra,California,91801,626-293-5750
9679,"1485 E. Valley Blvd.",Alhambra,California,91801,626-289-5075
9791,"2532 W. Valley Blvd.",Alhambra,California,91803,626-308-1001
16077,"26932 La Paz Rd","Aliso Viejo",California,92656,
8872,"26891 Aliso Creek Rd","Aliso Viejo",California,92656,949-360-4081
3025,"1385 Tavern Rd",Alpine,California,91901,619-445-6903
10225,"1803 South Harbor Blvd",Anaheim,California,92802,714-817-9116
16201,"8148 E Santa Ana Canyon Rd",Anaheim,California,92808,
17478,"101 S Euclid St",Anaheim,California,92802,
17730,"2222 E. Lincoln Ave.",Anaheim,California,92806,
8874,"1676 West Katella Avenue",Anaheim,California,92802,714-956-5920
9555,"510 South Beach Boulevard",Anaheim,California,92804,714-226-9393
9560,"611 S. Brookhurst St.",Anaheim,California,92804,714-778-3123
9753,"5735 E. La Palma Avenue",Anaheim,California,92807,714-779-2483
9759,"270 West Lincoln Avenue",Anaheim,California,92805,714-774-3827
9760,"460 South Anaheim Hills Road",Anaheim,California,92807,714-921-0275
9762,"2011 East La Palma",Anaheim,California,92806,714-991-9161
9774,"731 South Weir Canyon Road","Anaheim Hills",California,92808,714-282-8095
11342,"2975 East Street",Anderson,California,96007,530-744-6024
9539,"41 N Main St","Angels Camp",California,95222,209-736-1840
16940,"5769 Lone Tree Way",Antioch,California,94531,
4326,"4028 Lone Tree Way",Antioch,California,94531,925-978-0276
16358,"19201 Bear Valley Rd","Apple Valley",California,92308,
17334,"20288 Us Hwy 18","Apple Valley",California,92307,
9311,"20180 Us Highway 18","Apple Valley",California,92307,760-946-3335
3952,"783 Rio Del Mar Blvd Ste 3",Aptos,California,95003,831-687-0460
9680,"188 Las Tunas Dr.",Arcadia,California,91007,626-446-8830
9721,"1401 S. Baldwin Ave.",Arcadia,California,91007,626-445-1284
9482,"600 F St",Arcata,California,95521,707-822-2479
16040,"9725 Laurel Canyon Blvd",Arleta,California,91331,
9625,"9089 Woodman Ave.",Arleta,California,91331,818-892-3167
9592,"1435 E Grand Ave","Arroyo Grande",California,93420,805-474-5720
9488,"11851 Artesia Boulevard",Artesia,California,90701,562-924-7697
10810,"505 #b Bear Mountain Blvd",Arvin,California,93203,661-854-3187
9909,"8320 El Camino Real",Atascadero,California,93422,805-466-0732
17449,"1000 Commerce Ave",Atwater,California,95301,
3117,"1651 Bellevue Rd",Atwater,California,95301,209-358-3304
16473,"2700 Bell Rd",Auburn,California,95603,
3947,"10045 Combie Rd",Auburn,California,95602,530-268-3753
9150,"388 Elm St.",Auburn,California,95603,530-823-0825
9914,"2140 Grass Valley Hwy",Auburn,California,95603,530-885-6084
17593,"809 N Azusa Ave",Azusa,California,91702,
5945,"915 E. Arrow Hwy,",Azusa,California,91702,626-332-7213
9637,"367 N Citrus Ave",Azusa,California,91702,626-334-7872
9780,"101 W Foothill Blvd",Azusa,California,91702,626-969-6669
10921,"6601 Stine Road",Bakersfield,California,93313,661-831-7386
16160,"3401 Mall View Rd",Bakersfield,California,93306,
16723,"9100 Rosedale Hwy",Bakersfield,California,93312,
17552,"2901 Ming Ave",Bakersfield,California,93304,
17602,"11000 Stockdale Hwy",Bakersfield,California,93311,
2768,"6500 S. Union Ave.",Bakersfield,California,93307,661-835-8371
4221,"11300 Ming Ave",Bakersfield,California,93311,661-664-0187
5495,"5184 Stockdale Hwy.",Bakersfield,California,93309,661-633-2066
7001,"6500 Niles Street",Bakersfield,California,93306,661-363-6384
8913,"9628 Rosedale Hwy.",Bakersfield,California,93312,661-587-3705
9204,"3500 Stine Rd",Bakersfield,California,93309,661-833-0200
9878,"8200 Stockdale Hwy Ste G",Bakersfield,California,93311,661-832-0982
9900,"2690 Mount Vernon Ave",Bakersfield,California,93306,661-872-3821
9975,"4400 Coffee Rd",Bakersfield,California,93308,661-588-1060
5775,"3151 Baldwin Park Blvd..","Baldwin Park",California,91706,626-814-3506
9672,"14503 Ramona Blvd","Baldwin Park",California,91706,626-813-7622
9673,"1550 Puente Avenue","Baldwin Park",California,91706,626-814-1483
8858,"7101 Atlantic Avenue",Bell,California,90201,323-773-2025
9761,"2100 Columbus Pkwy",Benicia,California,94510,707-747-3453
10121,"2655 Telegraph Ave.",Berkeley,California,94704,510-549-9063
17673,"2187 Shattuck Ave",Berkeley,California,94704,
17712,"1414 University Ave.",Berkeley,California,94702,
3026,"2300 Shattuck Ave",Berkeley,California,94704,510-549-4255
9941,"1451 Shattuck Ave",Berkeley,California,94709,510-849-0484
9767,"9045 Wilshire Boulevard","Beverly Hills",California,90211,310-273-5252
9739,"42136 Big Bear Blvd/po Box 6966, Big Bear Boulevard And Fox Farm Road","Big Bear Lake",California,92315,909-878-0060
11111,"390 N. Brea Blvd",Brea,California,92821,714-256-4486
17530,"855 E Birch St",Brea,California,92821,
4283,"3171 Balfour Rd",Brentwood,California,94513,925-626-3963
9511,"1175 2nd St",Brentwood,California,94513,925-634-8045
9970,"218 E Highway 246 Bldg 3",Buellton,California,93427,805-693-1132
17170,"7530 Orangethorpe Ave","Buena Park",California,90621,
5837,"7065 La Palma Ave.","Buena Park",California,90620,714-228-2085
8861,"8850 Valley View Street","Buena Park",California,90620,714-827-7321
16701,"1800 W Empire Ave",Burbank,California,91504,
17721,"1033 N. Hollywood Way",Burbank,California,91505,
9601,"1015 N. San Fernando Boulevard",Burbank,California,91504,818-841-0810
9658,"101 E. Alameda Ave.",Burbank,California,91502,818-563-2724
9692,"1820 W. Verdugo Ave.",Burbank,California,91506,818-845-9332
9734,"2500 W. Victory Blvd",Burbank,California,91505,818-955-8200
9795,"511 N. Hollywood Way",Burbank,California,91505,818-841-0710
9811,"1871 El Camino Real",Burlingame,California,94010,650-692-5065
11141,"420 E 2nd St",Calexico,California,92231,760-618-7554
16414,"209 W Ventura Blvd",Camarillo,California,93010,
9143,"5800 Santa Rosa Rd",Camarillo,California,93012,805-484-8208
9719,"5259 Mission Oaks Blvd.",Camarillo,California,93012,805-482-0707
9764,"351 Carmen Dr., Suite B",Camarillo,California,93010,805-484-3632
9844,"760 Arneill Rd",Camarillo,California,93010,805-484-0446
3009,"3500 Palmer Dr","Cameron Park",California,95682,530-676-0171
6793,"3020 Green Valley Rd Ste B","Cameron Park",California,95682,530-676-6352
9805,"1720 S Bascom Ave",Campbell,California,95008,408-371-7191
9895,"148 North San Tomas Aquino Rd.",Campbell,California,95008,408-374-1337
17226,"6700 Topanga Canyon Blvd","Canoga Park",California,91303,
9602,"21051 Sherman Way","Canoga Park",California,91303,818-348-6222
9611,"19424 Soledad Canyon Rd.","Canyon Country",California,91351,661-251-5444
17641,"1825 41st Ave",Capitola,California,95010,
9597,"1750 41st Ave",Capitola,California,95010,831-476-0400
9960,"809 Bay Ave",Capitola,California,95010,831-475-1421
10743,"2650 Gateway Road",Carlsbad,California,92009,760-795-2540
9479,"2510 El Camino Real",Carlsbad,California,92008,760-729-8941
9528,"7740 Rancho Santa Fe Road",Carlsbad,California,92009,760-753-5115
9612,"6 The Crossroads",Carmel,California,93923,831-624-0148
9809,"4959 Marconi Ave",Carmichael,California,95608,916-485-1144
9235,"1036 Casitas Pass Rd",Carpinteria,California,93013,805-684-0260
17119,"20700 Avalon Blvd Ste 700",Carson,California,90746,
17394,"651 W Sepulveda Blvd",Carson,California,90745,
5012,"23806 Main Street",Carson,California,90745,310-952-6640
8839,"150 West Carson Street",Carson,California,90745,310-549-6500
9904,"3667 Castro Valley Blvd","Castro Valley",California,94546,510-538-1227
1520,"68-010 Vista Chino","Cathedral City",California,92234,760-325-3229
16104,"67750 E Palm Canyon Dr","Cathedral City",California,92234,
9616,"31575 Date Palm Dr.","Cathedral City",California,92234,760-324-4239
16092,"20200 Bloomfield Ave",Cerritos,California,90703,
16648,"11525 South St",Cerritos,California,90703,
9489,"13303 East South Street",Cerritos,California,90703,562-865-0612
2881,"1120 Forest Ave.",Chico,California,95928,530-894-5112
7128,"2780 Esplanade",Chico,California,95973,530-345-9009
7506,"1496 East Ave",Chico,California,95926,530-896-5404
9599,"801 East Ave",Chico,California,95926,530-345-1363
16076,"5555 Philadelphia St",Chino,California,91710,
16338,"3944 Grand Ave",Chino,California,91710,
9778,"12101 Central Ave., Central And Philadelphia",Chino,California,91710,909-591-3911
9705,"13181 Peyton Drive","Chino Hills",California,91709,909-627-5099
9816,"3290 Chino Hills Parkway","Chino Hills",California,91709,909-597-3898
10182,"866 Eastlake Parkway","Chula Vista",California,91914,619-482-8959
16052,"1240 Broadway","Chula Vista",California,91911,
8859,"16 3rd Avenue Ext.","Chula Vista",California,91910,619-425-1910
9113,"645 E. Palomar St.","Chula Vista",California,91911,619-421-6500
9140,"555 Broadway Ste 1054","Chula Vista",California,91910,619-420-7808
9196,"1376 3rd Ave","Chula Vista",California,91911,619-691-0662
9240,"380 E H St","Chula Vista",California,91910,619-426-0866
9632,"691 3rd Ave.","Chula Vista",California,91910,619-426-3811
16489,"5837 Sunrise Blvd","Citrus Heights",California,95610,
16058,"17751 Colima Rd","City Of Industry",California,91748,
3553,"21590 East Valley Blvd.","City Of Industry",California,91789,909-444-7807
6526,"6490 Clayton Rd",Clayton,California,94517,925-673-2803
345,"1111 S Cloverdale Blvd",Cloverdale,California,95425,707-894-5206
16136,"900 Shaw Ave",Clovis,California,93612,
17111,"695 W Herndon Ave",Clovis,California,93612,
3925,"2133 Shaw Ave",Clovis,California,93611,559-297-6730
3940,"1107 N Willow Ave",Clovis,California,93611,559-322-0340
7910,"1794 Ashlan Ave",Clovis,California,93611,559-294-6603
9801,"10 Shaw Avenue",Clovis,California,93612,559-299-9511
9933,"1405 Herndon Ave.,",Clovis,California,93611,559-322-1574
5497,"84010 Avenue 50",Coachella,California,92236,760-391-5656
16111,"5001 Junipero Serra Blvd",Colma,California,94014,
10792,"1010 N. Pepper Avenue",Colton,California,92324,909-954-2242
16043,"5600 Whittier Blvd",Commerce,California,90022,
17349,"1621 S Alameda St",Compton,California,90220,
9495,"220 East Compton Boulevard",Compton,California,90220,310-604-1747
9594,"901 S. Central Avenue",Compton,California,90220,310-609-1304
9238,"2677 Clayton Rd",Concord,California,94519,925-689-2398
9509,"4424 Treat Blvd",Concord,California,94521,925-676-4040
9827,"5408 Ygnacio Valley Rd",Concord,California,94521,925-672-0646
16876,"2615 Tuscanny St",Corona,California,92881,
8816,"11950 De Palma Rd.",Corona,California,92883,951-603-0855
9190,"1299 E Ontario Ave",Corona,California,92881,951-270-2073
9604,"1183 Magnolia Ave.",Corona,California,92879,951-272-4427
9728,"1322 W. 6th St.",Corona,California,92882,951-817-8636
16637,"3030 Harbor Blvd Ste A","Costa Mesa",California,92626,
8830,"2701 Harbor Blvd., Bldg B","Costa Mesa",California,92626,714-438-1110
9484,"1150 Baker St.","Costa Mesa",California,92626,714-662-7517
9508,"1835 Newport Boulevard #c","Costa Mesa",California,92627,949-722-1750
9863,"175 E 17th St","Costa Mesa",California,92627,949-631-9223
9146,"575 S. Citrus Ave.",Covina,California,91723,626-331-0036
9641,"206 N. Azusa Avenue",Covina,California,91722,626-331-9907
10478,"657 Us Highway 101 N.","Crescent City",California,95531,707-464-5429
16048,"10820 Jefferson Blvd","Culver City",California,90230,
17595,"6000 Sepulveda Blvd., Ste 2250","Culver City",California,90230,
9573,"6299 South Bristol Parkway","Culver City",California,90230,310-641-4426
17687,"19499 Stevens Creek Blvd",Cupertino,California,95014,
9894,"10455 S De Anza Blvd",Cupertino,California,95014,408-996-1911
16063,"6835 Katella Ave",Cypress,California,90630,
9575,"5501 Ball Road",Cypress,California,90630,714-484-3502
10165,"135 Pierce St.","Daly City",California,94015,650-992-2521
16746,"133 Serramonte Ctr","Daly City",California,94015,
9752,"375 Gellert Blvd.","Daly City",California,94015,650-994-0752
9581,"32900 Pacific Coast Highway","Dana Point",California,92629,949-489-9030
9912,"32575 Golden Lantern St","Dana Point",California,92629,949-248-4803
9296,"3420 Camino Tassajara",Danville,California,94506,925-736-0262
9800,"650 San Ramon Valley Blvd",Danville,California,94526,925-820-3222
17508,"4601 2nd St",Davis,California,95618,
9142,"1550 E Covell Blvd",Davis,California,95616,530-753-4004
9282,"1471 W Covell Blvd",Davis,California,95616,530-757-1128
9247,"2662 Del Mar Heights Rd","Del Mar",California,92014,858-481-8601
17259,"747 Grand Ave","Diamond Bar",California,91765,
9667,"300 South Diamond Bar Boulevard","Diamond Bar",California,91765,909-861-5551
9565,"14830 Highway 4","Discovery Bay",California,94505,925-240-7189
9950,"1057 N 1st St",Dixon,California,95620,707-678-4412
3986,"8400 Firestone Blvd.",Downey,California,90241,562-861-5460
8867,"7915 Florence Avenue",Downey,California,90240,562-927-4747
9504,"8008 Firestone Boulevard",Downey,California,90241,562-904-4848
16100,"1050 Huntington Dr",Duarte,California,91010,
9788,"2315 Huntington Dr",Duarte,California,91010,626-305-9333
16116,"7200 Amador Plaza Rd",Dublin,California,94568,
17628,"2800 Dublin Blvd",Dublin,California,94568,
3024,"7201 Regional St",Dublin,California,94568,925-828-3823
9784,"1030 Colorado Blvd.","Eagle Rock",California,90041,323-255-5130
17710,"1775 East Bayshore Road","East Palo Alto",California,94303,
17077,"12471 Limonite Ave",Eastvale,California,91752,
5958,"14220 Schleisman Rd",Eastvale,California,92880,951-340-0875
16102,"250 Broadway","El Cajon",California,92021,
16504,"2911 Jamacha Rd","El Cajon",California,92019,
8842,"426 East Chase Avenue, Chase Avenue And Avocado Boulevard","El Cajon",California,92020,619-447-1069
9114,"1299 Broadway","El Cajon",California,92021,619-441-8040
9167,"790 Jamacha Rd","El Cajon",California,92019,619-442-9439
9173,"2760 Fletcher Pky","El Cajon",California,92020,619-461-4411
9818,"572 Fletcher Pkwy","El Cajon",California,92020,619-440-3701
10931,"1745 S. Imperial Ave.","El Centro",California,92243,760-353-5130
16937,"2295 N Imperial Ave","El Centro",California,92243,
3053,"10650 San Pablo Ave","El Cerrito",California,94530,510-527-3210
9086,"670 El Cerrito Plz","El Cerrito",California,94530,510-524-5895
17344,"4400 Town Center Blvd","El Dorado Hills",California,95762,
3909,"4330 Latrobe Rd","El Dorado Hills",California,95762,916-934-0133
16413,"7505 Laguna Blvd","Elk Grove",California,95758,
182,"8400 Bradshaw Rd..","Elk Grove",California,95624,916-689-1124
1825,"5040 Laguna Blvd","Elk Grove",California,95758,916-684-6822
2124,"8585 Elk Grove Blvd","Elk Grove",California,95624,916-686-5193
9132,"9285 Elk Grove Blvd","Elk Grove",California,95624,916-714-5372
5834,"11574 Lower Azusa Rd","El Monte",California,91732,626-350-3550
9609,"9920 East Garvey Avenue","El Monte",California,91733,626-443-3097
9639,"11940 Garvey Avenue","El Monte",California,91732,626-350-1052
17624,"1555 40th Street",Emeryville,California,94608,
9553,"4349 San Pablo Ave",Emeryville,California,94608,510-653-0526
16416,"1010 N El Camino Real",Encinitas,California,92024,
9135,"129 N El Camino Real",Encinitas,California,92024,760-942-2269
9181,"455 Encinitas Blvd.",Encinitas,California,92024,760-436-4055
2958,"16461 Ventura Blvd.",Encino,California,91436,818-986-2117
9677,"17320 Ventura Blvd.",Encino,California,91316,818-995-0071
16083,"1280 Auto Park Way",Escondido,California,92029,
17644,"280 E Via Rancho Pkwy",Escondido,California,92025,
9103,"318 W El Norte Parkway",Escondido,California,92026,760-489-1505
9104,"2427 E. Valley Pkwy",Escondido,California,92027,760-745-2503
9108,"1655 S. Centre City Pkwy.",Escondido,California,92025,760-746-9400
9959,"1560 W Valley Pkwy",Escondido,California,92029,760-738-9835
16759,"2525 4th St",Eureka,California,95501,
3939,"800 W Harris St Ste 20",Eureka,California,95503,707-443-8311
9681,"1105 Myrtle Ave",Eureka,California,95501,707-443-5081
16199,"2059 Cadenasso Dr",Fairfield,California,94533,
3075,"5059 Business Center Dr",Fairfield,California,94534,707-863-0727
9371,"300 Travis Blvd",Fairfield,California,94533,707-422-3460
9712,"3340 N Texas St",Fairfield,California,94533,707-423-9463
9199,"5420 Dewey Dr","Fair Oaks",California,95628,916-864-4803
9814,"8101 Greenback Ln.","Fair Oaks",California,95628,916-726-4466
9110,"1101 S. Mission Rd.",Fallbrook,California,92028,760-723-5721
9853,"6247 Graham Hill Rd",Felton,California,95018,831-335-6403
11305,"328 Central Avenue",Fillmore,California,93015,805-524-0052
16474,"430 Blue Ravine Rd",Folsom,California,95630,
3950,"2790 E Bidwell St",Folsom,California,95630,916-983-8774
9923,"1005 E Bidwell St",Folsom,California,95630,916-983-5366
9980,"9479 Madison Ave",Folsom,California,95630,916-987-5710
11035,"16049 Baseline Avenue #1",Fontana,California,92336,909-829-1206
16187,"16964 Slover Ave",Fontana,California,92337,
17074,"15272 Summit Ave",Fontana,California,92336,
8589,"15286 Summit Ave.",Fontana,California,92336,909-463-9255
9619,"9840 Sierra Ave.",Fontana,California,92335,909-350-0284
16339,"26762 Portola Pkwy","Foothill Ranch",California,92610,
8834,"26686 Portola Pkwy, Portola Parkway And Bake","Foothill Ranch",California,92610,949-470-4630
3932,"150 S Main St","Fort Bragg",California,95437,707-961-1342
9879,"987 E Hillsdale Blvd","Foster City",California,94404,650-570-4693
9569,"17136 Magnolia St.","Fountain Valley",California,92708,714-847-6054
9710,"111 E Merced St",Fowler,California,93625,559-834-1606
17592,"43950 Pacific Commons Blvd",Fremont,California,94538,
331,"2000 Driscoll Rd",Fremont,California,94539,510-770-8571
9099,"4020 Fremont Hub",Fremont,California,94538,510-791-9108
9234,"46445 Mission Blvd",Fremont,California,94539,510-656-2467
9600,"35720 Fremont Blvd",Fremont,California,94536,510-792-4867
9971,"4077 W Clinton Ave",Fresno,California,93722,559-271-3177
9994,"728 W Shaw Ave",Fresno,California,93704,559-226-1485
9865,"7096 N West Ave",Fresno,California,93711,559-436-0471
9129,"1302 Fulton Mall",Fresno,California,93721,559-233-7311
7553,"3011 E Shields Ave",Fresno,California,93726,559-224-2965
6772,"4987 N. Fresno St.",Fresno,California,93726,559-227-7137
5422,"5180 E. Kings Canyon Road",Fresno,California,93727,559-255-9009
9149,"6750 N Cedar Ave",Fresno,California,93710,559-299-3115
10074,"5995 East Kings Canyon Rd",Fresno,California,93727,559-252-1124
9391,"1113 E Champlain Dr",Fresno,California,93720,559-434-2158
16084,"3150 W Shaw Ave",Fresno,California,93711,
10801,"6720 N. Fresno St.",Fresno,California,93710,559-432-2729
16337,"7600 N Blackstone Ave",Fresno,California,93720,
16755,"5740 N Blackstone Ave",Fresno,California,93710,
9537,"1325 W. Shields Ave.",Fresno,California,93705,559-224-6963
9846,"6800 N Milburn Ave",Fresno,California,93722,559-451-3486
16108,"3173 E Shields Ave",Fresno,California,93726,
17614,"6655 North Riverside Dr",Fresno,California,93722,
16722,"1893 W Malvern Ave",Fullerton,California,92833,
16756,"200 W Orangethorpe Ave",Fullerton,California,92832,
7079,"2200 N. Harbor Blvd. (nec)",Fullerton,California,92835,714-446-9421
9598,"455 North State College Boulevard",Fullerton,California,92831,714-871-6700
9754,"1823 West Orangethorpe Avenue",Fullerton,California,92833,714-871-3040
3022,"1063 C St",Galt,California,95632,209-745-9534
16093,"2169 W Redondo Beach Blvd",Gardena,California,90247,
9564,"15700 South Western Avenue",Gardena,California,90247,310-538-3131
16045,"12100 Harbor Blvd","Garden Grove",California,92840,
16046,"13831 Brookhurst St","Garden Grove",California,92843,
8862,"12031 Brookhurst Street","Garden Grove",California,92840,714-530-5280
16971,"6705 Camino Arroyo",Gilroy,California,95020,
9945,"800 First St.",Gilroy,California,95020,408-842-0373
10445,"125 N. Central Avenue",Glendale,California,91203,818-637-2758
17375,"2195 Glendale Galleria",Glendale,California,91210,
9614,"1122 East Broadway, 1122 East Broadway",Glendale,California,91205,818-547-0170
9787,"3943 San Fernando Rd.",Glendale,California,91204,818-549-2270
9733,"435 East Arrow Hwy",Glendora,California,91740,626-963-1625
9851,"130 N Grand Ave",Glendora,California,91741,626-963-0385
11216,"7030 Hollister Avenue",Goleta,California,93117,805-562-1480
17751,"6865 Hollister Ave",Goleta,California,93117,805-770-4317
9156,"5875 Calle Real",Goleta,California,93117,805-967-5677
9737,"189 South Turnpike Road",Goleta,California,93111,805-967-4525
11034,"11900 Balboa Blvd","Granada Hills",California,91344,818-360-0374
17395,"11133 Balboa Blvd","Granada Hills",California,91344,
9655,"10208 Balboa Blvd.","Granada Hills",California,91344,818-368-5635
9978,"18020 Chatsworth St","Granada Hills",California,91344,818-831-3271
8825,"12071 Mt. Vernon Ave,","Grand Terrace",California,92313,909-514-0287
9526,"8455 Auburn Folsom Rd","Granite Bay",California,95746,916-791-2197
9155,"1005 Sutton Way","Grass Valley",California,95945,530-272-8881
9219,"330 Bon Air Shopping Ctr",Greenbrae,California,94904,415-461-9093
9525,"260 Spruce St",Gridley,California,95948,530-846-3634
9730,"2141 South Hacienda Boulevard","Hacienda Heights",California,91745,626-330-8775
9216,"60 Cabrillo Hwy N","Half Moon Bay",California,94019,650-726-6684
17025,"140 N 12th Ave",Hanford,California,93230,
9828,"574 W. Lacey Blvd.",Hanford,California,93230,559-582-2875
9893,"2539 N 11th Ave",Hanford,California,93230,559-585-3960
9589,"12221 Carson Street","Hawaiian Gardens",California,90716,562-468-7011
17354,"2700 W 120th St",Hawthorne,California,90250,
5809,"4775 W. Rosecrans Ave.",Hawthorne,California,90250,310-263-7330
8831,"3880 W. Rosecrans Blvd",Hawthorne,California,90250,310-675-0359
8860,"11831 Hawthorne Boulevard",Hawthorne,California,90250,310-679-3668
10199,"26059 Mission Blvd.",Hayward,California,94544,510-886-2207
16804,"2499 Whipple Rd",Hayward,California,94544,
17265,"19661 Hesperian Blvd",Hayward,California,94541,
816,"22501 Foothill Blvd",Hayward,California,94541,510-881-9474
9622,"243 W Jackson St",Hayward,California,94544,510-783-0330
1173,"455 Center St",Healdsburg,California,95448,707-433-3357
16234,"3527 W Florida Ave",Hemet,California,92545,
3033,"110 E Stetson Ave",Hemet,California,92543,951-766-1618
8521,"1003 E. Devonshire Ave.",Hemet,California,92543,951-658-2348
9183,"3055 W Florida Ave",Hemet,California,92545,951-652-0866
9502,"43418 State Highway 74",Hemet,California,92544,951-927-2584
9101,"155 Pacific Coast Highway","Hermosa Beach",California,90254,310-372-4345
9476,"711 Pier Avenue","Hermosa Beach",California,90254,310-374-6266
17519,"12795 Main St",Hesperia,California,92345,
9644,"16975 Bear Valley Rd.",Hesperia,California,92345,760-947-7043
8436,"27310 Baseline",Highland,California,92346,909-862-4048
9313,"7241 Boulder Ave",Highland,California,92346,909-425-1298
16360,"1790 Airline Hwy",Hollister,California,95023,
9624,"1747 North Cahuenga Boulevard",Hollywood,California,90028,323-463-7900
9732,"861 North Vine Street",Hollywood,California,90038,323-466-7300
17141,"9882 Adams Ave","Huntington Beach",California,92646,
6782,"18872 Beach Blvd.","Huntington Beach",California,92648,714-378-1452
7088,"16961 Beach Boulevard","Huntington Beach",California,92647,714-841-3591
819,"155 5th St., Suite 175","Huntington Beach",California,92648,714-536-6145
8850,"19121 Beach Boulevard","Huntington Beach",California,92648,714-848-1522
8885,"15520 Goldenwest St.","Huntington Beach",California,92647,714-373-4352
9373,"16922 Bolsa Chica Street","Huntington Beach",California,92649,714-377-8956
9483,"10011 Adams Avenue","Huntington Beach",California,92646,714-963-8391
9491,"5822 Edinger Avenue","Huntington Beach",California,92649,714-846-2824
9577,"7191 Warner Avenue","Huntington Beach",California,92647,714-841-5118
11073,"3208 East Florence Avenue","Huntington Park",California,90255,323-589-1916
9596,"5960 Pacific Boulevard","Huntington Park",California,90255,323-589-6703
9120,"800 Palm Ave.","Imperial Beach",California,91932,619-424-8989
9779,"74955 Us Highway 111","Indian Wells",California,92210,760-346-4464
2050,"42150 A Jackson St.",Indio,California,92203,760-347-0326
9134,"49980 Jefferson St",Indio,California,92201,760-771-8848
9648,"82-270 Highway 111",Indio,California,92201,760-342-2008
16670,"3471 W Century Blvd",Inglewood,California,90301,
8837,"222 N. Market St.",Inglewood,California,90301,310-671-0441
9578,"3120 W. Imperial Hwy.",Inglewood,California,90303,310-676-1183
9584,"4345 West Century Boulevard",Inglewood,California,90304,310-672-6078
16120,"3750 Barranca Pkwy",Irvine,California,92606,
16591,"13200 Jamboree Rd",Irvine,California,92602,
17211,"900 Spectrum Center Dr",Irvine,California,92618,
17707,"4255 Campus Drive, Suite A150",Irvine,California,92612,
387,"3949 Portola Pkwy.",Irvine,California,92602,714-508-7527
6768,"15333 Culver Blvd., Suite #300",Irvine,California,92604,949-654-2600
8869,"6775 Quail Hill Parkway",Irvine,California,92603,949-823-8915
9486,"5385 Alton Parkway",Irvine,California,92604,949-733-8226
9497,"14330 Culver Drive",Irvine,California,92604,949-559-8129
9561,"17625 Harvard Avenue",Irvine,California,92614,949-261-5690
9562,"3981 Irvine Boulevard",Irvine,California,92602,714-368-0991
9233,"515 S State Highway 49",Jackson,California,95642,209-223-3784
9983,"929 Sierra St",Kingsburg,California,93631,559-897-0290
17739,"965 Town Center","La Canada Flintridge",California,91011,
6710,"25622 Crown Valley Pkwy.","Ladera Ranch",California,92694,949-347-6751
9552,"27702 Crown Valley Prkwy Ste I","Ladera Ranch",California,92694,949-364-1430
9938,"3625 Mt Diablo Blvd",Lafayette,California,94549,925-284-7121
9591,"30842 S Pacific Coast, Highway, Pacific Coast Highway And Wesley","Laguna Beach",California,92651,949-499-2277
3057,"30261 Golden Lantern","Laguna Niguel",California,92677,949-363-0482
8863,"28221 Crown Valley Pky","Laguna Niguel",California,92677,949-831-2011
8880,"29995 Alicia Pkwy","Laguna Niguel",California,92677,949-495-2383
9924,"27251 La Paz Rd","Laguna Niguel",California,92677,949-831-4313
9246,"24167 Paseo De Valencia","Laguna Woods",California,92637,949-586-3503
10223,"1151 South Harbor Blvd","La Habra",California,90631,714-773-0841
17460,"1000 W Imperial Hwy","La Habra",California,90631,
9758,"2101 W. Imperial Highway #c","La Habra",California,90631,562-947-3789
9831,"1387 W Whittier Blvd","La Habra",California,90631,562-691-1721
17808,"3135 Matthews Ln Ste 130","La Jolla",California,92093,858-888-4105
9195,"8831 Villa La Jolla Dr.","La Jolla",California,92037,858-457-4480
9268,"5495 La Jolla Blvd","La Jolla",California,92037,858-456-4833
9926,"7525 Eads Ave","La Jolla",California,92037,858-551-8698
17274,"18287 Collier Ave","Lake Elsinore",California,92530,
9654,"2091 E Lakeshore Dr","Lake Elsinore",California,92530,951-245-5540
9847,"29985 Canyon Hills Rd","Lake Elsinore",California,92532,951-244-6001
8851,"24271 Muirlands Blvd","Lake Forest",California,92630,949-472-6016
8884,"24372 Rockfield Blvd","Lake Forest",California,92630,949-830-5090
9587,"21761 Lake Forest Drive","Lake Forest",California,92630,949-855-8307
9943,"949 11th St",Lakeport,California,95453,707-262-0244
16748,"141 Lakewood Center Mall",Lakewood,California,90712,
5014,"4909 Paramount Blvd.",Lakewood,California,90712,562-272-6809
8844,"6510 South St.",Lakewood,California,90713,562-867-1715
8878,"5505 Carson St.",Lakewood,California,90713,562-420-1403
9572,"5117 Lakewood Boulevard",Lakewood,California,90712,562-634-9100
9162,"3749 Avocado Blvd","La Mesa",California,91941,619-670-5335
9169,"5500 Grossmont Center Dr Bldg P","La Mesa",California,91942,619-462-9592
9740,"15210 Rosecrans Avenue","La Mirada",California,90638,714-228-0204
10813,"8929 Panama Rd Suite B",Lamont,California,93241,661-845-1953
16069,"43525 10th St W",Lancaster,California,93534,
1666,"846 W. Avenue K",Lancaster,California,93534,661-942-5652
8522,"43839 15th Street West, Suite P",Lancaster,California,93534,661-942-0607
9618,"4105 W Avenue L",Lancaster,California,93536,661-722-5784
9657,"44430 Challenger Way",Lancaster,California,93535,661-940-8311
9785,"2006 West Avenue J, 20th And J Street West",Lancaster,California,93536,661-945-2729
4065,"858 N. Sunset Ave.","La Puente",California,91744,626-931-1410
9629,"861 North Hacienda Boulevard","La Puente",California,91744,626-968-0669
16987,"78935 Us Hwy 111","La Quinta",California,92253,
3341,"44-075 Jefferson St.","La Quinta",California,92253,760-772-2969
17412,"16858 Golden Valley Pkwy",Lathrop,California,95330,
16060,"2462 Foothill Blvd","La Verne",California,91750,
9709,"1479 Foothill Boulevard","La Verne",California,91750,909-593-7534
17774,"14310 Hawthorne Blvd",Lawndale,California,90260,310-363-4118
7191,"15718 Hawthorne Blvd (nec)",Lawndale,California,90260,310-970-7440
9588,"15103 Hawthorne Boulevard",Lawndale,California,90260,310-679-7619
9112,"7100 Broadway, Broadway And Massachusetts","Lemon Grove",California,91945,619-697-3415
17292,"950 Groveland Ln",Lincoln,California,95648,
9535,"63 Lincoln Blvd.",Lincoln,California,95648,916-408-0230
16275,"4300 Las Positas Rd",Livermore,California,94551,
9397,"4405 1st St",Livermore,California,94551,925-373-8124
9678,"1500 1st St",Livermore,California,94550,925-455-5580
10360,"474 Winton Pkwy",Livingston,California,95334,209-394-6785
16294,"2355 W Kettleman Ln",Lodi,California,95242,
9243,"1000 W Kettleman Ln",Lodi,California,95240,209-368-5112
9261,"100 W Lodi Ave",Lodi,California,95240,209-369-0186
1176,"25829 Narbonne Ave.",Lomita,California,90717,310-517-8520
9543,"2001 Pacific Coast Highway",Lomita,California,90717,310-517-9535
9871,"1317 N H St",Lompoc,California,93436,805-735-7424
10008,"6265 East 2nd St., # 101","Long Beach",California,90803,562-430-6481
16047,"2270 N Bellflower Blvd","Long Beach",California,90815,
17481,"6750 Cherry Ave","Long Beach",California,90805,
3931,"650 N Bellflower Blvd","Long Beach",California,90814,562-597-2143
6755,"5030 Long Beach Blvd., Corner Of Del Amo","Long Beach",California,90805,562-984-2813
8838,"2130 N. Bellflower Blvd.","Long Beach",California,90815,562-598-3301
8864,"3575 Atlantic Avenue","Long Beach",California,90807,562-997-8743
8876,"233 East Willow Street","Long Beach",California,90806,562-989-9868
9505,"4400 East Los Coyotes Diagonal, Traffic Circle","Long Beach",California,90815,562-494-4282
9557,"1250 E.pacific Coast Highway","Long Beach",California,90806,562-218-0080
9566,"596 Long Beach Boulevard","Long Beach",California,90802,562-432-3530
9579,"4570 Atlantic Avenue","Long Beach",California,90807,562-423-7959
9590,"6000 Atlantic Avenue","Long Beach",California,90805,562-428-2821
4043,"3401 Katella Ave","Los Alamitos",California,90720,562-430-2026
9661,"6360 West Third Street","Los Angeles",California,90036,323-937-3019
9144,"7021 Hollywood Blvd","Los Angeles",California,90028,323-836-0307
8892,"5822 South Vermont Avenue","Los Angeles",California,90044,323-750-5222
8853,"1645 East 103rd Street","Los Angeles",California,90002,323-564-5787
10292,"4030 South Western Ave.","Los Angeles",California,90062,323-292-7009
9503,"8490 Beverly Blvd","Los Angeles",California,90048,323-653-0217
9665,"5944 North Figueroa Avenue","Los Angeles",California,90042,323-478-8310
9666,"2419 Workman Street","Los Angeles",California,90031,323-223-9059
9985,"8900 Sepulveda Westway","Los Angeles",California,90045,310-258-0265
2396,"3335 S. Figueroa St., Unit Q","Los Angeles",California,90007,213-742-6765
9582,"3741 Crenshaw Boulevard","Los Angeles",California,90016,323-298-5595
9660,"3751 Wilshire Boulevard","Los Angeles",California,90010,213-385-5030
9781,"5985 West Pico Boulevard","Los Angeles",California,90035,323-965-9161
9580,"5101 Obama Blvd.","Los Angeles",California,90016,323-936-0279
10614,"812 S Grand Ave","Los Angeles",California,90017,213-627-7925
8847,"3010 South Sepulveda Boulevard","Los Angeles",California,90034,310-478-9821
17804,"8900 S. Sepulveda Blvd","Los Angeles",California,90045,310-242-6993
4524,"5176 E. Whittier Blvd.","Los Angeles",California,90022,323-307-0702
17800,"415 La Brea Ave.","Los Angeles",California,90036,323-761-6401
17724,"11800 Santa Monica Blvd.","Los Angeles",California,90025,
11028,"1026 S. Broadway, Space A","Los Angeles",California,90015,213-419-9555
9674,"1050 W. Sunset Boulevard","Los Angeles",California,90012,213-975-1200
9477,"5399 West Centinela Avenue","Los Angeles",California,90045,310-670-3335
9398,"9618 W Pico Blvd Ste 501","Los Angeles",California,90035,310-858-1855
5828,"1001 Westwood Blvd.","Los Angeles",California,90024,310-209-9141
10309,"210 West 7th Street,","Los Angeles",California,90014,213-327-0062
10509,"3627 East Cesar East Chavez Ave.","Los Angeles",California,90063,323-268-2703
9507,"650 East El Segundo Boulevard","Los Angeles",California,90059,310-327-5520
9669,"2530 Glendale Boulevard","Los Angeles",California,90039,323-666-1285
9626,"1701 South Western Avenue","Los Angeles",California,90006,323-731-9247
4019,"5837 S. Central Ave.","Los Angeles",California,90001,323-233-2493
17699,"3131 S. Hoover Street Unit 9-a","Los Angeles",California,90089,
10663,"1919 South Hoover St.","Los Angeles",California,90007,213-741-6099
16649,"3535 S La Cienega Blvd","Los Angeles",California,90016,
9685,"2240 Fair Park Ave.","Los Angeles",California,90041,323-254-7346
9686,"4707 Venice Blvd","Los Angeles",California,90019,323-938-9001
9563,"3458 S Sepulveda Blvd","Los Angeles",California,90034,310-839-9055
9766,"12015 Wilshire Boulevard","Los Angeles",California,90025,310-479-6500
8875,"3644 East Olympic Boulevard","Los Angeles",California,90023,323-264-0496
9325,"11941 San Vicente Blvd","Los Angeles",California,90049,310-440-4162
10916,"7500 Melrose Ave.","Los Angeles",California,90046,323-782-4209
10915,"1025 E. Adams Blvd., 1st Floor","Los Angeles",California,90011,213-742-6849
17703,"620 S Virgil Ave Suite 100","Los Angeles",California,90005,
10791,"8000 West Sunset Blvd., #d1a-d1h","Los Angeles",California,90046,323-656-1477
17749,"1302 South La Brea Ave","Los Angeles",California,90019,323-761-6468
10433,"6201 Hollywood Blvd., Suite 126","Los Angeles",California,90028,323-467-7954
9531,"4501 West Slauson Avenue","Los Angeles",California,90043,323-292-4114
17794,"5500 W. Sunset Blvd.","Los Angeles",California,90028,323-762-1704
9212,"1843 S La Cienega Blvd","Los Angeles",California,90035,310-558-0373
9576,"10889 Wellworth Avenue","Los Angeles",California,90024,310-474-2152
17630,"10861 Weyburn Ave","Los Angeles",California,90024,
17631,"735 S Figueroa St","Los Angeles",California,90017,
8886,"8601 South Sepulveda Boulevard","Los Angeles",California,90045,310-645-6770
3825,"303 S. La Brea Ave","Los Angeles",California,90036,323-634-0743
17719,"4211 Eagle Rock Blvd.","Los Angeles",California,90065,
8879,"8985 Venice Boulevard","Los Angeles",California,90034,310-838-1049
9603,"201 North Los Angeles Street","Los Angeles",California,90012,213-620-1491
6976,"4414 York Blvd","Los Angeles",California,90041,323-344-4443
16747,"2626 Colorado Blvd","Los Angeles",California,90041,
11215,"555 North Broadway, #b101","Los Angeles",California,90012,323-275-0972
17423,"1405 W Pacheco Blvd","Los Banos",California,93635,
3938,"1496 Pollard Rd","Los Gatos",California,95032,408-376-3554
9982,"750 Blossom Hill Rd","Los Gatos",California,95032,408-356-3464
9123,"3800 Martin Luther King Jr. Boulevard",Lynwood,California,90262,310-637-2509
9159,"1109 Country Club Dr",Madera,California,93638,559-673-0003
9986,"1400 Howard Rd.,",Madera,California,93637,559-661-8380
9697,"23841 Malibu Road",Malibu,California,90265,310-456-9645
16049,"1200 N Sepulveda Blvd","Manhattan Beach",California,90266,
9496,"2900 N. Sepulveda Blvd.","Manhattan Beach",California,90266,310-546-3481
9513,"1570 Rosecrans Ave","Manhattan Beach",California,90266,310-536-9255
16856,"280 Spreckels Ave",Manteca,California,95336,
5403,"1175 W. Lathrop Rd.",Manteca,California,95336,209-825-4685
9866,"1190 N Main St",Manteca,California,95336,209-239-2018
17374,"133 General Stilwell Dr",Marina,California,93933,
3050,"268 Reservation Rd",Marina,California,93933,831-384-1605
8871,"13171 Mindanao Way, Mindanao And The 90 Freeway","Marina Del Rey",California,90292,310-821-8908
9253,"560 Center Ave",Martinez,California,94553,925-370-8077
9989,"6668 Alhambra Ave",Martinez,California,94553,925-935-9430
9493,"12315 Venice Boulevard","Mar Vista",California,90066,310-390-6296
9691,"906 E St.",Marysville,California,95901,530-742-5103
10513,"1720 Central Avenue",Mckinleyville,California,95519,707-839-5621
10434,"29171 Newport Road",Menifee,California,92584,951-679-2245
17522,"30340 Haun Rd",Menifee,California,92584,
5267,"26973 Newport Rd.",Menifee,California,92584,951-301-6356
10240,"700 El Camino Real","Menlo Park",California,94025,650-566-1405
9330,"325 Sharon Park Dr","Menlo Park",California,94025,650-854-4636
7206,"1970 Yosemite Parkway",Merced,California,95341,209-726-4113
9623,"649 W. Olive Ave.",Merced,California,95348,209-723-4303
9913,"759 E Blithedale Ave","Mill Valley",California,94941,415-389-8891
9161,"45 N Milpitas Blvd",Milpitas,California,95035,408-946-6424
17700,"10340 N. Sepulveda Blvd.","Mission Hills",California,91345,
9789,"9900 Sepulveda Blvd","Mission Hills",California,91345,818-892-4321
16098,"24500 Alicia Pkwy","Mission Viejo",California,92691,
17243,"25601 Jeronimo Rd","Mission Viejo",California,92691,
1764,"25511 Muirlands Blvd.","Mission Viejo",California,92691,949-454-6600
17746,"27551 Puerta Real","Mission Viejo",California,92691,
8891,"26851 Trabuco Rd","Mission Viejo",California,92691,949-581-5990
9242,"27750 Santa Margarita Pkwy","Mission Viejo",California,92691,949-770-9898
9485,"25272 Marguerite Pky","Mission Viejo",California,92692,949-455-9539
1467,"2020 W. Briggsmore Ave., Suite C",Modesto,California,95350,209-521-5713
16082,"3405 Mchenry Ave",Modesto,California,95350,
16357,"3900 Sisk Rd",Modesto,California,95356,
3077,"801 Oakdale Rd Ste F",Modesto,California,95355,209-525-9430
9171,"2900 Standiford Ave",Modesto,California,95350,209-522-1093
9248,"1700 Mchenry Ave.",Modesto,California,95350,209-529-4813
9308,"901 N Carpenter Rd Ste 30",Modesto,California,95351,209-575-2429
9874,"2075 East Hatch Rd.",Modesto,California,95351,209-537-4824
9884,"2601 Oakdale Rd Ste E",Modesto,California,95355,209-523-4932
9689,"950 West Foothill Blvd",Monrovia,California,91016,626-357-1818
16760,"9052 Central Ave",Montclair,California,91763,
9745,"4535 Holt Blvd",Montclair,California,91763,909-624-4177
9757,"2525 Via Campo St.",Montebello,California,90640,323-724-6340
9857,"800 W. Whittier Blvd.",Montebello,California,90640,323-278-9098
9320,"686 Lighthouse Ave",Monterey,California,93940,831-655-5411
9802,"2170 Fremont St",Monterey,California,93940,831-375-5135
9617,"2103 South Atlantic Boulevard","Monterey Park",California,91754,323-268-3524
9798,"313 South Garfield Avenue","Monterey Park",California,91754,626-280-7220
9647,"2037 Verdugo Blvd.",Montrose,California,91020,818-248-8018
16875,"800 New Los Angeles Ave",Moorpark,California,93021,
9530,"155 W Los Angeles Ave",Moorpark,California,93021,805-530-0996
9203,"580 Moraga Rd",Moraga,California,94556,925-631-0204
9372,"1480 Moraga Rd Ste D",Moraga,California,94556,925-376-5166
17377,"27100 Eucalyptus Ave","Moreno Valley",California,92555,
3058,"26180 Iris Ave","Moreno Valley",California,92555,951-601-2468
9610,"12280 Perris Blvd","Moreno Valley",California,92557,951-242-3596
17327,"1061 Cochrane Rd","Morgan Hill",California,95037,
9342,"16995 Walnut Grove Dr.","Morgan Hill",California,95037,408-779-6981
16113,"555 Showers Dr","Mountain View",California,94040,
7774,"850 California St","Mountain View",California,94041,650-691-4004
9346,"1041 El Monte Ave","Mountain View",California,94040,650-961-5560
9684,"2630 W El Camino Real","Mountain View",California,94040,650-941-8430
9987,"1798 Miramonte Ave","Mountain View",California,94040,650-969-6297
11346,"101 West Lake Street","Mount Shasta",California,96067,530-568-6112
16627,"41040 California Oaks Rd",Murrieta,California,92562,
17545,"27818 Clinton Keith Rd",Murrieta,California,92562,
7554,"23743 Jackson Ave.",Murrieta,California,92562,951-600-0692
7786,"27749 Clinton Keith Road",Murrieta,California,92562,951-304-3479
9157,"23791 Washington Ave",Murrieta,California,92562,951-698-9616
9628,"25080 Hancock Ave.",Murrieta,California,92562,951-677-4219
1804,"675 Trancas St",Napa,California,94558,707-252-2844
7141,"291 S. Coombs St",Napa,California,94559,707-252-0101
9214,"1558 Trancas St",Napa,California,94558,707-253-7918
9138,"1201 E. Plaza Blvd","National City",California,91950,619-477-7114
9783,"1730 Sweetwater Rd","National City",California,91950,619-474-6703
9494,"35080 Newark Blvd",Newark,California,94560,510-796-4050
3069,"451 S Reino Rd","Newbury Park",California,91320,805-499-4006
8820,"123 N. Reino Road","Newbury Park",California,91320,805-480-0314
9221,"2120 Newbury Rd","Newbury Park",California,91320,805-499-0463
8881,"1020 Irvine Avenue","Newport Beach",California,92660,949-642-0122
9540,"2521 Eastbluff Drive","Newport Beach",California,92660,949-717-6642
9782,"610 West Tefft Street, Tefft Street And Mary",Nipomo,California,93444,805-929-2740
10998,"2400 River Road",Norco,California,92860,951-737-7221
16221,"1290 Hamner Ave",Norco,California,92860,
9718,"1101 Hidden Valley Parkway",Norco,California,92860,951-734-4181
1573,"4744 Lankershim Blvd.","North Hollywood",California,91602,818-505-0484
16095,"11051 Victory Blvd","North Hollywood",California,91606,
4789,"10945 Victory Boulevard","North Hollywood",California,91606,818-487-0119
9717,"13021 Victory Blvd.","North Hollywood",California,91606,818-760-2861
9850,"5969 Lankershim Blvd.","North Hollywood",California,91601,818-761-4235
16097,"8840 Corbin Ave",Northridge,California,91324,
17113,"8999 Balboa Blvd",Northridge,California,91325,
9605,"10181 Reseda Blvd.",Northridge,California,91324,818-993-4125
9642,"8530 Reseda Blvd.",Northridge,California,91324,818-341-7104
9706,"9038 Balboa Blvd.",Northridge,California,91325,818-891-0956
16680,"10600 Firestone Blvd",Norwalk,California,90650,
16761,"12051 Imperial Hwy",Norwalk,California,90650,
8841,"11623 Rosecrans Ave.",Norwalk,California,90650,562-868-8216
8865,"11011 Alondra Boulevard",Norwalk,California,90650,562-864-2427
8889,"12618 Studebaker Road",Norwalk,California,90650,562-868-2688
16212,"200 Vintage Way",Novato,California,94945,
9316,"1707 Grant Ave",Novato,California,94945,415-897-4171
9947,"2035 Novato Blvd",Novato,California,94947,415-897-9917
3944,"1520 E F St",Oakdale,California,95361,209-845-1860
9935,"40044 St Hwy 49",Oakhurst,California,93644,559-642-4227
10475,"2964 Broadway Ave.",Oakland,California,94611,510-836-7904
17781,"2650 Broadway",Oakland,California,94612,510-879-1013
8431,"7200 Bancroft Ave.",Oakland,California,94605,510-569-2795
9130,"175 41st St",Oakland,California,94611,510-658-3496
9226,"3320 Fruitvale Ave",Oakland,California,94602,510-530-3156
9378,"4100 Redwood Rd",Oakland,California,94619,510-531-0602
9929,"2000 Mountain Blvd",Oakland,California,94611,510-339-8535
9957,"344 Thomas L. Berkley Way",Oakland,California,94612,510-832-8384
10918,"632 Lindero Canyon Rd.","Oak Park",California,91377,818-889-1243
16101,"2255 S El Camino Real",Oceanside,California,92054,
17725,"443 College Blvd.",Oceanside,California,92057,
8866,"1706 Oceanside Blvd",Oceanside,California,92054,760-721-2433
9532,"4615 Frazee Road",Oceanside,California,92057,760-433-9597
9549,"1980 College Blvd, Oceanside And College Boulevards",Oceanside,California,92056,760-945-4676
9585,"3925 N. River Rd., North River Road And Douglas",Oceanside,California,92058,760-757-9348
17320,"4200 E 4th St",Ontario,California,91764,
9727,"2456 S Grove Ave",Ontario,California,91761,909-947-9390
9729,"2238 S. Euclid Ave., Suite A",Ontario,California,91762,909-391-0263
16064,"2191 N Tustin St",Orange,California,92865,
17716,"2620 E Chapman Ave,",Orange,California,92869,
9119,"4040 E. Chapman Ave.",Orange,California,92869,714-628-9350
9725,"480 South Main Street",Orange,California,92868,714-938-1200
9744,"1535 East Katella Avenue",Orange,California,92867,714-639-6060
9749,"2138 N. Tustin St.",Orange,California,92865,714-998-3812
9487,"8861 Greenback Ln",Orangevale,California,95662,916-989-4001
9939,"50 Moraga Way",Orinda,California,94563,925-254-4956
9188,"869 Newville Rd",Orland,California,95963,530-865-4775
9158,"850 Oroville Dam Blvd.",Oroville,California,95965,530-534-1554
17620,"2850 N Oxnard Blvd",Oxnard,California,93036,
8520,"1205 S. Oxnard",Oxnard,California,93030,805-483-6510
9695,"551 S. Ventura Rd.",Oxnard,California,93030,805-984-2003
9775,"864 Swarthmore Avenue","Pacific Palisades",California,90272,310-459-7581
16206,"39440 10th St W",Palmdale,California,93551,
17415,"38019 47th St E",Palmdale,California,93552,
3055,"38012 47th Street East",Palmdale,California,93552,661-285-1681
9634,"2521 East Avenue S",Palmdale,California,93550,661-538-1077
16359,"72549 Highway 111","Palm Desert",California,92260,
9646,"42155 Washington St.","Palm Desert",California,92211,760-345-3259
9804,"425 S. Sunrise Way","Palm Springs",California,92262,760-322-2784
3935,"855 El Camino Real","Palo Alto",California,94301,650-322-2707
9915,"352 University Ave","Palo Alto",California,94301,650-324-3248
9984,"2701 Middlefield Rd","Palo Alto",California,94306,650-330-0132
8870,"8859 Alondra Blvd.",Paramount,California,90723,562-630-2247
10857,"3033 Huntington Dr.",Pasadena,California,91107,626-440-1084
16319,"777 E Colorado Blvd",Pasadena,California,91101,
16673,"3121 E Colorado Blvd",Pasadena,California,91107,
1778,"3883 E. Foothill Blvd (nwc)",Pasadena,California,91107,626-351-0589
9668,"727 S. Arroyo Parkway",Pasadena,California,91105,626-795-3810
9688,"451 S Sierra Madre Blvd",Pasadena,California,91107,626-564-8681
9694,"900 N. Lake Ave.",Pasadena,California,91104,626-794-4714
9848,"20 E Orange Grove Blvd.",Pasadena,California,91103,626-795-6609
16488,"2305 Theatre Dr","Paso Robles",California,93446,
9925,"187 Niblick Rd","Paso Robles",California,93446,805-238-2947
9763,"1080 Sperry Ave",Patterson,California,95363,209-892-5584
17586,"401 Kenilworth Drive",Petaluma,California,94952,
9163,"291 N Mcdowell Blvd",Petaluma,California,94954,707-778-8666
9480,"365 E Washington St",Petaluma,California,94952,707-778-6722
16762,"8800 Whittier Blvd","Pico Rivera",California,90660,
9769,"8580 Whittier Blvd.","Pico Rivera",California,90660,562-942-2268
9771,"9256 Slauson Avenue","Pico Rivera",California,90660,562-949-5424
16222,"1400 Fitzgerald Dr",Pinole,California,94564,
9299,"1617 Canyon Drive",Pinole,California,94564,510-724-8880
9892,"827 Oak Park Blvd","Pismo Beach",California,93449,805-473-1114
16118,"4301 Century Blvd",Pittsburg,California,94565,
9875,"230 Atlantic Ave",Pittsburg,California,94565,925-439-7422
5803,"1875 N. Kraemer Blvd.",Placentia,California,92870,714-572-5656
9747,"150 East Yorba Linda Boulevard",Placentia,California,92870,714-528-3112
9777,"1240 East Yorba Linda Boulevard",Placentia,California,92870,714-996-7050
17787,"3968 Missouri Flat Rd",Placerville,California,95667,530-748-2321
9184,"3964 Missouri Flat Rd Ste A",Placerville,California,95667,530-626-8642
10146,"12746 W. Jefferson Blvd., Suite 3160","Playa Vista",California,90094,310-862-9810
16117,"560 Contra Costa Blvd","Pleasant Hill",California,94523,
10119,"6750 Bernal Ave.",Pleasanton,California,94566,925-249-9011
10924,"3010 Bernal Avenue",Pleasanton,California,94566,925-462-9138
9251,"3999 Santa Rita Road",Pleasanton,California,94588,925-460-8552
9490,"6450 Pony Express Trl","Pollock Pines",California,95726,530-647-8013
17659,"701 Rio Rancho Road",Pomona,California,91766,
8781,"1485 S. Garey Ave.",Pomona,California,91766,909-623-0562
8895,"775 E. Foothill Boulevard",Pomona,California,91767,909-621-6708
9708,"150 W. Willow St.",Pomona,California,91768,909-620-3838
9533,"19783 Rinaldi St","Porter Ranch",California,91326,818-368-6279
17477,"1363 W Henderson Ave",Porterville,California,93257,
2944,"53 E. Olive Ave.",Porterville,California,93257,559-791-9238
35,"800 N. Westwood St.",Porterville,California,93257,559-784-2876
4652,"590 W Putnam Ave",Porterville,California,93257,
9845,"1155 W Henderson Ave",Porterville,California,93257,559-784-3317
9286,"581 W Channel Islands Blvd","Port Hueneme",California,93041,805-985-4479
9105,"12358 Poway Road",Poway,California,92064,858-748-9220
9399,"29412 Auberry Rd",Prather,California,93651,559-855-4220
9194,"1810 Main St.",Ramona,California,92065,760-789-9062
9111,"16773 Bernardo Center Dr","Rancho Bernardo",California,92128,858-451-2630
17516,"10881 Olson Dr.","Rancho Cordova",California,95670,
4950,"3301 Zinfandel Dr.","Rancho Cordova",California,95670,916-852-8332
10805,"7170 Day Creek Blvd.","Rancho Cucamonga",California,91739,909-463-7846
10914,"8956 Foothill Blvd","Rancho Cucamonga",California,91730,909-466-5032
16099,"10576 Foothill Blvd","Rancho Cucamonga",California,91730,
9723,"11428 Kenyon Way","Rancho Cucamonga",California,91701,909-948-1065
9724,"7911 Haven Ave.","Rancho Cucamonga",California,91730,909-581-1966
9153,"42520 Bob Hope Dr.","Rancho Mirage",California,92270,760-568-5651
16340,"30602 Santa Margarita Pkwy","Rancho Santa Margarita",California,92688,
6770,"22361 Antonio Pkwy., Suite E","Rancho Santa Margarita",California,92688,949-888-3050
3937,"455 S. Main St.","Red Bluff",California,96080,530-529-5530
11341,"2025 Court Street, Suite A",Redding,California,96001,530-999-6072
11344,"1035 Placer Street, Suite 110",Redding,California,96001,530-999-6073
11345,"317 Lake Boulevard, Suite B",Redding,California,96003,530-999-6099
16161,"1280 Dana Dr",Redding,California,96003,
3911,"1060 E Cypress Ave",Redding,California,96002,530-221-5575
9979,"3375 Placer St",Redding,California,96001,530-241-7328
10310,"1795 E. Lugonia Ave.",Redlands,California,92374,909-794-1721
16989,"27320 W Lugonia Ave",Redlands,California,92374,
8894,"101 Redlands Mall",Redlands,California,92373,909-792-9684
9861,"800 Tri City Ctr",Redlands,California,92374,909-798-1524
10795,"2115 Artesia Blvd, Suite 100","Redondo Beach",California,90278,424-408-6006
17096,"1601 Kingsdale Ave","Redondo Beach",California,90278,
6705,"316 South Pacific Coast Hwy.","Redondo Beach",California,90277,310-540-9183
9544,"1880 S Pacific Coast Hwy","Redondo Beach",California,90277,310-316-6492
16112,"2485 El Camino Real","Redwood City",California,94063,
9329,"1039 El Camino Real","Redwood City",California,94063,650-780-9910
9690,"1301 Broadway St","Redwood City",California,94063,650-364-2111
9377,"1065 W Manning Ave",Reedley,California,93654,559-638-0467
5022,"7400 Reseda Blvd.",Reseda,California,91335,818-776-2600
9615,"19353 Victory Blvd.",Reseda,California,91335,818-996-4742
8523,"211 W. Base Line Rd.",Rialto,California,92376,909-874-8002
16837,"4500 Macdonald Ave",Richmond,California,94805,
3078,"2151 Meeker Ave",Richmond,California,94804,510-231-5922
9949,"1201 W Main St Ste 14",Ripon,California,95366,209-599-4686
17183,"2425 Claribel Rd",Riverbank,California,95367,
3079,"2224 Patterson Rd",Riverbank,California,95367,209-869-6499
16053,"3520 Tyler St",Riverside,California,92503,
16094,"3333 Arlington Ave",Riverside,California,92506,
16964,"2755 Canyon Springs Pkwy",Riverside,California,92507,
4704,"6405 Day St",Riverside,California,92507,951-697-5656
4774,"7117 Brockton Ave",Riverside,California,92506,951-782-3653
8897,"3361 Market St.",Riverside,California,92501,951-680-1145
9746,"6840 Lincoln Avenue",Riverside,California,92506,951-369-9941
9799,"6215 Riverside Ave.",Riverside,California,92506,951-781-0146
9803,"491 E. Alessandro Blvd.",Riverside,California,92508,951-780-1835
9849,"8280 Magnolia Ave.",Riverside,California,92504,951-687-1308
9910,"3440 La Sierra Ave",Riverside,California,92503,951-352-1933
17587,"5104 Commons Dr",Rocklin,California,95677,
2661,"4785 Granite Dr",Rocklin,California,95677,916-624-8286
9546,"3251 Stanford Ranch Rd",Rocklin,California,95765,916-435-8910
16293,"475 Rohnert Park Expy W","Rohnert Park",California,94928,
9928,"6378 Commerce Blvd","Rohnert Park",California,94928,707-586-3494
9607,"901 Silver Spur Rd.","Rolling Hills Estates",California,90274,310-377-6728
16750,"3600 Rosemead Blvd",Rosemead,California,91770,
9645,"8225 Garvey Ave",Rosemead,California,91770,626-573-3334
16080,"1925 Douglas Blvd",Roseville,California,95661,
16833,"10451 Fairway Dr",Roseville,California,95678,
3862,"1030 Pleasant Grove Blvd",Roseville,California,95678,916-780-4733
5091,"1771 Pleasant Grove Blvd., Ste #100",Roseville,California,95747,916-772-2239
9958,"5090 Foothills Blvd",Roseville,California,95747,916-783-1355
9993,"9280 Sierra College Blvd",Roseville,California,95661,916-772-5313
9322,"2085 Fair Oaks Blvd, Bldg 2",Sacramento,California,95825,916-929-9577
2290,"1587 W El Camino Ave",Sacramento,California,95833,916-568-1667
17200,"3601 N Freeway Blvd",Sacramento,California,95834,
4151,"2050 Club Center Dr",Sacramento,California,95835,916-928-6848
9972,"7465 Rush River Dr Ste 500",Sacramento,California,95831,916-391-1289
9992,"3338 Arden Way",Sacramento,California,95825,916-480-0351
7136,"3710 Franklin Blvd.",Sacramento,California,95820,916-739-1071
3066,"8351 Elk Grove Florin Rd",Sacramento,California,95829,916-681-7913
5225,"2636 Marconi Ave.",Sacramento,California,95821,916-485-6917
17538,"6507 4th Ave",Sacramento,California,95817,
9826,"5333 Elkhorn Blvd",Sacramento,California,95842,916-334-7450
16106,"1919 Fulton Ave",Sacramento,California,95825,
9823,"1350 Florin Rd.",Sacramento,California,95822,916-392-5184
3943,"5039 Folsom Blvd",Sacramento,California,95819,916-739-0740
16857,"8101 Cosumnes River Blvd",Sacramento,California,95823,
17822,"1707 J Street",Sacramento,California,95811,916-894-6930
10005,"6401 Mack Rd.,",Sacramento,California,95823,916-405-6900
3945,"1701 K St",Sacramento,California,95811,916-444-9266
1300,"662 E Boronda Rd",Salinas,California,93906,831-443-0891
16200,"1640 N Main St",Salinas,California,93906,
3051,"17579 Vierra Canyon Rd",Salinas,California,93907,831-663-3861
9186,"110 E Laurel Dr",Salinas,California,93906,831-754-1551
9349,"347 E Alisal St",Salinas,California,93901,831-424-0026
9506,"1140 S Main St",Salinas,California,93901,831-422-8511
9951,"8063 San Miguel Canyon Rd",Salinas,California,93907,831-663-2135
9370,"880 Sir Francis Drake Blvd","San Anselmo",California,94960,415-456-4442
16042,"499 W Orange Show Rd","San Bernardino",California,92408,
9341,"1540 E Highland Ave","San Bernardino",California,92404,909-886-4981
9664,"1564 W. Base Line St.","San Bernardino",California,92411,909-381-6944
9794,"5200 N University Parkway","San Bernardino",California,92407,909-887-4929
16439,"1150 El Camino Real","San Bruno",California,94066,
9807,"10 Bayhill Shopping Ctr","San Bruno",California,94066,650-873-9522
550,"1324 San Carlos Ave","San Carlos",California,94070,650-591-7659
9172,"11 El Camino Real","San Carlos",California,94070,650-595-8511
17610,"990 Avenida Vista Hermosa","San Clemente",California,92673,
8882,"638 Camino De Los Mares","San Clemente",California,92673,949-487-9791
8893,"602 N. El Camino Real","San Clemente",California,92672,949-369-5281
16447,"2040 California Ave","Sand City",California,93955,
9102,"10575 Scripps Poway Prky","San Diego",California,92131,858-547-3939
9148,"313 Washington St., Washington And 4th","San Diego",California,92103,619-291-7170
7962,"5685 Balboa Ave","San Diego",California,92111,858-279-2860
9141,"3151 University Ave.","San Diego",California,92104,619-283-7366
3914,"11655 Duenda Rd","San Diego",California,92127,858-385-0798
9538,"1792 Garnet Ave","San Diego",California,92109,858-483-1489
4768,"510 C Street","San Diego",California,92101,619-615-0263
9937,"4445 Mission Blvd","San Diego",California,92109,858-273-0900
9115,"645 Saturn Blvd","San Diego",California,92154,619-429-8932
9193,"1380 43rd St.","San Diego",California,92113,619-263-8116
10819,"1850 5th Avenue","San Diego",California,92101,619-615-0726
9192,"14589 Camino Del Norte","San Diego",California,92128,858-451-1050
9197,"9225 Twin Trails Drive","San Diego",California,92129,858-538-8770
9154,"10350 Friars Rd","San Diego",California,92120,619-563-9990
10508,"4949 Santa Monica Ave.","San Diego",California,92107,619-222-1457
9109,"6265 El Cajon Blvd","San Diego",California,92115,619-287-6848
9524,"3350 Palm Ave., Palm Avenue And Beyer Way","San Diego",California,92154,619-424-7030
6332,"645 Market St","San Diego",California,92101,619-234-5952
9963,"5644 Mission Center Rd., #201, Friars Mission Center Shopping Center","San Diego",California,92108,619-298-3655
3068,"10776 Westview Pkwy","San Diego",California,92126,858-566-4551
16051,"3245 Sports Arena Blvd","San Diego",California,92110,
9165,"3327 Rosecrans St., Rosecrans And Midway Drive","San Diego",California,92110,619-225-9691
9121,"4404 El Cajon Blvd, El Cajon And 44th","San Diego",California,92115,619-280-5006
10954,"402 5th Avenue","San Diego",California,92101,619-744-9967
17745,"3029 University Ave.","San Diego",California,92104,
17668,"17170 Camino Del Sur","San Diego",California,92127,
9177,"8260 Mira Mesa Blvd.","San Diego",California,92126,858-566-3031
17676,"3030 Grape St","San Diego",California,92102,
16103,"8251 Mira Mesa Blvd","San Diego",California,92126,
9137,"7393 Jackson Dr., Jackson Drive And Navajo Road","San Diego",California,92119,619-465-6800
9131,"10560-4s Commons Dr.","San Diego",California,92127,858-673-3460
9175,"4829 Clairemont Dr","San Diego",California,92117,858-273-5300
11331,"101 Park Plaza, Suite 155","San Diego",California,92101,619-849-8896
17517,"5680 Balboa Ave","San Diego",California,92111,
8833,"3332 Sandrock Road","San Diego",California,92123,858-278-0047
9922,"3950 W Point Loma Blvd","San Diego",California,92110,619-523-1440
3942,"8915 Towne Centre Dr","San Diego",California,92122,858-550-9066
16749,"1288 Camino Del Rio N","San Diego",California,92108,
11018,"1023 Fourth Ave","San Diego",California,92101,619-849-3732
16236,"888 W Arrow Hwy","San Dimas",California,91773,
4790,"120 E. Bonita Avenue","San Dimas",California,91773,909-305-4888
10807,"1204 San Fernando Rd.,","San Fernando",California,91340,818-361-2679
10080,"1059 Hyde St.","San Francisco",California,94109,415-346-6100
17674,"1830 Ocean Ave","San Francisco",California,94112,
5131,"1900 19th Avenue","San Francisco",California,94116,415-664-1834
10391,"1 Jefferson St.","San Francisco",California,94133,415-291-0268
10492,"500 Pine St","San Francisco",California,94108,415-362-6318
17672,"225 Bush St. #100","San Francisco",California,94104,
11107,"701 Van Ness Avenue","San Francisco",California,94102,415-848-1088
1983,"701 Portola Dr.","San Francisco",California,94127,415-504-6043
2852,"731 Market St.","San Francisco",California,94103,415-243-0273
17709,"233 Winston Drive","San Francisco",California,94132,
7657,"351 California St","San Francisco",California,94104,415-398-2578
10330,"3600 Geary Blvd.","San Francisco",California,94118,415-668-6083
10495,"399 Geary St, Suite B","San Francisco",California,94102,415-268-9949
4675,"377 32nd Ave.","San Francisco",California,94121,415-666-3153
10164,"601 Mission Street","San Francisco",California,94105,415-442-4737
10035,"581 Market St","San Francisco",California,94105,415-777-1654
7955,"2025 Van Ness Ave","San Francisco",California,94109,415-353-5705
10188,"499 Haight St.","San Francisco",California,94117,415-503-0722
17623,"789 Mission St","San Francisco",California,94103,
11004,"799 Beach Street","San Francisco",California,94109,415-561-0984
10368,"400 Sutter St.","San Francisco",California,94108,415-398-2175
17757,"1690 Folsom St","San Francisco",California,94103,415-696-7715
17625,"2675 Geary Blvd","San Francisco",California,94118,
9160,"102 N San Gabriel Blvd","San Gabriel",California,91775,626-237-2054
3034,"333 Academy Ave",Sanger,California,93657,559-875-2044
8943,"102 S. Sanderson Ave.","San Jacinto",California,92582,951-487-9185
17045,"879 Blossom Hill Rd","San Jose",California,95123,
11108,"1401 Berryessa Road","San Jose",California,95133,669-265-6391
9812,"2514 Berryessa Rd","San Jose",California,95132,408-272-1431
16115,"1811 Hillsdale Ave","San Jose",California,95124,
16763,"1600 Saratoga Ave, Ste 601","San Jose",California,95129,
9995,"1405 Foxworthy Ave","San Jose",California,95118,408-264-0371
17176,"533 Coleman Ave","San Jose",California,95110,
9395,"525 W Capitol Expy","San Jose",California,95136,408-448-9224
9229,"3220 S White Rd","San Jose",California,95148,408-238-9603
9901,"1125 Branham Ln","San Jose",California,95118,408-267-0911
9829,"5407 Camden Ave","San Jose",California,95124,408-267-9680
17588,"5630 Cottle Rd","San Jose",California,95123,
9921,"2069 Camden Ave","San Jose",California,95124,408-559-1450
17582,"95 Holger Way","San Jose",California,95134,
17100,"1750 Story Rd","San Jose",California,95122,
2294,"821 The Alameda","San Jose",California,95126,408-291-4553
3061,"3475 Mckee Rd","San Jose",California,95127,408-272-9156
9559,"1285 Lincoln Ave","San Jose",California,95125,408-280-6018
9498,"1800 Saratoga Ave.","San Jose",California,95129,408-253-3352
9257,"5170 Moorpark Ave","San Jose",California,95129,408-257-9918
17355,"2161 Monterey Hwy","San Jose",California,95125,
9810,"1685 Tully Rd","San Jose",California,95122,408-923-6616
9337,"6910 Almaden Expy","San Jose",California,95120,408-927-7310
9896,"4550 Meridian Ave","San Jose",California,95124,408-267-1472
9534,"4850 San Felipe Rd","San Jose",California,95135,408-532-2952
9897,"3074 Story Rd","San Jose",California,95127,408-259-5600
3029,"1097 Leigh Ave","San Jose",California,95126,408-294-2240
422,"4110 N. 1st Street","San Jose",California,95134,408-434-1839
17314,"3155 Silver Creek Rd","San Jose",California,95121,
9808,"470 Blossom Hill Rd","San Jose",California,95123,408-578-4900
17799,"31874 Del Obispo St.","San Juan Capistrano",California,92675,949-226-5643
16764,"15555 E 14th St Ste 400","San Leandro",California,94578,
9635,"1550 East 14th St.","San Leandro",California,94577,510-351-7957
9876,"699 Lewelling Blvd","San Leandro",California,94579,510-351-0951
9942,"1401 Washington Ave","San Leandro",California,94577,510-483-2810
17619,"11990 Los Osos Valley Rd","San Luis Obispo",California,93405,
9345,"717 Marsh St","San Luis Obispo",California,93401,805-547-9888
9662,"3960 Broad Street","San Luis Obispo",California,93401,805-783-2903
9873,"1300 Madonna Rd","San Luis Obispo",California,93405,805-549-0993
7127,"1302 West Mission Rd.","San Marcos",California,92069,760-471-7205
8818,"997 Woodland Pkwy.","San Marcos",California,92069,760-739-0731
9166,"734 S. Rancho Santa Fe Rd.","San Marcos",California,92078,760-599-0353
9558,"320 S Twin Oaks Valley Rd","San Marcos",California,92078,760-471-8019
9961,"191 Woodland Pkwy","San Marcos",California,92069,760-471-9007
16490,"2220 Bridgepointe Pkwy","San Mateo",California,94404,
9554,"77 Bovet Rd","San Mateo",California,94402,650-349-6303
9833,"4242 S El Camino Real","San Mateo",California,94403,650-573-5401
9940,"872 N Delaware St","San Mateo",California,94401,650-342-7448
9977,"124 De Anza Blvd","San Mateo",California,94402,650-572-2514
17521,"1701 N Gaffey St","San Pedro",California,90731,
9122,"700 S. Gaffey St.","San Pedro",California,90731,310-514-2003
9571,"950 North Western Avenue","San Pedro",California,90732,310-832-7258
17629,"125 Shoreline Pkwy","San Rafael",California,94901,
4952,"909 Grand St.","San Rafael",California,94901,415-258-1649
9529,"442 Las Gallinas Ave","San Rafael",California,94903,415-479-9171
16365,"2610 Bishop Dr","San Ramon",California,94583,
9348,"9120 Alcosta Blvd","San Ramon",California,94583,925-829-9335
9536,"490 Market Pl","San Ramon",California,94583,925-327-0435
9868,"2455 San Ramon Valley Blvd","San Ramon",California,94583,925-820-7325
16072,"3300 S Bristol St","Santa Ana",California,92704,
16090,"1330 E 17th St","Santa Ana",California,92705,
5841,"2330 South Main Street","Santa Ana",California,92707,714-327-1884
8849,"1545 West 17th Street","Santa Ana",California,92706,714-547-6578
8854,"1750 North Grand Avenue","Santa Ana",California,92705,714-835-3111
8855,"228 North Harbor Boulevard","Santa Ana",California,92703,714-554-7120
8883,"3911 South Bristol Street","Santa Ana",California,92704,714-556-7183
9583,"102 North Main Street","Santa Ana",California,92701,714-543-4025
10913,"336 N. Milpas St","Santa Barbara",California,93103,805-560-0092
9333,"1282 Coast Village Rd","Santa Barbara",California,93108,805-565-0897
9335,"3939 State St","Santa Barbara",California,93105,805-681-8292
9392,"1109 State St","Santa Barbara",California,93101,805-564-3267
9567,"1835 Cliff Dr","Santa Barbara",California,93109,805-962-8709
9824,"2973 State St","Santa Barbara",California,93105,805-682-3761
9860,"222 W. Carrillo St., Nwc Carrillo Street And Bath Street","Santa Barbara",California,93101,805-965-9632
17658,"2004 El Camino Real","Santa Clara",California,95050,
9262,"222 Saratoga Ave","Santa Clara",California,95050,408-247-7250
9793,"2700 Homestead Rd","Santa Clara",California,95051,408-247-8700
9944,"3081 Stevens Creek Blvd","Santa Clara",California,95050,408-241-5141
17123,"19105 Golden Valley Rd","Santa Clarita",California,91387,
9636,"24840 Orchard Village Rd.","Santa Clarita",California,91355,661-222-7881
9699,"27983 Seco Canyon Road","Santa Clarita",California,91350,661-296-0436
9714,"26861 Sierra Hwy","Santa Clarita",California,91321,661-251-7346
9858,"25880 Mcbean Pkwy.","Santa Clarita",California,91355,661-254-3766
9331,"600 Front St","Santa Cruz",California,95060,831-426-7444
9332,"1700 Mission St","Santa Cruz",California,95060,831-457-2481
16061,"10621 Carmenita Rd","Santa Fe Springs",California,90670,
16105,"223 E Betteravia Rd","Santa Maria",California,93454,
3153,"733 E Main St","Santa Maria",California,93454,805-922-2040
9394,"4852 S Bradley Rd","Santa Maria",California,93455,805-938-9994
9750,"1830 North Broadway","Santa Maria",California,93454,805-348-3555
9821,"2116 S Broadway","Santa Maria",California,93454,805-922-7934
11178,"500 Wilshire Blvd","Santa Monica",California,90401,310-260-9889
17775,"1610 Wilshire Blvd","Santa Monica",California,90403,310-310-6532
17780,"420 Broadway","Santa Monica",California,90401,310-309-8329
3903,"3202 Wilshire Blvd","Santa Monica",California,90403,310-829-5523
9608,"2505 Santa Monica Boulevard","Santa Monica",California,90404,310-828-6456
9726,"1411 Lincoln Boulevard","Santa Monica",California,90401,310-319-1318
9151,"600 W Main St","Santa Paula",California,93060,805-933-2998
16356,"1980 Santa Rosa Ave","Santa Rosa",California,95407,
17646,"950 Coddingtown Center","Santa Rosa",California,95401,
9393,"2075 Mendocino Ave","Santa Rosa",California,95401,707-542-4182
9656,"2771 4th St","Santa Rosa",California,95405,707-528-3311
9946,"463 Stony Point Rd","Santa Rosa",California,95401,707-528-7810
9948,"2700 Yulupa Ave","Santa Rosa",California,95405,707-545-7500
16817,"9846 Mission Gorge Rd",Santee,California,92071,
9145,"9730 Mission Gorge Rd.",Santee,California,92071,619-448-5110
9834,"12940 Saratoga Sunnyvale Rd",Saratoga,California,95070,408-867-6822
9722,"26550 Bouquet Canyon Rd",Saugus,California,91350,661-297-1968
17694,"180 Donahue Street",Sausalito,California,94965,
9962,"150 Donahue St",Sausalito,California,94965,415-339-0169
9862,"257 Mount Hermon Rd","Scotts Valley",California,95066,831-438-5920
16669,"12300 Seal Beach Blvd","Seal Beach",California,90740,
8843,"921 Pacific Coast Hwy.","Seal Beach",California,90740,562-598-0473
9551,"12490 Seal Beach Boulevard","Seal Beach",California,90740,562-596-4533
9872,"6877 Sebastopol Ave.,",Sebastopol,California,95472,707-823-7209
5483,"5601 N. Van.nuys Blvd.","Sherman Oaks",California,91401,818-781-0569
9707,"14735 Ventura Blvd.","Sherman Oaks",California,91403,818-788-0208
17385,"950 E 33rd St","Signal Hill",California,90755,
10026,"591 Country Club Dr., Suite C","Simi Valley",California,93065,805-584-2053
16070,"2907 Cochran St","Simi Valley",California,93065,
17515,"51 Tierra Rejada Rd","Simi Valley",California,93065,
9631,"2825 Cochran St.","Simi Valley",California,93065,805-522-6904
9790,"4440 Alamo Street","Simi Valley",California,93063,805-522-3120
9859,"3935 Cochran St","Simi Valley",California,93063,805-581-1800
3951,"305 S Highway 101","Solana Beach",California,92075,858-259-0340
9187,"683 Lomas Santa Fe Dr.","Solana Beach",California,92075,858-755-6697
3056,"2293 H Dela Rosa Sr St",Soledad,California,93960,831-678-5110
11295,"1982 Old Mission Drive, Building B",Solvang,California,93463,805-691-6139
9152,"201 W Napa St Ste 35",Sonoma,California,95476,707-938-4734
9208,"13763 Mono Way",Sonora,California,95370,209-532-6973
5499,"1954 Durfee Ave.","South El Monte",California,91733,626-350-5705
16044,"5700 Firestone Blvd","South Gate",California,90280,
8835,"3710 Tweedy Boulevard","South Gate",California,90280,323-249-9944
9501,"2655 Santa Ana Street","South Gate",California,90280,323-582-5601
9376,"3471 Lake Tahoe Blvd","South Lake Tahoe",California,96150,530-541-9481
9713,"1043 Emerald Bay Rd","South Lake Tahoe",California,96150,530-544-1500
10919,"9665 Campo Rd.","Spring Valley",California,91977,619-466-4051
9481,"12444 Beach Boulevard",Stanton,California,90680,714-899-1520
16107,"4707 Pacific Ave",Stockton,California,95207,
16982,"10424 Trinity Parkway",Stockton,California,95219,
9147,"2605 West March Lane",Stockton,California,95207,209-952-3494
9830,"6632 Pacific Ave.",Stockton,California,95207,209-951-6544
9916,"5070 West Ln",Stockton,California,95210,209-472-9684
9527,"12100 Ventura Blvd","Studio City",California,91604,818-763-5562
9675,"12143 Ventura Blvd","Studio City",California,91604,818-980-1502
17583,"298 W Mc Kinley Ave",Sunnyvale,California,94086,
9198,"1675 Hollenbeck Ave",Sunnyvale,California,94087,408-735-7922
9700,"576 E El Camino Real",Sunnyvale,California,94087,408-739-4620
9856,"1165 W El Camino Real",Sunnyvale,California,94087,408-732-1688
9643,"8425 Laurel Canyon Blvd.","Sun Valley",California,91352,818-768-2110
9651,"12717 Glenoaks Blvd.",Sylmar,California,91342,818-367-6116
9976,"950 N. Lake Blvd. Suite #100","Tahoe City",California,96145,530-584-0250
9670,"18441 Ventura Blvd",Tarzana,California,91356,818-996-1000
16137,"29676 Rancho California Rd",Temecula,California,92591,
8896,"33205 Temecula Parkway, Highway 79 South And Butterfieldstage Road",Temecula,California,92592,951-303-3164
9550,"40365 Winchester Rd",Temecula,California,92591,951-296-6729
9606,"29610 Rancho California Rd",Temecula,California,92591,951-699-0192
9817,"31771 Rancho California Rd.",Temecula,California,92591,951-699-7587
9918,"31021 Temecula Parkway",Temecula,California,92592,951-303-9417
9920,"30640 Rancho California Rd",Temecula,California,92591,951-695-1713
5170,"9952 Las Tunas Drive, Corner Of Baldwin Avenue","Temple City",California,91780,626-614-1500
9716,"5585 N Rosemead Blvd","Temple City",California,91780,626-287-9959
16475,"2705 Teller Rd","Thousand Oaks",California,91320,
3934,"60 N Moorpark Rd","Thousand Oaks",California,91360,805-496-9310
9241,"1822 E Avenida De Los Arboles","Thousand Oaks",California,91362,805-493-2894
9633,"1382 N. Moorpark Rd.","Thousand Oaks",California,91360,805-495-4613
9715,"2791 Agoura Rd.","Thousand Oaks",California,91361,805-495-4938
1483,"1599 Tiburon Blvd",Tiburon,California,94920,415-435-3843
10022,"1303 Sepulveda Blvd.",Torrance,California,90501,310-784-1351
16050,"3433 Sepulveda Blvd",Torrance,California,90505,
8852,"4235 Pacific Coast Highway",Torrance,California,90505,310-373-6847
8868,"5020 West 190th Street",Torrance,California,90503,310-370-5607
9475,"4320 Redondo Beach Boulevard",Torrance,California,90504,310-542-7327
9478,"3020 Sepulveda Boulevard",Torrance,California,90505,310-534-1264
9568,"4625 Torrance Boulevard",Torrance,California,90503,310-370-7919
8846,"21572 Plano Trabuco Rd.","Trabuco Canyon",California,92679,949-589-3792
16223,"2800 Naglee Rd",Tracy,California,95304,
3908,"1885 W 11th St",Tracy,California,95376,209-836-1460
9855,"3320 N Tracy Blvd",Tracy,California,95376,209-836-2316
9174,"11411 Deerfield Dr",Truckee,California,96161,530-587-5775
9786,"6588 Foothill Blvd",Tujunga,California,91042,818-446-0647
17414,"2195 E Prosperity Ave",Tulare,California,93274,
5551,"109 South West St.",Tulare,California,93274,559-687-1953
912,"2175 E. Bardsley Ave.",Tulare,California,93274,559-685-0123
9176,"1395 E Prosperity Ave",Tulare,California,93274,559-688-2992
16647,"3000 Countryside Dr",Turlock,California,95380,
2994,"3100 Geer Rd.",Turlock,California,95382,209-664-1121
9919,"1621 Lander Ave",Turlock,California,95380,209-669-6446
10806,"15180 Kensington Park Dr.,",Tustin,California,92782,714-259-7625
17233,"2300 Park Ave",Tustin,California,92782,
8877,"671 East 1st Street",Tustin,California,92780,714-544-7034
8890,"17642 East 17th St.",Tustin,California,92780,714-832-1850
9822,"155 S Orchard Ave",Ukiah,California,95482,707-462-9751
11112,"2121 West Baseline Rd",Upland,California,91784,909-608-7833
16955,"1931 N Campus Ave",Upland,California,91784,
9698,"100 W. Foothill Blvd.",Upland,California,91786,909-982-8908
9792,"690 East Foothill Blvd.",Upland,California,91786,909-608-7419
9837,"311 S Mountain Ave",Upland,California,91786,909-981-0717
16274,"3000 Harbison Dr",Vacaville,California,95687,
9819,"191 Depot St.",Vacaville,California,95688,707-446-2401
9917,"625 Elmira Rd",Vacaville,California,95687,707-451-0285
16075,"24425 Magic Mountain Pkwy",Valencia,California,91355,
9832,"3678 Sonoma Blvd",Vallejo,California,94590,707-552-8844
9927,"1193 Admiral Callaghan Lane",Vallejo,California,94591,707-552-0496
9390,"200 E Highway 12 Ste D","Valley Springs",California,95252,209-772-9681
16650,"5711 Sepulveda Blvd","Van Nuys",California,91411,
16652,"14920 Raymer St","Van Nuys",California,91405,
4792,"15232 Sherman Way","Van Nuys",California,91405,818-374-3480
9630,"6201 Sepulveda Blvd.","Van Nuys",California,91411,818-373-5005
6582,"255 Main Street",Venice,California,90291,310-399-2436
8829,"119 S. Lincoln Blvd",Venice,California,90291,310-392-3983
11033,"2260 E. Thompson Blvd.",Ventura,California,93001,805-648-8985
16096,"4200 E Main St",Ventura,California,93003,
17461,"245 S Mills Rd",Ventura,California,93003,
9236,"50 N Ashwood Ave",Ventura,California,93003,805-658-7848
9556,"1740 S Victoria Ave",Ventura,California,93003,805-644-1833
9683,"5900 Telegraph Rd.",Ventura,California,93003,805-642-3276
9969,"7850 Telegraph Rd",Ventura,California,93004,805-671-5122
4148,"14426 Palmdale Rd.",Victorville,California,92392,760-243-1771
9650,"13650 Bear Valley Rd.",Victorville,California,92392,760-243-4595
16928,"4247 S Mooney Blvd",Visalia,California,93277,
17520,"3308 N Dinuba Blvd",Visalia,California,93291,
2541,"1102 N. Demaree St.",Visalia,California,93291,559-738-8629
9271,"3619 W. Caldwell Ave",Visalia,California,93277,559-732-5971
9500,"1455 E Noble Ave",Visalia,California,93292,559-636-1603
16425,"1751 University Dr",Vista,California,92083,
17245,"3150 Business Park Dr",Vista,California,92081,
6368,"635 S Melrose Dr",Vista,California,92081,760-643-3904
8836,"1631 S Melrose Dr, Melrose And Showdowridge",Vista,California,92081,760-727-4221
8857,"1441 N Santa Fe",Vista,California,92084,760-414-1681
9574,"883 S. Santa Fe Avenue, Southsanta Fe Avenue And Civic Center Drive",Vista,California,92083,760-630-2134
16563,"1871 N Main St","Walnut Creek",California,94596,
9324,"1960 Tice Valley Blvd","Walnut Creek",California,94595,925-947-6050
9545,"1123 S California Blvd","Walnut Creek",California,94596,925-933-8353
9815,"738 Bancroft Rd","Walnut Creek",California,94598,925-938-8525
8898,"7300 S Alameda St","Walnut Park",California,90255,323-583-0638
16507,"1415 Main St",Watsonville,California,95076,
3039,"1966 Main St",Watsonville,California,95076,831-722-1782
9796,"490 Rodriguez St",Watsonville,California,95076,831-722-9454
9973,"1595 Main St.",Weaverville,California,96096,530-623-5555
16415,"2831 E Eastland Ctr Dr","West Covina",California,91791,
17230,"2370 S Azusa Ave","West Covina",California,91792,
9687,"702 North Azusa Ave","West Covina",California,91791,626-967-0679
9735,"727 S Glendora Ave","West Covina",California,91790,626-337-7284
9748,"3670 S. Nogales St., Nogales And La Puente","West Covina",California,91792,626-912-7031
16062,"6635 Fallbrook Ave","West Hills",California,91307,
17004,"7100 Santa Monica Blvd Ste 201","West Hollywood",California,90046,
9652,"8491 Santa Monica Blvd","West Hollywood",California,90069,310-360-7303
17648,"30740 Russell Ranch Rd","Westlake Village",California,91362,
16071,"16400 Beach Blvd",Westminster,California,92683,
17372,"200 Westminster Mall",Westminster,California,92683,
9510,"15421 Brookhurst Street",Westminster,California,92683,714-531-1551
17342,"2005 Town Center Plz","West Sacramento",California,95691,
17112,"15614 Whittwood Ln",Whittier,California,90603,
9512,"15466 Whittier Blvd., Whittier Boulevard And Santa Gertrudes",Whittier,California,90603,562-943-9303
9696,"10048 Mills Ave., Telegraph And Carmenita",Whittier,California,90604,562-903-9678
9738,"11735 Whittier Boulevard",Whittier,California,90601,562-692-7706
9852,"11426 Washington Blvd., Washington And Broadway",Whittier,California,90606,562-695-4474
8840,"311w. Pacific Coast Hwy. Suite C",Wilmington,California,90744,310-513-0760
8848,"30736 Benton Rd.",Winchester,California,92596,951-926-1223
9931,"9030 Brooks Rd S",Windsor,California,95492,707-837-8868
2289,"19701 Vanowen St.",Winnetka,California,91306,818-716-1218
9638,"20839 W. Roscoe Blvd.",Winnetka,California,91306,818-701-8911
17468,"2185 Bronze Star Dr",Woodland,California,95776,
9180,"7 W Main St",Woodland,California,95695,530-666-2448
16091,"20801 Ventura Blvd","Woodland Hills",California,91364,
9613,"23357 Mulholland Drive","Woodland Hills",California,91364,818-223-8240
9627,"22050 Ventura Blvd.","Woodland Hills",California,91364,818-346-2207
9682,"22968 Victory Blvd","Woodland Hills",California,91367,818-887-7350
9492,"18080 Imperial Hwy.","Yorba Linda",California,92886,714-961-1054
9905,"20475 Yorba Linda Blvd","Yorba Linda",California,92886,714-693-1055
16109,"1153 Butte House Rd","Yuba City",California,95991,
9932,"1274 Stabler Ln","Yuba City",California,95993,530-671-5753
9649,"33499 Yucaipa Blvd",Yucaipa,California,92399,909-797-3500
16009,"7899 Wadsworth Blvd",Arvada,Colorado,80003,
16074,"16910 E Quincy Ave",Aurora,Colorado,80015,
16751,"1400 S Havana St",Aurora,Colorado,80012,
16803,"14200 E Ellsworth Ave",Aurora,Colorado,80012,
17092,"7400 S Gartrell Rd",Aurora,Colorado,80016,
17511,"15700 E Briarwood Cir",Aurora,Colorado,80016,
16013,"2800 Pearl St",Boulder,Colorado,80301,
17263,"2171 Prairie Center Pkwy",Brighton,Colorado,80601,
11104,"4050 Future St","Castle Rock",Colorado,80109,303-474-5227
16667,"5010 Founders Pkwy","Castle Rock",Colorado,80108,
11001,"3475 North Academy Blvd.","Colorado Springs",Colorado,80917,719-591-1515
11002,"455 North Circle Dr","Colorado Springs",Colorado,80909,719-216-0408
11024,"7353 Rangewood Drive","Colorado Springs",Colorado,80918,719-598-2751
16035,"5240 N Academy Blvd","Colorado Springs",Colorado,80918,
16832,"3810 Bloomington St","Colorado Springs",Colorado,80922,
17298,"9670 Prominent Pt","Colorado Springs",Colorado,80924,
10784,"3770 Sheridan Blvd",Denver,Colorado,80212,720-855-8477
10804,"750 16th Street",Denver,Colorado,80202,303-534-1182
10959,"1900 18th Street, 1st Floor",Denver,Colorado,80202,303-534-1110
11195,"4005 East 8th Place",Denver,Colorado,80220,303-749-3969
17142,"7930 Northfield Blvd",Denver,Colorado,80238,
17654,"7777 E Hampden Ave",Denver,Colorado,80231,
17737,"1600 California St, Suite 14",Denver,Colorado,80202,
17302,"1985 Sheridan Blvd",Edgewater,Colorado,80214,
16033,"6767 S Clinton St",Englewood,Colorado,80112,
16019,"105 W Troutman Pkwy","Fort Collins",Colorado,80525,
17464,"2936 Council Tree Ave","Fort Collins",Colorado,80525,
16929,"4301 E Virginia Ave",Glendale,Colorado,80246,
17122,"110 W Meadows Dr","Glenwood Springs",Colorado,81601,
16024,"2424 Highway 6 And 50","Grand Junction",Colorado,81505,
16935,"4400 Centerplace Dr",Greeley,Colorado,80634,
16081,"1950 E County Line Rd","Highlands Ranch",Colorado,80126,
17603,"1265 Sgt Jon Stiles Dr","Highlands Ranch",Colorado,80129,
16831,"14500 W Colfax Ave Unit B1",Lakewood,Colorado,80401,
17604,"460 S Vance St",Lakewood,Colorado,80226,
10782,"9936 West Bowles Avenue",Littleton,Colorado,80123,303-948-3641
16902,"9390 W Cross Dr",Littleton,Colorado,80123,
17116,"10001 Commons St","Lone Tree",Colorado,80124,
17295,"551 S Hover Rd",Longmont,Colorado,80501,
16536,"1725 Rocky Mtn Ave",Loveland,Colorado,80538,
17408,"3530 Wolverine Dr",Montrose,Colorado,81401,
10785,"16920 Lincoln Avenue",Parker,Colorado,80134,303-805-0761
17296,"11150 S Twenty Mile Rd",Parker,Colorado,80134,
17772,"3300 Dillon Dr.",Pueblo,Colorado,81008,719-696-6685
17335,"3650 Riverpoint Pkwy",Sheridan,Colorado,80110,
16855,"715 Blue River Pkwy Po Box 26870",Silverthorne,Colorado,80498,
16895,"400 Marshall Rd",Superior,Colorado,80027,
16711,"1001 E 120th Ave",Thornton,Colorado,80233,
17046,"10445 Reed St",Westminster,Colorado,80021,
17276,"14451 Orchard Pkwy",Westminster,Colorado,80023,
17114,"5071 Kipling St","Wheat Ridge",Colorado,80033,
17324,"20 W Main St",Ansonia,Connecticut,06401,
718,"24 Pershing Drive # 36",Ansonia,Connecticut,06401,203-735-7837
1180,"358 W. Main St.",Avon,Connecticut,06001,860-678-8605
1155,"308 Berlin Turnpike",Berlin,Connecticut,06037,860-829-0800
1109,"7 Durant Ave.",Bethel,Connecticut,06801,203-794-9500
16858,"7 Stony Hill Rd",Bethel,Connecticut,06801,
1102,"341 Cottage Grove Rd.",Bloomfield,Connecticut,06002,860-243-8351
1903,"796 Park Ave.",Bloomfield,Connecticut,06002,860-243-1704
172,"2-6 Short Beach Rd,",Branford,Connecticut,06405,203-488-9485
1139,"2610 E Main St, Briarwoods S/c",Bridgeport,Connecticut,06610,203-368-0944
1153,"1875 Boston Ave, Cvs Plaza",Bridgeport,Connecticut,06610,203-330-8278
2143,"3710 Main Street",Bridgeport,Connecticut,06606,203-371-1280
1276,"81 North St.",Bristol,Connecticut,06010,860-584-8998
288,"839 Farmington Ave,",Bristol,Connecticut,06010,860-582-8167
5703,"60 Middle St.",Bristol,Connecticut,06010,860-585-0122
696,"14 Candlewood Lake Rd.",Brookfield,Connecticut,06804,203-775-9593
942,"542 Providence Rd.",Brooklyn,Connecticut,06234,860-779-0523
7916,"292 Spielman Hwy.",Burlington,Connecticut,06013,860-673-8006
2253,"111 Albany Turnpike",Canton,Connecticut,06019,860-693-8077
1148,"905 South Main St.",Cheshire,Connecticut,06410,203-272-3255
2502,"581 Highland Ave.",Cheshire,Connecticut,06410,203-250-2251
1284,"17 West Main Street",Clinton,Connecticut,06413,860-664-9337
5848,"119 S. Main St.",Colchester,Connecticut,06415,860-537-0711
2475,"122 E. Putnam Avenue","Cos Cob",Connecticut,06807,203-422-2129
2220,"3514 Main St.",Coventry,Connecticut,06238,860-742-3543
3835,"72 Berlin Rd.",Cromwell,Connecticut,06416,860-613-0499
2545,"35 Padanaram Rd.",Danbury,Connecticut,06811,203-730-4870
629,"146 South St.",Danbury,Connecticut,06810,203-797-8919
7093,"47 Lake Avenue Extension",Danbury,Connecticut,06811,203-778-7471
798,"299-305 White St.",Danbury,Connecticut,06810,203-790-9485
918,"964 Post Road",Darien,Connecticut,06820,203-655-6335
17489,"2177 Killingly Cmns",Dayville,Connecticut,06241,
1044,"656 New Haven Ave., Route 34",Derby,Connecticut,06418,203-732-4495
4149,"54 East High St.","East Hampton",Connecticut,06424,860-267-6853
1089,"20 Burnside Avenue","East Hartford",Connecticut,06108,860-290-2091
1101,"16 Main St.","East Hartford",Connecticut,06118,860-568-1700
85,"972 Silver Ln.","East Hartford",Connecticut,06118,860-569-0888
1968,"369 Main Street","East Haven",Connecticut,06512,203-468-6594
857,"660 Foxon Rd.","East Haven",Connecticut,06513,203-467-8876
4473,"15 Chesterfield Rd.","East Lyme",Connecticut,06333,860-739-0276
1098,"47 Hazard Ave",Enfield,Connecticut,06082,860-741-0751
16603,"90 Elm St",Enfield,Connecticut,06082,
750,"875 Enfield St, Enfield Plaza Shoppes",Enfield,Connecticut,06082,860-741-3014
133,"698 Post Rd.",Fairfield,Connecticut,06824,203-255-1089
1912,"1968 Black Rock Turnpike, Fairway Plaza",Fairfield,Connecticut,06825,203-366-8070
2151,"330 Grasmere Ave.",Fairfield,Connecticut,06824,203-255-0060
3373,"961 Black Rock Tpke., At The Corner Of Jennings Road",Fairfield,Connecticut,06825,203-331-4731
145,"330 Main St.",Farmington,Connecticut,06032,860-677-5047
556,"1657 Route 12","Gales Ferry",Connecticut,06335,860-464-0288
459,"2639 Main St.",Glastonbury,Connecticut,06033,860-659-1329
5450,"766 New London Turnpike",Glastonbury,Connecticut,06033,860-633-4668
1202,"20 Bank St.",Granby,Connecticut,06035,860-653-4221
1280,"99 Greenwich Avenue",Greenwich,Connecticut,06830,203-862-9320
6702,"644 W. Putnam Ave.",Greenwich,Connecticut,06830,203-422-2022
377,"915 Poquonnock Rd.",Groton,Connecticut,06340,860-446-0144
1966,"1057 Boston Post Road,",Guilford,Connecticut,06437,203-458-1444
11081,"1245 Dixwell Ave",Hamden,Connecticut,06514,203-285-1123
775,"2045 Dixwell Ave.",Hamden,Connecticut,06514,203-287-0835
1183,"777 Main Street",Hartford,Connecticut,06103,860-244-9424
1948,"690 Wethersfield Ave.",Hartford,Connecticut,06114,860-296-1155
2099,"479 Blue Hills Ave.",Hartford,Connecticut,06112,860-769-6870
350,"566 Farmington Avenue",Hartford,Connecticut,06105,860-233-9673
5263,"150 Washington St.",Hartford,Connecticut,06106,860-595-1750
840,"908-910 Maple Avenue",Hartford,Connecticut,06114,860-956-7107
10130,"110 Main Street",Hebron,Connecticut,06248,860-228-3888
2119,"1055 Farmington Avenue",Kensington,Connecticut,06037,860-828-6584
17490,"195 River Rd",Lisbon,Connecticut,06351,
135,"266 West Street, Route 202",Litchfield,Connecticut,06759,860-567-0856
388,"613 Boston Post Rd, Northeast Intersection Of 613 Boston Post Road And Route 79",Madison,Connecticut,06443,203-245-3165
10316,"1221 Main Street",Manchester,Connecticut,06040,860-512-2256
16597,"125 Buckland Hills Dr",Manchester,Connecticut,06042,
1910,"260 North Main Street",Manchester,Connecticut,06042,860-646-4510
4436,"241 Middle Turnpike West",Manchester,Connecticut,06040,860-533-1156
16712,"474 Chamberlain Hwy",Meriden,Connecticut,06451,
2018,"540 West Main Street",Meriden,Connecticut,06451,203-237-8984
6807,"153 Broad St",Meriden,Connecticut,06450,203-237-8997
865,"839 East Main Street",Meriden,Connecticut,06450,203-235-8285
2896,"675 Washington Street",Middletown,Connecticut,06457,860-344-1320
364,"308 Main Street Extension",Middletown,Connecticut,06457,860-344-1857
1241,"734 Bridgeport Ave.",Milford,Connecticut,06460,203-877-8127
17137,"1191 Boston Post Rd",Milford,Connecticut,06460,
71,"989 Boston Post Road",Milford,Connecticut,06460,203-783-9058
1941,"511 Monroe Turnpike",Monroe,Connecticut,06468,203-261-1185
2056,"25 Broadway, Corner Of East Main",Mystic,Connecticut,06355,860-536-5635
124,"98 Bridge St.",Naugatuck,Connecticut,06770,203-723-1172
16633,"475 Hartford Rd","New Britain",Connecticut,06053,
294,"177 Columbus Blvd.","New Britain",Connecticut,06051,860-229-3757
760,"713 West Main Street","New Britain",Connecticut,06053,860-224-3494
1213,"94 Park Street","New Canaan",Connecticut,06840,203-966-6758
11007,"123 Church St.","New Haven",Connecticut,06510,203-498-9442
2259,"215 Whalley Avenue","New Haven",Connecticut,06511,203-401-4661
811,"1150 Whalley Ave.","New Haven",Connecticut,06515,203-389-4714
16925,"3265 Berlin Turnpike",Newington,Connecticut,06111,
691,"1181 Main Street",Newington,Connecticut,06111,860-667-1888
1080,"817 Bank Street","New London",Connecticut,06320,860-443-5359
822,"40 East St.","New Milford",Connecticut,06776,860-354-4455
1897,"6 Queen Street",Newtown,Connecticut,06470,203-426-2595
1152,"58 Pennsylvania Ave.",Niantic,Connecticut,06357,860-691-0380
17034,"200 Universal Dr N","North Haven",Connecticut,06473,
692,"162 Washington Avenue","North Haven",Connecticut,06473,203-239-4071
1149,"696 West Ave.",Norwalk,Connecticut,06850,203-866-0949
1154,"6 Willard Rd.",Norwalk,Connecticut,06851,203-750-6901
7856,"281 Connecticut Ave.",Norwalk,Connecticut,06854,203-299-5486
854,"327 Main Avenue",Norwalk,Connecticut,06851,203-847-2351
1027,"372 West Main Street",Norwich,Connecticut,06360,860-887-5970
916,"26 Davis St.",Oakville,Connecticut,06779,860-945-3390
1898,"225 Sound Beach Avenue","Old Greenwich",Connecticut,06870,203-698-1457
123,"519 Boston Post Rd.","Old Saybrook",Connecticut,06475,860-388-1145
17071,"25 Boston Post Rd",Orange,Connecticut,06477,
2097,"279 Boston Post Rd.",Orange,Connecticut,06477,203-795-4704
1125,"10 Lathrop Rd",Plainfield,Connecticut,06374,860-564-2111
839,"14 Farmington Avenue",Plainville,Connecticut,06062,860-793-9248
1244,"26 Waterbury Rd.",Prospect,Connecticut,06712,203-758-3316
8249,"57 Providence Pike",Putnam,Connecticut,06260,860-963-2548
10462,"720 Branchville Rd",Ridgefield,Connecticut,06877,203-544-7094
738,"467 Main St.",Ridgefield,Connecticut,06877,203-431-8888
2210,"1239 East Putnam Ave.",Riverside,Connecticut,06878,203-698-4006
2219,"2427 Main Street","Rocky Hill",Connecticut,06067,860-258-4963
2525,"323 Cromwell Avenue, Corner Of New Britain Avenue","Rocky Hill",Connecticut,06067,860-563-9393
185,"215 West St.",Seymour,Connecticut,06483,203-888-9068
11264,"705 Bridgeport Ave.",Shelton,Connecticut,06484,203-447-7013
1242,"714 Hopmeadow St, Dracut Mall",Simsbury,Connecticut,06070,860-651-1440
1123,"22 Depot Hill Rd.",Southbury,Connecticut,06488,203-262-1831
1028,"724 Queen St,, Shop Rite Plaza",Southington,Connecticut,06489,860-621-7371
1060,"326 Main Street",Southington,Connecticut,06489,860-621-1996
17491,"600 Executive Blvd",Southington,Connecticut,06489,
1043,"525 Buckland Rd, Town Center S/c","South Windsor",Connecticut,06074,860-644-4241
10605,"37 West Main St.","Stafford Springs",Connecticut,06076,860-684-0015
1051,"593 Newfield Avenue",Stamford,Connecticut,06905,203-967-4600
1219,"229 Hope Street",Stamford,Connecticut,06906,203-921-1313
16872,"21 Broad St",Stamford,Connecticut,06901,
1775,"1058 Hope Street",Stamford,Connecticut,06907,203-325-5172
1987,"1938 West Main Street",Stamford,Connecticut,06902,203-323-7864
2258,"537 Canal St.",Stamford,Connecticut,06902,203-323-1293
343,"66 High Ridge Road",Stamford,Connecticut,06905,203-541-3972
3719,"11 Forest St.",Stamford,Connecticut,06901,203-363-0627
5881,"969 High Ridge Road",Stamford,Connecticut,06905,203-322-1520
10317,"8 Royce Circle, (ts-3)","Storrs Mansfield",Connecticut,06268,860-429-1536
785,"632 Middle Turnpike","Storrs Mansfield",Connecticut,06268,860-487-2034
2572,"1 Hawley Lane",Stratford,Connecticut,06614,203-383-7735
2573,"1425 Barnum Avenue",Stratford,Connecticut,06614,203-383-7741
2022,"163 Mountain Rd,",Suffield,Connecticut,06078,860-668-5115
954,"311 Main St, Village Plaza",Terryville,Connecticut,06786,860-314-2891
1097,"661 Main Street",Torrington,Connecticut,06790,860-482-8298
17373,"1922 E Main St",Torrington,Connecticut,06790,
10367,"965 White Plains Rd",Trumbull,Connecticut,06611,203-261-2541
17072,"120 Hawley Ln",Trumbull,Connecticut,06611,
17425,"5065 Main St Ste Target",Trumbull,Connecticut,06611,
2839,"2005 Norwich - New London Tpke",Uncasville,Connecticut,06382,860-848-3202
953,"45 South Main St, Farmington Plaza",Unionville,Connecticut,06085,860-675-9210
231,"142 Talcottville Road",Vernon,Connecticut,06066,860-871-1661
2109,"22 Windsor Avenue","Vernon Rockville",Connecticut,06066,860-870-6765
935,"891 North Colony Rd.",Wallingford,Connecticut,06492,203-294-8890
1151,"464 Reidville Drive",Waterbury,Connecticut,06705,203-596-0909
17238,"300 Chase Ave",Waterbury,Connecticut,06704,
1960,"1279 West Main Street, Robinwood Shopping Plaza",Waterbury,Connecticut,06708,203-755-5490
2140,"526 Meriden Road",Waterbury,Connecticut,06705,203-465-7055
2388,"2000 North Main Street",Waterbury,Connecticut,06704,203-591-3081
1268,"106 Boston Post Road",Waterford,Connecticut,06385,860-443-1244
16614,"900 Hartford Tpke",Waterford,Connecticut,06385,
1038,"1044 Boulevard","West Hartford",Connecticut,06119,860-236-9348
11072,"344 N Main St","West Hartford",Connecticut,06117,860-231-9573
1156,"1240 Farmington Avenue","West Hartford",Connecticut,06107,860-521-9877
17777,"333 North Main St, Suite 10","West Hartford",Connecticut,06117,860-231-7979
2153,"150 South Main Street","West Hartford",Connecticut,06107,860-561-6164
333,"978 Farmington Ave","West Hartford",Connecticut,06107,860-521-5844
671,"1099 New Britain Avenue, Corner Of Newington Road","West Hartford",Connecticut,06110,860-236-6181
2584,"252 Orange Avenue","West Haven",Connecticut,06516,203-931-4541
3549,"355 Campbell Ave.","West Haven",Connecticut,06516,203-931-1190
941,"844 Jones Hill Road","West Haven",Connecticut,06516,203-933-5499
623,"397 Post Road East",Westport,Connecticut,06880,203-227-7343
348,"1078 Silas Deane Highway",Wethersfield,Connecticut,06109,860-529-2535
943,"1200 Main Street",Willimantic,Connecticut,06226,860-456-5931
3795,"93 Old Ridgefield Rd.",Wilton,Connecticut,06897,203-762-5020
1166,"219 Broad Street",Windsor,Connecticut,06095,860-298-5925
17291,"1075 Kennedy Rd",Windsor,Connecticut,06095,
349,"484 Windsor Avenue",Windsor,Connecticut,06095,860-947-5078
1070,"90 Main Street","Windsor Locks",Connecticut,06096,860-623-2407
2682,"47 Main St.",Winsted,Connecticut,06098,860-738-6250
3042,"1545 Pulaski Highway",Bear,Delaware,19701,302-832-8701
4710,"39820 Hickman Plaza Rd.","Bethany Beach",Delaware,19930,302-539-3548
10238,"702 Naamans Rd.",Claymont,Delaware,19703,302-798-0249
16655,"148 John Hunn Brown Rd",Dover,Delaware,19901,
1911,"11 North Dupont Hwy",Dover,Delaware,19901,302-672-7010
2069,"988 Forrest St.",Dover,Delaware,19904,302-744-9222
10296,"17229 N Village Main Blvd",Lewes,Delaware,19958,302-644-1558
10375,"674 Middletown Odessa Rd.",Middletown,Delaware,19709,302-378-2287
10222,"601 N. Dupont Blvd.",Milford,Delaware,19963,302-424-8401
10103,"366 E. Chestnut Hill Rd.",Newark,Delaware,19713,302-368-3246
10376,"604 Corner Ketch Rd",Newark,Delaware,19711,302-235-5509
17621,"800 Christiana Mall",Newark,Delaware,19702,
6869,"8 Landers Lane","New Castle",Delaware,19720,302-594-4501
3902,"54 Atlantic Ave.","Ocean View",Delaware,19970,302-537-4670
3738,"19869 Sea Blossom Blvd.","Rehoboth Beach",Delaware,19971,302-226-7791
3231,"36252 Lighthouse Rd.",Selbyville,Delaware,19975,302-436-6411
10609,"4020 Concord Pike",Wilmington,Delaware,19803,302-478-1510
16509,"1050 Brandywine Pkwy",Wilmington,Delaware,19803,
17803,"3240 Kirkwood Highway",Wilmington,Delaware,19808,302-252-0543
3038,"1605 Telegraph Rd.",Wilmington,Delaware,19804,302-994-2314
88,"1005 Delaware Ave.",Wilmington,Delaware,19806,302-574-9836
5222,"15174 Nw Us Highway 441/po Box 1385",Alachua,Florida,32615,386-462-1323
16178,"886 W State Road 436","Altamonte Springs",Florida,32714,
3150,"221 S State Rd 434","Altamonte Springs",Florida,32714,407-862-3013
3253,"1098 Montgomery Rd","Altamonte Springs",Florida,32714,407-869-6463
3757,"1401 Dutch Elm Drive, Corner Of Bear Lake","Altamonte Springs",Florida,32714,407-291-4198
7219,"277 W. Sr 436","Altamonte Springs",Florida,32714,407-389-6025
5165,"139 Avenue E",Apalachicola,Florida,32320,850-653-8737
3520,"6202 Us Hwy 41 N","Apollo Beach",Florida,33572,813-645-4605
3225,"2311 E. Semoran Blvd.",Apopka,Florida,32703,407-880-2792
3748,"65 E Main St",Apopka,Florida,32703,407-889-8686
3107,"4 S. Brevard Ave.",Arcadia,Florida,34266,863-494-5711
3127,"99 Magnolia Ave",Auburndale,Florida,33823,863-967-4451
10646,"2962 Aventura Blvd.",Aventura,Florida,33180,305-692-2499
16454,"21265 Biscayne Blvd",Aventura,Florida,33180,
2444,"1105 W Main St","Avon Park",Florida,33825,863-453-7505
587,"120 W. Van Fleet Dr",Bartow,Florida,33830,863-533-4153
5112,"101 South Main Street","Belle Glade",Florida,33430,561-996-7707
3215,"5800 Se Abshier Blvd",Belleview,Florida,34420,352-245-2470
3700,"3506 N Lecanto Hwy","Beverly Hills",Florida,34465,352-746-7878
3626,"30401 Overseas Hwy","Big Pine Key",Florida,33043,305-872-3797
16173,"21637 State Road 7","Boca Raton",Florida,33428,
3275,"686 Glades Rd","Boca Raton",Florida,33431,561-395-6130
3818,"21140 St. Andrews Blvd.","Boca Raton",Florida,33433,561-391-9613
4076,"2901 Clint Moore Rd","Boca Raton",Florida,33496,561-994-2490
426,"150 W Camino Real","Boca Raton",Florida,33432,561-395-1616
5111,"9940 Yamato Rd.","Boca Raton",Florida,33434,561-488-9838
5223,"202 Yamato Rd.","Boca Raton",Florida,33431,561-997-1761
7173,"6651 N. Military Trail, Suite 100","Boca Raton",Florida,33496,561-998-3747
770,"2390 N. Federal Hwy","Boca Raton",Florida,33431,561-391-0668
7982,"520 S. Federal Hwy.","Boca Raton",Florida,33432,561-362-3240
8372,"7016 Bera Casa Way","Boca Raton",Florida,33433,561-391-8770
3552,"27841 Crown Lake Blvd., Po 2327","Bonita Springs",Florida,34135,239-992-2130
4608,"24800 S Tamiami Trl","Bonita Springs",Florida,34134,239-947-6999
5787,"11500 Bonita Beach Rd. Se","Bonita Springs",Florida,34135,239-498-6395
17155,"10201 Hagen Ranch Rd","Boynton Beach",Florida,33437,
17288,"650 N Congress Ave","Boynton Beach",Florida,33426,
3119,"131 N Congress Ave","Boynton Beach",Florida,33426,561-734-2666
3158,"1895 N Congress Ave","Boynton Beach",Florida,33426,561-736-8116
4785,"12750 S. Military Trail, Corner Of Flavor Pict Road","Boynton Beach",Florida,33436,561-637-3695
4980,"10074 Jog Rd","Boynton Beach",Florida,33437,561-738-2029
5114,"9824 S Military Trl","Boynton Beach",Florida,33436,561-732-9115
5205,"301 N Federal Hwy","Boynton Beach",Florida,33435,561-740-7828
7919,"12080 South Jog Rd.","Boynton Beach",Florida,33437,561-733-4974
1047,"6204 14th St West, Bayshore Gardens Parkway",Bradenton,Florida,34207,941-755-3716
11239,"11521 Sr 70 E",Bradenton,Florida,34202,941-242-6876
16264,"6150 14th St W",Bradenton,Florida,34207,
4616,"7195 Sr 70",Bradenton,Florida,34203,941-727-2803
5245,"520 First St W",Bradenton,Florida,34208,941-746-9259
5780,"4302 Cortez Rd. West",Bradenton,Florida,34210,941-794-2899
5823,"5310 45th St., East",Bradenton,Florida,34203,941-751-4472
5859,"3813 Manatee Ave. West",Bradenton,Florida,34205,941-747-5944
7892,"1520 Lakewood Ranch Blvd.",Bradenton,Florida,34211,941-745-1076
16260,"187 Brandon Town Center Dr",Brandon,Florida,33511,
2825,"715 W. Brandon Blvd.",Brandon,Florida,33511,813-653-4109
5148,"1904 W Lumsden Rd",Brandon,Florida,33511,813-651-3118
5237,"909 E Lumsden Rd",Brandon,Florida,33511,813-684-8684
17535,"3101 Aerial Way",Brooksville,Florida,34604,
1812,"20019 Cortez Blvd",Brooksville,Florida,34601,352-796-7261
3528,"12990 Cortez Blvd",Brooksville,Florida,34613,352-596-1286
3639,"420 N Main St",Bushnell,Florida,33513,352-793-8577
3637,"542325 Us Highway 1",Callahan,Florida,32011,904-879-4233
1055,"2090 S Highway 29",Cantonment,Florida,32533,850-937-0122
1067,"737 Cape Coral Pkwy E","Cape Coral",Florida,33904,239-542-0512
16786,"2430 Santa Barbara Blvd","Cape Coral",Florida,33914,
17383,"1890 Ne Pine Island Road","Cape Coral",Florida,33909,
4224,"1003 Santa Barbara Blvd","Cape Coral",Florida,33991,239-772-4000
5785,"1209 Del Prado Blvd., South","Cape Coral",Florida,33990,239-772-1228
7902,"1611 Pine Island Rd Ne","Cape Coral",Florida,33909,239-242-1050
16330,"4410 S Highway 17 92",Casselberry,Florida,32707,
4027,"8361 N Century Blvd",Century,Florida,32535,850-256-4183
5167,"12 Decatur St",Chattahoochee,Florida,32324,850-663-2268
3000,"2137 N Young Blvd",Chiefland,Florida,32626,352-493-2592
4480,"1037 Main St.",Chipley,Florida,32428,850-638-7896
7998,"700 W Norvell Bryant Hwy","Citrus Hills",Florida,34442,352-249-3143
104,"1 S Missouri Ave",Clearwater,Florida,33756,727-446-6037
1083,"23682 Us Hwy 19 N",Clearwater,Florida,33765,727-799-0910
16941,"2747 Gulf To Bay Blvd",Clearwater,Florida,33759,
2731,"2200 Gulf To Bay Blvd.",Clearwater,Florida,33765,727-791-3548
2874,"4000 East Bay Drive",Clearwater,Florida,33764,727-532-4157
3615,"1899 N Highland Ave, Corner Of Sunset Point Road",Clearwater,Florida,33755,727-441-4585
3686,"30387 Us Hwy 19 N",Clearwater,Florida,33761,727-781-2955
3804,"2528 N Mcmullen Booth Rd",Clearwater,Florida,33761,727-797-5803
3960,"3765 Ulmerton Rd",Clearwater,Florida,33762,727-573-3383
3001,"467 Mandalay Ave","Clearwater Beach",Florida,33767,727-447-6429
16849,"2660 East Hwy 50",Clermont,Florida,34711,
5817,"1800 E. Hwy 50",Clermont,Florida,34711,352-243-7030
7897,"1640 Us Highway 27",Clermont,Florida,34714,352-243-0135
8375,"4405 South Highway 27",Clermont,Florida,34711,352-243-3367
3164,"520 W Sugarland Hwy",Clewiston,Florida,33440,863-983-1011
3709,"1185 Fay Blvd",Cocoa,Florida,32927,321-639-4650
4280,"2324 Sr 524",Cocoa,Florida,32926,321-636-9335
246,"4292 N Atlantic Ave","Cocoa Beach",Florida,32931,321-784-0503
4797,"4550 Lyons Rd.","Coconut Creek",Florida,33073,954-590-3153
5232,"4650 W Hillsboro Blvd.","Coconut Creek",Florida,33073,954-426-5224
4994,"3215 Grand Ave.","Coconut Grove",Florida,33133,305-569-1162
7933,"4701 S Flamingo Road","Cooper City",Florida,33330,954-434-3160
17786,"1906 Ponce De Leon Blvd","Coral Gables",Florida,33134,305-459-7202
4059,"1160 S Dixie Hwy","Coral Gables",Florida,33146,305-663-8697
17229,"4400 N State Rd 7","Coral Springs",Florida,33073,
17339,"9600 Westview Dr","Coral Springs",Florida,33076,
2804,"645 University Dr.","Coral Springs",Florida,33071,954-575-7803
3917,"8151 Wiles Rd","Coral Springs",Florida,33067,954-753-9330
4808,"11375 W Atlantic Blvd, Corner Of Coral Ridge Drive","Coral Springs",Florida,33071,954-341-7636
5084,"3401 Coral Springs Dr.","Coral Springs",Florida,33065,954-346-8428
5247,"2353 University Dr","Coral Springs",Florida,33065,954-757-6330
5930,"5701 Coral Ridge Dr.","Coral Springs",Florida,33076,954-825-4391
5069,"2668 Crawfordville Hwy",Crawfordville,Florida,32327,850-926-3541
4015,"302 E. James Lee Blvd.",Crestview,Florida,32539,850-682-1002
3103,"327 Ne Us Hwy 19","Crystal River",Florida,34429,352-795-7262
3765,"19198 S Dixie Hwy, Across From Burlington Coat Factory","Cutler Bay",Florida,33157,305-252-8662
1293,"12804 Us Hwy 301","Dade City",Florida,33525,352-567-5656
17430,"5000 Grandview Pkwy",Davenport,Florida,33837,
1750,"7575 Osceola Polk Line Rd.",Davenport,Florida,33896,321-677-0531
6729,"39902 Highway 27",Davenport,Florida,33837,863-419-2721
6853,"49581 Us Highway 27",Davenport,Florida,33897,863-420-7563
17115,"5800 S University Dr",Davie,Florida,33328,
3291,"4610 S University Dr",Davie,Florida,33328,954-434-2002
5115,"2920 Davie Rd",Davie,Florida,33314,954-584-8059
16209,"2380 W International Speedway Blvd","Daytona Beach",Florida,32114,
174,"101 S Ridgewood Ave","Daytona Beach",Florida,32114,386-255-5396
5912,"1891 Lpga Blvd.","Daytona Beach",Florida,32117,386-274-1490
3614,"3422 S Atlantic Ave","Daytona Beach Shores",Florida,32118,386-756-0481
16677,"1200 S Federal Hwy","Deerfield Beach",Florida,33441,
17180,"3599 W Hillsboro Blvd","Deerfield Beach",Florida,33442,
3265,"1806 W. Hillsboro Blvd.","Deerfield Beach",Florida,33442,954-427-6800
3961,"2 S. Federal Hwy","Deerfield Beach",Florida,33441,954-481-8376
214,"901 N Woodland Blvd",Deland,Florida,32720,386-734-5822
3673,"2497 S. Woodland Blvd.",Deland,Florida,32720,386-736-9001
16175,"1200 Linton Blvd","Delray Beach",Florida,33444,
1821,"1690 S Federal Hwy, South Federal Highway And Linton Boulevard","Delray Beach",Florida,33483,561-272-1163
2966,"6464 W. Atlantic Ave.","Delray Beach",Florida,33484,561-637-7301
3887,"4970 W. Atlantic Ave.","Delray Beach",Florida,33445,561-498-7001
5401,"700 Ne 6th Avenue (us1)","Delray Beach",Florida,33483,561-276-5957
3657,"1250 Providence Blvd",Deltona,Florida,32725,386-574-5291
5854,"2187 Howland Blvd.",Deltona,Florida,32738,386-789-0813
17173,"853 Harbor Blvd",Destin,Florida,32541,
3513,"797 Hwy 98 E",Destin,Florida,32541,850-837-8111
10464,"3750 Nw 87th Avenue, Suite B",Doral,Florida,33178,786-331-8203
10713,"11402 Nw 41st Street, Suite 127",Doral,Florida,33178,305-599-0764
3705,"10701 Nw 41st St, Corner Of 107 Avenue",Doral,Florida,33178,305-477-0184
7133,"10700 Nw 74th St.",Doral,Florida,33178,305-594-5984
3228,"1298 County Rd 1",Dunedin,Florida,34698,727-736-5686
4987,"2175 Main St.",Dunedin,Florida,34698,727-733-6241
3539,"11582 N Williams St #506",Dunnellon,Florida,34432,352-489-9023
3519,"238 Us Highway 17","East Palatka",Florida,32131,386-328-6713
3604,"1806 S Ridgewood Ave",Edgewater,Florida,32132,386-423-4674
1013,"1760 S Mccall Rd",Englewood,Florida,34223,941-474-3267
17384,"8040 Mediterranean Dr",Estero,Florida,33928,
3281,"11241 Miromar Square Blvd",Estero,Florida,33928,239-992-6168
5139,"1995 Sr 19, North",Eustis,Florida,32726,352-589-1330
8937,"24450 Sr 44",Eustis,Florida,32736,352-357-2576
3235,"870 Sadler Rd","Fernandina Beach",Florida,32034,904-261-0836
7964,"2301 Moody Blvd.","Flagler Beach",Florida,32136,386-439-0271
16828,"1490 County Rd 220","Fleming Island",Florida,32003,
16524,"3200 N Federal Hwy","Fort Lauderdale",Florida,33306,
3261,"2701 Stirling Rd","Fort Lauderdale",Florida,33312,954-981-9670
3285,"1700 S. Federal Hwy.","Fort Lauderdale",Florida,33316,954-462-8185
3627,"1 N Federal Hwy","Fort Lauderdale",Florida,33301,954-524-0500
4069,"4725 N. Ocean Dr.","Fort Lauderdale",Florida,33308,954-942-8648
4092,"2801 E Oakland Park Blvd","Fort Lauderdale",Florida,33306,954-564-0337
410,"2150 East Commercial Blvd.","Fort Lauderdale",Florida,33308,954-771-0660
4201,"2240 E Sunrise Blvd","Fort Lauderdale",Florida,33304,954-566-8309
4681,"3724 North Ocean Blvd.","Fort Lauderdale",Florida,33308,954-396-3129
6037,"17 S. Ft Lauderdale Beach Blvd. # 110","Fort Lauderdale",Florida,33316,954-463-2374
981,"3501 W Davie Blvd","Fort Lauderdale",Florida,33312,954-583-9195
7890,"7581 Winkler Rd","Fort Myers",Florida,33908,239-432-2619
5185,"12255 S Cleveland Ave.","Fort Myers",Florida,33907,239-931-5924
17433,"9350 Dynasty Dr","Fort Myers",Florida,33905,
17148,"10000 Gulf Center Dr","Fort Myers",Florida,33913,
7983,"11300 State Road 82, Corner Of Colonial Boulevard","Fort Myers",Florida,33905,239-461-0147
16265,"13711 S Tamiami Trl","Fort Myers",Florida,33912,
3277,"5990 S Pointe Blvd","Fort Myers",Florida,33919,239-482-7463
3485,"16950 Pine Ridge Rd., Corner Of Summerlin Road","Fort Myers",Florida,33908,239-466-3000
3296,"4710 Palm Beach Blvd","Fort Myers",Florida,33905,239-694-7444
196,"15550 San Carlos Blvd.","Fort Myers",Florida,33908,239-433-2631
3349,"19070 S Tamiami Trail","Fort Myers",Florida,33908,239-590-0049
3433,"14411 Palm Beach Blvd","Fort Myers",Florida,33905,239-693-2221
2982,"13591 Jetport Commerce Pkwy.","Fort Myers",Florida,33913,239-225-1505
5236,"9170 Daniels Pkwy","Fort Myers",Florida,33912,239-561-5151
5116,"16961 Alico Mission Way","Fort Myers",Florida,33908,239-433-2110
3941,"2403 Cleveland Ave","Fort Myers",Florida,33901,239-332-3050
3616,"13400 S Cleveland Ave","Fort Myers",Florida,33907,239-489-3338
17427,"15880 San Carlos Blvd","Fort Myers",Florida,33908,
3611,"7001 Estero Blvd","Fort Myers Beach",Florida,33931,239-463-5746
111,"1891 N. Us Hwy 1","Fort Pierce",Florida,34946,772-461-7049
3487,"2220 S Us Hwy 1","Fort Pierce",Florida,34950,772-464-0434
3689,"4999 S Federal Hwy","Fort Pierce",Florida,34982,772-464-3308
5151,"4780 North Kings Hwy","Fort Pierce",Florida,34951,772-489-2100
4440,"434 Racetrack Rd Ne","Fort Walton Beach",Florida,32547,850-315-0474
5194,"1081 Beal Pkwy Nw","Fort Walton Beach",Florida,32547,850-863-4400
10883,"311 Sw 13th St., Unit 101",Gainesville,Florida,32601,352-378-7600
16208,"3970 Sw Archer Rd",Gainesville,Florida,32608,
17701,"250 Nw 13th St",Gainesville,Florida,32601,
1815,"4354 Nw 23rd Ave, Coner Of North West 43rd Street And North West 23rd Ave.",Gainesville,Florida,32606,352-376-4565
1856,"7430 Sw Archer Rd.",Gainesville,Florida,32608,352-374-2047
3255,"3404 Sw Archer Rd",Gainesville,Florida,32608,352-373-2507
4139,"4145 Nw 53rd Avenue",Gainesville,Florida,32653,352-371-9329
5160,"3904 Nw 13th St",Gainesville,Florida,32609,352-338-0554
5181,"2303 Sw 75th St",Gainesville,Florida,32607,352-332-7115
571,"901 N Main St",Gainesville,Florida,32601,352-376-1278
5832,"1515 Nw 13th St.",Gainesville,Florida,32601,352-378-6460
7178,"1621 Sw 13th St.",Gainesville,Florida,32608,352-336-3383
16483,"5900 Lake Worth Rd",Greenacres,Florida,33463,
3633,"6358 Forest Hill Blvd",Greenacres,Florida,33415,561-964-1702
7993,"2998 S. Jog Rd.",Greenacres,Florida,33467,561-434-4580
4339,"800 N Orange Ave","Green Cove Springs",Florida,32043,904-284-5653
4155,"3359 Gulf Breeze Parkway","Gulf Breeze",Florida,32563,850-932-3581
5176,"225 Gulf Breeze Pkwy.","Gulf Breeze",Florida,32561,850-934-0030
511,"35799 Hwy 27","Haines City",Florida,33844,863-422-4969
10078,"2101 E. Hallandale Beach Blvd.","Hallandale Beach",Florida,33009,954-457-4949
4629,"6025 Se Us Hwy 301",Hawthorne,Florida,32640,352-481-3105
3920,"100 International Pkwy Ste 130",Heathrow,Florida,32746,407-333-3102
4032,"855 E 8th Ave",Hialeah,Florida,33010,305-888-5598
11087,"802 E. 25th Street",Hialeah,Florida,33013,305-341-4515
5466,"1230 West 29th St.,",Hialeah,Florida,33012,305-805-4985
10719,"3915 Palm Avenue",Hialeah,Florida,33012,305-821-9518
17194,"1750 W 37th St",Hialeah,Florida,33012,
3570,"18478 Nw 67th Ave",Hialeah,Florida,33015,305-557-5376
4072,"1525 W. 49th St.",Hialeah,Florida,33012,305-557-1365
10712,"775 W 49th Street, Suite 1",Hialeah,Florida,33012,305-823-0823
10700,"4410 W 16 Ave, Suite 9",Hialeah,Florida,33012,786-353-0085
10722,"366 East 4th Avenue",Hialeah,Florida,33010,305-749-5353
3959,"8641 Nw 186th St",Hialeah,Florida,33015,305-829-0280
10703,"3141 W 76 Street, Suite 5",Hialeah,Florida,33018,786-353-0086
10714,"3960 W 12th Avenue",Hialeah,Florida,33012,305-821-4291
10716,"2399 W. 52nd Street",Hialeah,Florida,33016,305-424-9144
931,"101 Hialeah Dr",Hialeah,Florida,33010,305-888-1639
925,"3395 West 68th St.",Hialeah,Florida,33018,305-825-5226
3722,"1200 W 68th St",Hialeah,Florida,33014,305-825-6546
3756,"2391 W. 68th St.",Hialeah,Florida,33016,305-820-2122
4485,"19225 Nw Us Highway 441","High Springs",Florida,32643,386-454-3334
3298,"8800 Se Bridge Rd/po Box 371","Hobe Sound",Florida,33455,772-546-4488
1328,"2513 Us Hwy 19",Holiday,Florida,34691,727-937-5193
16314,"3251 Hollywood Blvd #300",Hollywood,Florida,33021,
2732,"901 N. Federal Hwy.",Hollywood,Florida,33020,954-342-4994
327,"6665 Taft St",Hollywood,Florida,33024,954-981-0300
3982,"4599 Sheridan St.",Hollywood,Florida,33021,954-961-7520
4222,"4400 Hollywood Blvd",Hollywood,Florida,33021,954-987-8000
5117,"900 South Sr 7",Hollywood,Florida,33023,954-962-2005
5142,"3400 Hollywood Blvd",Hollywood,Florida,33021,954-987-5901
5966,"1600 S. Federal Hwy",Hollywood,Florida,33020,954-921-7747
3953,"611 Manatee Ave","Holmes Beach",Florida,34217,941-778-1411
10724,"2614 Ne 10 Court",Homestead,Florida,33033,305-242-0377
113,"2780 Ne 8th St.",Homestead,Florida,33033,305-245-4992
1136,"909 N Homestead Blvd",Homestead,Florida,33030,305-248-5211
5118,"28740 S Dixie Hwy",Homestead,Florida,33033,305-248-1761
8000,"24799 Sw 112th Ave.",Homestead,Florida,33032,305-257-3233
3370,"3959 S Suncoast Blvd",Homosassa,Florida,34448,352-628-2479
1316,"13839 Little Rd.",Hudson,Florida,34667,727-868-9420
3583,"12015 Little Rd",Hudson,Florida,34667,727-862-3573
3248,"1102 N 15th St",Immokalee,Florida,34142,239-657-3188
3151,"100 N Miramar Ave",Indialantic,Florida,32903,321-724-5634
3653,"353 Gulf Blvd","Indian Rocks Beach",Florida,33785,727-596-7500
3663,"1141 Highway 20",Interlachen,Florida,32148,386-684-4991
3171,"602 W Main St",Inverness,Florida,34450,352-726-9030
3788,"82894 Overseas Hwy.,",Islamorada,Florida,33036,305-664-2576
8377,"120 St. Johns Commons Rd",Jacksonville,Florida,32259,904-824-9177
16195,"9041 Southside Blvd",Jacksonville,Florida,32256,
3957,"13170 Atlantic Blvd. Suite #47",Jacksonville,Florida,32225,904-221-0024
2669,"9962 Bay Meadows Rd., Corner Of Southside",Jacksonville,Florida,32256,904-641-4244
3118,"1190 Dunn Ave",Jacksonville,Florida,32218,904-751-4346
1077,"6005 St. Augustine Road",Jacksonville,Florida,32217,904-733-7600
5190,"430 Sr 13",Jacksonville,Florida,32259,904-287-6369
17090,"4567 River City Dr",Jacksonville,Florida,32246,
3445,"11264 Beach Blvd",Jacksonville,Florida,32246,904-641-5411
3685,"7790 Blanding Blvd",Jacksonville,Florida,32244,904-771-0571
7129,"9509 San Jose Blvd.",Jacksonville,Florida,32257,904-288-7865
16643,"10490 San Jose Blvd",Jacksonville,Florida,32257,
727,"5407 Blanding Blvd.,",Jacksonville,Florida,32244,904-772-8884
4415,"50 Duval Station Rd.",Jacksonville,Florida,32218,904-751-4600
3923,"11060 Old St Augustine Rd",Jacksonville,Florida,32257,904-268-7751
3648,"3634 Rogero Rd",Jacksonville,Florida,32277,904-744-8414
6456,"8325 Baymeadows Rd.",Jacksonville,Florida,32256,904-733-6254
16177,"444 Monument Rd",Jacksonville,Florida,32225,
5004,"5634 Merrill Rd.",Jacksonville,Florida,32277,904-743-0109
850,"5999 Normandy Blvd",Jacksonville,Florida,32205,904-786-2148
1114,"4475 San Juan Ave.",Jacksonville,Florida,32210,904-389-0314
8902,"4893 Town Center Parkway",Jacksonville,Florida,32246,904-642-2442
6801,"5972 University Blvd., West",Jacksonville,Florida,32216,904-419-5670
17309,"9525 Crosshill Blvd",Jacksonville,Florida,32222,
16973,"6331 Roosevelt Blvd",Jacksonville,Florida,32244,
3658,"11900 Mccormick Rd.",Jacksonville,Florida,32225,904-642-7460
5254,"4280 Southside Blvd",Jacksonville,Florida,32216,904-998-3677
2856,"9100 Atlantic Blvd",Jacksonville,Florida,32211,904-725-4155
3106,"1625 Fouraker Road, Corner Of Normandy And Fouraker Road",Jacksonville,Florida,32221,904-781-0738
5006,"7431 Atlantic Blvd.",Jacksonville,Florida,32211,904-722-2151
17039,"13740 Beach Blvd",Jacksonville,Florida,32224,
16375,"490 Marsh Landing Pkwy","Jacksonville Beach",Florida,32250,
1811,"1504 S 3rd St","Jacksonville Beach",Florida,32250,904-246-7596
5169,"100 Se 2nd Ave",Jasper,Florida,32052,386-792-2551
3289,"1255 Ne Jensen Beach Blvd","Jensen Beach",Florida,34957,772-334-4204
5119,"4232 Ne Ocean Blvd","Jensen Beach",Florida,34957,772-225-9800
5227,"14355 W Newberry Rd",Jonesville,Florida,32669,352-331-4639
5109,"14000 Us Hwy 1","Juno Beach",Florida,33408,561-622-9414
10504,"4191 W Indiantown Rd.",Jupiter,Florida,33478,561-575-1250
3437,"575 W Indiantown Rd",Jupiter,Florida,33458,561-746-8212
5238,"4100 Military Trl",Jupiter,Florida,33458,561-691-9149
3236,"726 Crandon Boulevard, Corner Of Wood Drive Street","Key Biscayne",Florida,33149,305-365-4622
1103,"99434 Overseas Hwy","Key Largo",Florida,33037,305-451-3261
4627,"120 West Walker Dr.","Keystone Heights",Florida,32656,352-473-7122
10169,"500 Duval Street","Key West",Florida,33040,305-296-4251
1274,"2790 N Roosevelt Blvd","Key West",Florida,33040,305-294-6693
3779,"530 Truman Ave","Key West",Florida,33040,305-294-2576
8368,"101 Duval St.","Key West",Florida,33040,305-294-6337
10877,"7615 West Irlo Bronson Mem Hwy",Kissimmee,Florida,34747,407-606-0074
17036,"4795 W Irlo Bronson Memorial Hwy",Kissimmee,Florida,34746,
17434,"3200 Rolling Oaks Blvd",Kissimmee,Florida,34747,
2761,"5308 W. Irlo Bronson Memorial Hwy",Kissimmee,Florida,34746,407-390-9431
3423,"1300 E Vine St",Kissimmee,Florida,34744,407-846-7858
4128,"3250 N. John Young Pkwy., The Loop",Kissimmee,Florida,34741,407-933-0947
476,"2454 E. Irlo Bronson Memorial Hwy",Kissimmee,Florida,34744,407-343-8358
4806,"1999 Osceola Pkwy",Kissimmee,Florida,34743,407-344-3000
5040,"3300 S Orange Blossom Trl",Kissimmee,Florida,34746,407-944-0072
508,"1205 W Vine St",Kissimmee,Florida,34741,407-847-5174
5747,"6085 W. Irlo Bronson Memorial Hwy",Kissimmee,Florida,34747,321-677-0349
7973,"4500 Pleasant Hill Rd.,",Kissimmee,Florida,34746,407-944-9030
5120,"860 Avenida Central","Lady Lake",Florida,32159,352-750-1118
5172,"900 East Main St.","Lake Butler",Florida,32054,386-496-1685
1817,"2233 Us Highway 90 West","Lake City",Florida,32055,386-752-8090
4357,"283 Sw Baya Dr","Lake City",Florida,32025,386-755-2770
163,"1635 Bartow Rd",Lakeland,Florida,33801,863-686-5161
16642,"3570 Harden Blvd",Lakeland,Florida,33803,
16979,"4005 Highway 98 N",Lakeland,Florida,33809,
304,"101 N. Wabash Ave.",Lakeland,Florida,33815,863-686-3131
3204,"5010 S Florida Ave",Lakeland,Florida,33813,863-644-2411
3399,"6105 Us Hwy 98 N",Lakeland,Florida,33809,863-858-4441
3632,"5391 N Socrum Loop Rd",Lakeland,Florida,33809,863-858-6001
4801,"6170 Lakeland Highlands Rd",Lakeland,Florida,33813,863-619-6409
5122,"2536 Us Highway 92 East",Lakeland,Florida,33801,863-665-3171
16289,"4155 W Lake Mary Blvd","Lake Mary",Florida,32746,
3270,"924 Rinehart Rd.","Lake Mary",Florida,32746,407-805-9702
17058,"500 N Congress Ave","Lake Park",Florida,33403,
3130,"5 S Us Hwy 27","Lake Placid",Florida,33852,863-465-4810
411,"500 S 11th St","Lake Wales",Florida,33853,863-676-2564
17153,"5900 State Rd 7","Lake Worth",Florida,33449,
2303,"7534 Lake Worth Rd","Lake Worth",Florida,33467,561-964-1363
3222,"4511 Lantana Rd","Lake Worth",Florida,33463,561-965-6444
3642,"7030 Jog Rd","Lake Worth",Florida,33467,561-967-3311
3964,"101 N Dixie Hwy","Lake Worth",Florida,33460,561-547-5289
7891,"8954 Lantana Rd, Corner Of Lyons Road","Lake Worth",Florida,33467,561-434-4776
8367,"9940 Lake Worth Rd","Lake Worth",Florida,33467,561-357-8996
16182,"10500 Ulmerton Rd",Largo,Florida,33771,
188,"13998 Walsingham Rd, Corner Of Oakhurst",Largo,Florida,33774,727-595-2521
3157,"2390 E Bay Dr",Largo,Florida,33771,727-585-4774
3463,"8905 Bryan Dairy Rd",Largo,Florida,33777,727-393-7542
4083,"51 Missouri Ave., North",Largo,Florida,33770,727-518-2951
5192,"2390 Belcher Road",Largo,Florida,33771,727-533-0731
1302,"5501 W. Oakland Park Blvd., Intersection Of Rock Island Road",Lauderhill,Florida,33313,954-735-4628
2805,"6980 W. Commercial Blvd.",Lauderhill,Florida,33319,954-741-3469
3273,"5555 N University Dr",Lauderhill,Florida,33351,954-742-2506
605,"1235 N 14th St",Leesburg,Florida,34748,352-787-7800
1807,"1350 Lee Blvd","Lehigh Acres",Florida,33936,239-369-2163
367,"3580 N Federal Hwy","Lighthouse Point",Florida,33064,954-943-3244
5171,"1005 S. Ohio Ave","Live Oak",Florida,32064,386-362-5183
3267,"505 Bay Isles Pkwy, Avenue Of The Flowers Plaza","Longboat Key",Florida,34228,941-383-2475
3251,"130 E State Rd 434",Longwood,Florida,32750,407-332-8384
3602,"3905 Wekiva Springs Rd",Longwood,Florida,32779,407-862-8086
17201,"1040 Dale Mabry Hwy",Lutz,Florida,33548,
1771,"2322 Land O Lakes Blvd",Lutz,Florida,33549,813-949-3641
3667,"1317 Ohio Ave","Lynn Haven",Florida,32444,850-265-5640
7980,"121 W. Macclenny Ave.",Macclenny,Florida,32063,904-259-6380
2997,"15129 Madeira Way","Madeira Beach",Florida,33708,727-397-5535
4062,"407 E. Base St.",Madison,Florida,32340,850-973-3019
3371,"676 Bald Eagle Dr","Marco Island",Florida,34145,239-394-4181
2758,"255 S. State Rd. #7",Margate,Florida,33068,954-935-1291
440,"1200 North State Road 7",Margate,Florida,33063,954-972-3555
3245,"4684 Highway 90",Marianna,Florida,32446,850-526-3784
16224,"250 E Miracle Strip Pkwy","Mary Esther",Florida,32569,
3003,"71 Mary Esther Blvd","Mary Esther",Florida,32569,850-301-0677
17052,"8455 N Wickham Rd",Melbourne,Florida,32940,
4686,"5590 North Wickham Rd.",Melbourne,Florida,32940,321-751-0090
4998,"3050 N. Wickham Rd.",Melbourne,Florida,32935,321-751-7524
4999,"7975 N. Wickham Rd.",Melbourne,Florida,32940,321-751-7534
5439,"15 E. New Haven Avenue",Melbourne,Florida,32901,321-409-3941
573,"1800 N Wickham Rd",Melbourne,Florida,32935,321-259-2333
16210,"2750 W New Haven Ave","Melbourne Village",Florida,32904,
16438,"250 Crockett Blvd","Merritt Island",Florida,32953,
3640,"11 E Merritt Island Cswy","Merritt Island",Florida,32952,321-453-2540
5177,"1345 North Courtenay Pkwy.","Merritt Island",Florida,32953,321-449-8641
5147,"227 Sw 8th St",Miami,Florida,33130,305-858-5115
3121,"10660 Sw 40 St.",Miami,Florida,33165,305-221-1356
591,"8695 Coral Way",Miami,Florida,33155,305-264-4811
3315,"9720 Sw 8th St.",Miami,Florida,33174,305-221-0353
554,"690 Nw 57th Ave.",Miami,Florida,33126,305-264-3485
10132,"1201 Brickell Ave",Miami,Florida,33131,305-358-7577
4249,"11890 Biscayne Blvd",Miami,Florida,33181,305-892-9422
10697,"3949 Sw 8th Street",Miami,Florida,33134,305-476-1939
10696,"5252 West Flagler St.",Miami,Florida,33134,305-442-9946
10732,"14663 Sw 104 Street",Miami,Florida,33186,305-387-2156
10699,"8740 Bird Road",Miami,Florida,33165,305-221-8337
3956,"8900 Sw 97th Ave",Miami,Florida,33176,305-598-9021
10731,"1990 Nw 49 Ave.",Miami,Florida,33122,305-526-7874
10698,"1243 Sw 8th Street",Miami,Florida,33135,305-285-7132
7131,"12650 Sw 88th St.",Miami,Florida,33186,305-274-2223
5197,"14705 Sw 42nd St",Miami,Florida,33185,305-220-0632
5154,"2599 Sw 147th Ave.",Miami,Florida,33185,305-207-3868
5233,"650 Nw 27th Ave",Miami,Florida,33125,305-631-0874
6002,"7199 Sw 117th Avenue",Miami,Florida,33183,305-273-0600
3372,"13896 Sw 56th St",Miami,Florida,33175,305-387-2415
3250,"13675 Sw 88th Street",Miami,Florida,33186,305-385-1035
3649,"1549 Sw 107th Ave",Miami,Florida,33174,305-220-0147
10701,"10044 West Flagler Street",Miami,Florida,33174,786-353-0088
3327,"3695 W Flagler St",Miami,Florida,33135,305-643-9304
564,"2500 Sw 22nd St",Miami,Florida,33145,305-285-8935
10702,"10720 Sw 72 Street",Miami,Florida,33173,305-271-9909
10705,"15000 Sw 72 Street",Miami,Florida,33193,305-387-1300
3401,"12955 Sw 112th St",Miami,Florida,33186,305-382-4161
10704,"12000 Sw 8th Street",Miami,Florida,33184,305-225-8900
567,"591 Ne 79th St.",Miami,Florida,33138,305-758-1742
10707,"14491 Sw 42 Street",Miami,Florida,33175,305-514-0299
402,"170 Se 3rd Ave",Miami,Florida,33131,305-374-1140
3443,"5695 Sw 8th Street",Miami,Florida,33134,305-266-5526
10706,"14665 Sw 104 Street",Miami,Florida,33186,786-338-9884
5786,"16550 Ne 6th Ave, North",Miami,Florida,33162,305-940-6172
3764,"20345 Old Cutler Rd",Miami,Florida,33189,305-232-9130
3608,"850 Ives Dairy Road, Unit T-8, California Club Mall",Miami,Florida,33179,305-652-0640
4613,"200 Biscayne Blvd",Miami,Florida,33132,786-838-0316
17268,"3401 N Miami Ave Ste 100",Miami,Florida,33127,
17665,"10101 W Flagler St",Miami,Florida,33174,
5243,"8831 S W 136th St",Miami,Florida,33176,305-233-0296
16455,"20500 Sw 112th Ave",Miami,Florida,33189,
16376,"7795 Sw 40th St",Miami,Florida,33155,
17661,"7800 Sw 104th St",Miami,Florida,33156,
3737,"13830 Sw 8th St",Miami,Florida,33184,305-554-1121
10711,"16801 Nw 67 Ave",Miami,Florida,33015,305-362-8255
3610,"15700 Sw 88th St",Miami,Florida,33196,305-385-2570
10715,"11865-a Sw 26th Street",Miami,Florida,33175,305-220-1378
10717,"1601 West Flagler Street",Miami,Florida,33135,305-649-3643
976,"1177 Sw 8th St.",Miami,Florida,33130,305-285-6861
932,"12701 Sw 42nd Street",Miami,Florida,33175,305-553-2767
3655,"10201 Hammocks Blvd #112",Miami,Florida,33196,305-386-8381
10111,"5748 Sw 40th St.",Miami,Florida,33155,305-661-5650
10632,"888 Biscayne Blvd, Suite #cu3a",Miami,Florida,33132,305-372-8144
5133,"555 Washington Avenue",Miami,Florida,33139,305-673-4149
8369,"10761 West Flagler St",Miami,Florida,33174,305-223-3405
3672,"13749 Sw 152nd St",Miami,Florida,33177,305-255-2893
5136,"11398 Quail Roost Dr.",Miami,Florida,33157,305-253-3355
580,"4800 Biscayne Blvd",Miami,Florida,33137,305-576-4347
1127,"6780 S W 40th St",Miami,Florida,33155,305-667-1119
10725,"14055 Sw 88 Street",Miami,Florida,33186,305-380-1343
1126,"2713 Sw 8th St.",Miami,Florida,33135,305-642-3070
2379,"12180 Sw 8th St.",Miami,Florida,33184,305-554-4464
588,"4801 Sw 8th St",Miami,Florida,33134,305-446-4641
10726,"3105 Nw 7 Street",Miami,Florida,33125,305-649-9364
5126,"11221 Sw 152nd St",Miami,Florida,33157,305-251-5033
866,"9031 Sw 107th Ave",Miami,Florida,33176,305-274-6776
6732,"8720 W. Flagler St.",Miami,Florida,33174,305-220-1121
16424,"8350 S Dixie Hwy",Miami,Florida,33143,
5129,"7551 Sw 88th St Ste 1080",Miami,Florida,33156,305-661-7904
16225,"15005 Sw 88th St",Miami,Florida,33196,
10644,"9701 Sw 72nd St.",Miami,Florida,33173,305-273-1247
10721,"9686 Sw 24th Street",Miami,Florida,33165,305-424-9026
10720,"13796 Sw 152nd Street",Miami,Florida,33177,305-235-4368
10709,"631 71 Street","Miami Beach",Florida,33141,786-259-0496
10809,"983 Washington Ave.","Miami Beach",Florida,33139,786-276-6127
10878,"4000 Collins Ave , Suite C","Miami Beach",Florida,33140,305-341-3639
10969,"728 Ocean Dr","Miami Beach",Florida,33139,305-535-3970
11222,"2000 Collins Avenue","Miami Beach",Florida,33139,786-804-6260
17753,"1045 5th St, Suite 201","Miami Beach",Florida,33139,305-421-9598
2893,"4040 Prairie Ave.","Miami Beach",Florida,33140,305-532-6189
3704,"1421 Alton Rd","Miami Beach",Florida,33139,305-538-1571
3706,"7400 Collins Ave","Miami Beach",Florida,33141,305-865-8690
5010,"306 Lincoln Road","Miami Beach",Florida,33139,305-531-7311
17275,"5601 Nw 183rd St","Miami Gardens",Florida,33055,
2895,"19800 Nw 2nd Ave.","Miami Gardens",Florida,33169,305-493-5293
5145,"4700 Nw 183rd St","Miami Gardens",Florida,33055,305-620-6055
5897,"3700 Nw 199th St.","Miami Gardens",Florida,33055,305-430-9170
10718,"6410 Nw 186 Street","Miami Lakes",Florida,33015,305-821-8424
1277,"6690 Eagle Nest Ln","Miami Lakes",Florida,33014,305-821-1402
2897,"15395 Nw 82nd Ave.","Miami Lakes",Florida,33016,305-364-1143
4344,"2672 Blanding Blvd",Middleburg,Florida,32068,904-282-3828
4449,"6501 Caroline St",Milton,Florida,32570,850-623-0133
3384,"814 N. Hwy 27",Minneola,Florida,34715,352-242-1251
1081,"6890 Miramar Pkwy",Miramar,Florida,33023,954-961-5677
16842,"16901 Miramar Pkwy",Miramar,Florida,33027,
5182,"8901 Miramar Pkwy",Miramar,Florida,33025,954-442-3914
7887,"12401 Miramar Pkwy.",Miramar,Florida,33027,954-538-8473
8378,"16001 Miramar Pkwy",Miramar,Florida,33027,954-435-3935
3684,"130 Scenic Gulf Drive","Miramar Beach",Florida,32550,850-837-3999
7113,"60 S. Holiday Rd.","Miramar Beach",Florida,32550,850-269-7780
4099,"1390 S. Jefferson St.",Monticello,Florida,32344,850-997-4108
17150,"17450 Us Highway 441","Mount Dora",Florida,32757,
497,"17021 Us Hwy 441","Mount Dora",Florida,32757,352-357-6904
5452,"18915 Us Hwy 441","Mount Dora",Florida,32757,352-735-0768
5041,"5585 Golden Gate Pkwy",Naples,Florida,34116,239-353-8770
5187,"2375 Vanderbilt Beach Rd",Naples,Florida,34109,239-596-4577
8397,"7380 Davis Blvd",Naples,Florida,34104,239-417-1778
5375,"14240 Tamiami Trail North",Naples,Florida,34110,239-254-0286
16331,"2324 Pine Ridge Rd",Naples,Florida,34109,
3266,"4890 Tamiami Tr, Corner Of Rattlesnake And Us 41",Naples,Florida,34112,239-775-5450
17151,"2415 Tarpon Bay Blvd",Naples,Florida,34119,
4738,"13400 Immokalee Rd.",Naples,Florida,34120,239-213-0306
712,"294 9th St S",Naples,Florida,34102,239-261-8610
7899,"6800 Collier Blvd,",Naples,Florida,34114,239-417-6647
1816,"5296 Tamiami Trl N",Naples,Florida,34103,239-261-6444
3677,"2344 Immokalee Rd",Naples,Florida,34110,239-597-1600
4227,"8863-h Tamiami Trl North",Naples,Florida,34108,239-597-8129
4228,"5070 Airport Rd N",Naples,Florida,34105,239-435-0007
8927,"8831 Immokalee Rd.",Naples,Florida,34120,239-304-2360
5824,"2515 Shadowlawn Dr.",Naples,Florida,34112,239-793-0232
5248,"8422 Navarre Pkwy",Navarre,Florida,32566,850-936-1445
3229,"414 Atlantic Blvd","Neptune Beach",Florida,32266,904-241-2461
306,"5432 Us Hwy 19 N","New Port Richey",Florida,34652,727-843-8645
3260,"7325 State Road 54","New Port Richey",Florida,34653,727-376-7415
3703,"10925 Sr 54","New Port Richey",Florida,34655,727-372-9030
4226,"7071 Mitchell Blvd.","New Port Richey",Florida,34655,727-376-8181
5146,"3511 Us Hwy 19","New Port Richey",Florida,34652,727-841-8205
8371,"11500 Ridge Rd","New Port Richey",Florida,34654,727-856-1334
3115,"615 E 3rd Ave","New Smyrna Beach",Florida,32169,386-427-5244
4612,"4562 Hwy 20 E",Niceville,Florida,32578,850-897-8550
5178,"1096 John Sims Parkway",Niceville,Florida,32578,850-678-1257
3318,"1111 N Tamiami Trl",Nokomis,Florida,34275,941-484-8406
3622,"4100 Hancock Bridge Pkwy","North Fort Myers",Florida,33903,239-997-3733
453,"15050 N Cleveland Ave","North Fort Myers",Florida,33903,239-995-5461
9996,"6391 Bayshore Rd.","North Fort Myers",Florida,33917,239-543-5312
10723,"13250 Biscayne Blvd","North Miami",Florida,33181,305-974-1186
5125,"735 Nw 119th St","North Miami",Florida,33168,305-688-4663
628,"600 Ne 128th St","North Miami",Florida,33161,305-893-0560
16423,"14075 Biscayne Blvd","North Miami Beach",Florida,33181,
637,"1825 Ne 185th St","North Miami Beach",Florida,33179,305-932-5740
5080,"312 Northlake Blvd, Corner Of Us 1","North Palm Beach",Florida,33408,561-845-2186
3258,"14998 S. Tamiami Trail","North Port",Florida,34287,941-426-1144
5250,"3090 W Oakland Park Blvd","Oakland Park",Florida,33311,954-717-1848
16310,"2000 Sw College Rd",Ocala,Florida,34471,
1813,"2449 E Silver Springs Blvd",Ocala,Florida,34470,352-401-9492
3278,"3501 N. Pine Ave., Highway 441",Ocala,Florida,34475,352-622-3083
3636,"1719 Selake Weir Ave",Ocala,Florida,34471,352-629-8745
3661,"2401 Sw 27th Ave.",Ocala,Florida,34471,352-237-6206
4146,"1720 West Highway 326",Ocala,Florida,34475,352-351-5888
5231,"7563 Se Maricamp Rd",Ocala,Florida,34472,352-687-4242
5921,"10255 Sw 86 Circle",Ocala,Florida,34481,352-873-6093
8382,"6042 Sw Hwy 200",Ocala,Florida,34476,352-873-0984
4238,"1612 E Silver Star Rd",Ocoee,Florida,34761,407-294-7124
11236,"15996 Preserve Marketplace Blvd",Odessa,Florida,33556,813-749-5020
3237,"106 N Parrott Ave",Okeechobee,Florida,34972,863-763-3169
3579,"3771 Tampa Rd",Oldsmar,Florida,34677,813-855-5781
16311,"2575 Enterprise Rd","Orange City",Florida,32763,
3114,"2400 Enterprise Rd.","Orange City",Florida,32763,386-775-7770
3254,"1952 Park Ave","Orange Park",Florida,32073,904-264-0202
3486,"906 Blanding Blvd","Orange Park",Florida,32065,904-213-4444
5189,"1551 County Rd 220","Orange Park",Florida,32003,904-215-1056
4491,"9306 Narcoossee Rd.",Orlando,Florida,32827,407-438-6898
4497,"8981 Conroy Windermere Rd",Orlando,Florida,32835,407-876-8555
17440,"120 W Grant St",Orlando,Florida,32806,
190,"3212 Curry Ford Rd",Orlando,Florida,32806,407-898-5331
5852,"13454 S. Orange Blossom Tr.",Orlando,Florida,32837,407-240-3191
5214,"12280 Lake Underhill Rd",Orlando,Florida,32825,407-273-3284
5853,"13960 Landstar Blvd.",Orlando,Florida,32824,407-438-6850
5216,"2702 S Orange Ave",Orlando,Florida,32806,407-254-5074
2829,"3502 Edgewater Dr.",Orlando,Florida,32804,407-245-1001
4645,"2351 S Hiawassee Rd",Orlando,Florida,32835,407-294-4009
2904,"6354 N. Orange Blossom Trail, Clarcona Ocoee Road",Orlando,Florida,32810,407-290-0366
5218,"7665 W Colonial Dr",Orlando,Florida,32818,407-299-1104
16913,"2155 Town Center Blvd",Orlando,Florida,32837,
5152,"4974 North Alafaya Trl",Orlando,Florida,32826,407-382-5583
5077,"5300 S John Young Pkwy",Orlando,Florida,32839,407-370-2522
5155,"9975 Lake Underhill Rd",Orlando,Florida,32825,407-207-7944
3132,"10952 E Colonial Dr",Orlando,Florida,32817,407-277-8781
3492,"4315 Curry Ford Rd.",Orlando,Florida,32806,407-896-0552
521,"2201 Edgewater Dr",Orlando,Florida,32804,407-425-8623
204,"5899 Orange Blossom Trl",Orlando,Florida,32839,407-855-8426
7921,"4801 New Broad St.",Orlando,Florida,32814,407-894-5263
16886,"325 N Alafaya Trl",Orlando,Florida,32828,
7889,"8025 Lee Vista Blvd",Orlando,Florida,32829,407-275-6366
16848,"4750 Millenia Plaza Way",Orlando,Florida,32839,
5901,"7001 Old Winter Garden Rd.",Orlando,Florida,32835,407-253-2917
4614,"7451 E Colonial Dr",Orlando,Florida,32807,407-281-1876
3921,"12077 South Orange Blossom Trail",Orlando,Florida,32837,407-240-2474
3966,"8242 World Center Dr",Orlando,Florida,32821,407-239-1442
16179,"718 Maguire Blvd",Orlando,Florida,32803,
6972,"13000 Tanja King Blvd.",Orlando,Florida,32828,407-273-7618
5400,"6790 Central Florida Parkway",Orlando,Florida,32821,407-238-4726
3145,"5886 Conroy Rd.",Orlando,Florida,32835,407-299-8020
3141,"5190 S Conway Rd",Orlando,Florida,32812,407-851-2140
2291,"6217 Silver Star Rd",Orlando,Florida,32808,407-298-0303
1314,"1201 E Colonial Dr",Orlando,Florida,32803,407-894-1521
10639,"9188 International Dr.",Orlando,Florida,32819,407-345-8038
3696,"8001 S. Orange Blossom Trail, #736",Orlando,Florida,32809,407-857-5675
2806,"7996 Conroy Windermere Rd., Corner Of Drive Phillips",Orlando,Florida,32835,407-291-7170
4108,"7599 W Sand Lake Rd",Orlando,Florida,32819,407-352-1177
17789,"11619 Daryl Carter Parkway",Orlando,Florida,32821,407-550-9716
7991,"13300 E. Colonial Dr.",Orlando,Florida,32826,407-243-5277
3671,"10701 International Drive",Orlando,Florida,32821,407-355-0929
3351,"7300 Curry Ford Rd.",Orlando,Florida,32822,407-282-6090
16180,"880 Sand Lake Rd",Orlando,Florida,32809,
3227,"795 W. Granada Blvd.","Ormond Beach",Florida,32174,386-672-7227
501,"250 E Granada Blvd","Ormond Beach",Florida,32176,386-672-2041
3126,"1220 S Tamiami Trail",Osprey,Florida,34229,941-966-5667
16329,"820 Oviedo Mall Blvd",Oviedo,Florida,32765,
5150,"1030 Lockwood Blvd",Oviedo,Florida,32765,407-366-1717
5163,"8315 Red Bug Lake Rd",Oviedo,Florida,32765,407-977-5613
17353,"4727 Hwy 90",Pace,Florida,32571,
5249,"3888 Hwy 90",Pace,Florida,32571,850-994-2229
4422,"201 South Sr 19",Palatka,Florida,32177,386-325-7576
3294,"1599 Palm Bay Rd Ne","Palm Bay",Florida,32905,321-725-9961
4219,"1101 Ne Malabar Rd","Palm Bay",Florida,32907,321-984-5477
5230,"399 Emerson Dr Nw","Palm Bay",Florida,32907,321-733-5103
3269,"4465 Northlake Blvd","Palm Beach Gardens",Florida,33410,561-622-6803
3854,"11000 N. Military Trail","Palm Beach Gardens",Florida,33410,561-626-7542
3866,"11586 Us Hwy 1","Palm Beach Gardens",Florida,33408,561-622-0702
4989,"4500 Donald Ross Rd.,","Palm Beach Gardens",Florida,33418,561-624-3799
5141,"2480 Pga Blvd","Palm Beach Gardens",Florida,33410,561-622-8700
4231,"2854 Sw Martin Downs Blvd","Palm City",Florida,34990,772-287-3821
17428,"5100 E Hwy 100","Palm Coast",Florida,32164,
3249,"1 Old Kings Road South","Palm Coast",Florida,32137,386-445-1405
8383,"5151 Belle Terre Pkwy","Palm Coast",Florida,32137,386-446-9449
3111,"945 8th Ave W",Palmetto,Florida,34221,941-722-0529
3421,"14705 S Dixie Hwy","Palmetto Bay",Florida,33176,305-252-0595
16181,"900 E Lake Rd","Palm Harbor",Florida,34685,
2842,"975 Tampa Rd.","Palm Harbor",Florida,34683,727-772-8119
3927,"700 E Lake Rd","Palm Harbor",Florida,34685,727-785-6838
536,"3187 S Congress Ave","Palm Springs",Florida,33461,561-965-3367
16259,"2340 Highway 77","Panama City",Florida,32405,
4500,"302 N Tyndall Pkwy","Panama City",Florida,32404,850-871-5525
5183,"660 East Hwy 98","Panama City",Florida,32401,850-522-9014
5204,"955 W 23rd St","Panama City",Florida,32405,850-769-3366
711,"1347 W 15th St","Panama City",Florida,32401,850-747-1124
17286,"15555 Starfish St","Panama City Beach",Florida,32413,
3506,"7112 W Hwy 98","Panama City Beach",Florida,32407,850-236-9889
3550,"11801 Panama City Beach Pkwy.","Panama City Beach",Florida,32407,850-230-6023
3629,"17172 Front Beach Rd","Panama City Beach",Florida,32413,850-234-7874
6809,"23208 S.r. 30 (front Beach Hwy)","Panama City Beach",Florida,32413,850-230-1434
3652,"7621 North State Rd 7",Parkland,Florida,33073,954-341-3338
7937,"8700 Us Highway, 301 North",Parrish,Florida,34219,941-776-5039
1147,"70 N University Dr","Pembroke Pines",Florida,33024,954-432-5510
16344,"11253 Pines Blvd","Pembroke Pines",Florida,33026,
2828,"1701 N. University Dr.","Pembroke Pines",Florida,33024,954-322-7502
2849,"1698 South Palm Ave.","Pembroke Pines",Florida,33025,954-885-8457
3330,"2300 N Flamingo Rd","Pembroke Pines",Florida,33028,954-432-2391
3607,"11100 Pines Blvd","Pembroke Pines",Florida,33026,954-432-6804
4659,"17201 Pines Blvd","Pembroke Pines",Florida,33029,954-431-8830
16207,"4711 Bayou Blvd",Pensacola,Florida,32503,
16620,"1749 E Nine Mile Rd",Pensacola,Florida,32514,
17500,"2950 S Blue Angel Pkwy",Pensacola,Florida,32506,
3283,"6888 N 9th Ave",Pensacola,Florida,32504,850-476-0710
3675,"1 E Nine Mile Rd",Pensacola,Florida,32534,850-475-1000
4171,"1101 Scenic Highway",Pensacola,Florida,32503,850-438-0776
4177,"2100 West Cervantes",Pensacola,Florida,32505,850-438-1156
4430,"44 Gulf Beach Hwy",Pensacola,Florida,32507,850-455-1373
4458,"8100 N Davis Hwy",Pensacola,Florida,32514,850-477-2466
4461,"811 N Fairfield Dr",Pensacola,Florida,32506,850-453-3208
5158,"5301 N Palafox St",Pensacola,Florida,32505,850-432-7144
5175,"13430 Innerarity Point Rd",Pensacola,Florida,32507,850-492-3800
5179,"3880 N 9th Ave",Pensacola,Florida,32503,850-433-6794
5180,"6025 Mobile Hwy.",Pensacola,Florida,32526,850-458-9818
4472,"105 West Hampton Springs Ave",Perry,Florida,32347,850-584-5847
3984,"11299 S Dixie Hwy",Pinecrest,Florida,33156,305-235-4744
5124,"11721 S Dixie Hwy",Pinecrest,Florida,33156,305-235-7961
5924,"8765 S. Dixie Hwy.",Pinecrest,Florida,33156,305-740-6840
171,"7400 49th St N","Pinellas Park",Florida,33781,727-544-1491
17152,"7150 Us 19 N","Pinellas Park",Florida,33781,
2767,"7101 Park Blvd.","Pinellas Park",Florida,33781,727-544-1200
3606,"10195 66th St. N","Pinellas Park",Florida,33782,727-541-4681
16812,"8201 Federated West Roadway",Plantation,Florida,33324,
2747,"1802 N. University Dr.",Plantation,Florida,33322,954-473-8070
3263,"7155 W Broward Blvd",Plantation,Florida,33317,954-792-2800
5079,"10241 W Broward Blvd",Plantation,Florida,33324,954-236-0769
404,"2302 Jim Redman Pkwy","Plant City",Florida,33563,813-752-3139
5201,"403 N Alexander St","Plant City",Florida,33563,813-659-4687
2848,"2036 E. Atlantic Blvd.","Pompano Beach",Florida,33060,954-781-6876
3287,"850 W Sample Rd","Pompano Beach",Florida,33064,954-785-3250
3635,"1501 S Federal Hwy","Pompano Beach",Florida,33062,954-788-0739
3905,"3 S Pompano Pkwy","Pompano Beach",Florida,33069,954-971-4940
3631,"152 Front St.,","Ponte Vedra",Florida,32082,904-285-3634
16211,"1400a Tamiami Trl","Port Charlotte",Florida,33948,
3122,"2480 Tamiami Trl","Port Charlotte",Florida,33952,941-625-0023
4726,"24200 Veterans Blvd","Port Charlotte",Florida,33954,941-255-3030
5410,"4478 Tamiami Trail","Port Charlotte",Florida,33980,941-235-1120
16918,"1771 Dunlawton Ave","Port Orange",Florida,32127,
3271,"1001 Dunlawton Ave.","Port Orange",Florida,32127,386-788-1500
4112,"1816 Dunlawton Ave","Port Orange",Florida,32127,386-322-3919
5917,"3771 Clyde Morris Blvd.","Port Orange",Florida,32129,386-763-4850
3217,"11938 Us Hwy 19 North","Port Richey",Florida,34668,727-868-9408
5660,"7120 Ridge Rd.","Port Richey",Florida,34668,727-848-3442
5246,"110 Highway 98","Port Saint Joe",Florida,32456,850-229-8771
17323,"10720 Sw Village Pkwy","Port Saint Lucie",Florida,34987,
4041,"9801 Us Hwy 1","Port Saint Lucie",Florida,34952,772-337-2553
4254,"301 Ne Prima Vista Blvd","Port Saint Lucie",Florida,34983,772-340-3640
5157,"1300 Sw St Lucie Blvd","Port Saint Lucie",Florida,34986,772-878-7078
5902,"9197 S. Federal Hwy.","Port Saint Lucie",Florida,34952,772-335-4668
7923,"2873 Sw Port St. Lucie Blvd.","Port Saint Lucie",Florida,34953,772-344-1657
406,"2400 Tamiami Trl","Punta Gorda",Florida,33950,941-639-1144
3624,"1208 W. Jefferson St.",Quincy,Florida,32351,850-875-3021
17311,"10150 Bloomingdale Ave",Riverview,Florida,33578,
3638,"10623 Gibsonton Dr",Riverview,Florida,33578,813-677-4435
5784,"10013 Mcmullen Rd.",Riverview,Florida,33569,813-677-4551
7225,"5905 Us Hwy. 301 S.",Riverview,Florida,33578,813-740-8463
3666,"1820 Rockledge Blvd.",Rockledge,Florida,32955,321-639-3240
6014,"1696 S. Fiske Blvd.",Rockledge,Florida,32955,321-631-2939
3418,"1101 Royal Palm Beach Blvd.","Royal Palm Beach",Florida,33411,561-793-8937
5228,"10245 Okechobee Blvd","Royal Palm Beach",Florida,33411,561-792-0427
16638,"1440 Us Hwy 1 S","Saint Augustine",Florida,32084,
3198,"175 State Rd 312, Corner Of Old Moultrie Road","Saint Augustine",Florida,32086,904-824-6167
3591,"2703 N. Ponce Deleon Blvd.","Saint Augustine",Florida,32084,904-824-2838
4361,"1920 A1a South","Saint Augustine",Florida,32080,904-471-2010
5589,"46 East Watson Rd","Saint Augustine",Florida,32086,904-797-6774
652,"57 Tuscan Way","Saint Augustine",Florida,32092,904-940-3817
3139,"3555 13th St","Saint Cloud",Florida,34769,407-892-7161
4799,"2105 13th St., Intersection Of Vermont And 192","Saint Cloud",Florida,34769,407-892-3213
3274,"9852 Stringfellow Rd","Saint James City",Florida,33956,239-283-1037
7904,"2680 Race Track Rd.","Saint Johns",Florida,32259,904-230-6718
535,"4685 Gulf Blvd","Saint Pete Beach",Florida,33706,727-360-0818
149,"294 37th Ave N","Saint Petersburg",Florida,33704,727-896-3166
160,"4260 6th St S","Saint Petersburg",Florida,33705,727-896-3119
16411,"4450 Park St N","Saint Petersburg",Florida,33709,
16495,"8151 Dr Martin Luther King St N","Saint Petersburg",Florida,33702,
2759,"845 4th St. North","Saint Petersburg",Florida,33701,727-821-1172
2873,"2200 34th Street North, Corner Of 22nd Avenue North","Saint Petersburg",Florida,33713,727-328-7644
3466,"5400 4th St N","Saint Petersburg",Florida,33703,727-525-2184
3547,"2100 66th St N","Saint Petersburg",Florida,33710,727-345-3599
3654,"3501 54th Ave S","Saint Petersburg",Florida,33711,727-864-1546
3755,"5405 49th Street N","Saint Petersburg",Florida,33709,727-527-8285
4494,"5345 66th St N","Saint Petersburg",Florida,33709,727-548-5768
5234,"301 3rd St S","Saint Petersburg",Florida,33701,727-822-7115
5485,"5801 Central Ave.","Saint Petersburg",Florida,33710,727-343-8116
574,"8001 9th St N","Saint Petersburg",Florida,33702,727-577-6888
7944,"3426 Central Ave.","Saint Petersburg",Florida,33711,727-321-1257
17082,"1201 W P Ball Blvd",Sanford,Florida,32771,
219,"3798 Orlando Dr",Sanford,Florida,32773,407-322-9440
5195,"4639 W 1st St",Sanford,Florida,32771,407-688-0828
3441,"2331 Palm Ridge Rd",Sanibel,Florida,33957,239-472-1719
11382,"7190 University Parkway",Sarasota,Florida,34240,941-554-2599
16192,"8401 S Tamiami Trl",Sarasota,Florida,34238,
16250,"5350 Fruitville Rd",Sarasota,Florida,34232,
17127,"101 N Cattlemen Rd",Sarasota,Florida,34243,
1810,"2811 Clark Rd",Sarasota,Florida,34231,941-921-5781
1863,"3800 Tamiami Trl South",Sarasota,Florida,34239,941-955-3328
312,"2773 Fruitville Rd",Sarasota,Florida,34237,941-365-1464
319,"4301 Bee Ridge Rd",Sarasota,Florida,34233,941-371-6328
3532,"5361 Fruitville Rd",Sarasota,Florida,34232,941-378-4700
368,"3709 N Tamiami Trl",Sarasota,Florida,34234,941-355-4155
3958,"1231 Beneva Rd S",Sarasota,Florida,34232,941-365-4353
4632,"8546 S Tamiami Trl",Sarasota,Florida,34238,941-918-1514
5211,"5250 Clark Rd",Sarasota,Florida,34233,941-924-4106
7938,"3724 84th Ave., Circle East, Corner Of University Parkway And Tuttle Avenue",Sarasota,Florida,34243,941-360-6707
1318,"1596 Hwy A1a","Satellite Beach",Florida,32937,321-773-7611
3155,"2728 Us Hwy 27 S",Sebring,Florida,33870,863-385-2525
3257,"704 W Martin Luther King Jr Blvd",Seffner,Florida,33584,813-681-4431
3211,"7405 Starkey Rd",Seminole,Florida,33777,727-391-9728
3218,"10200 Seminole Blvd",Seminole,Florida,33778,727-395-0139
3753,"7850 131st Street North",Seminole,Florida,33776,727-398-4489
3395,"15843 E. Highway 40","Silver Springs",Florida,34488,352-625-6300
3241,"5795 Sunset Dr","South Miami",Florida,33143,305-666-1085
5198,"6460 S Dixie Hwy","South Miami",Florida,33143,305-661-0778
139,"6820 Gulfport Blvd S","South Pasadena",Florida,33707,727-345-9103
16343,"4401 Commercial Way","Spring Hill",Florida,34606,
3746,"11115 Spring Hill Dr","Spring Hill",Florida,34609,352-686-1336
8380,"2077 Commercial Way","Spring Hill",Florida,34606,352-688-3133
2188,"209 S Temple St",Starke,Florida,32091,904-964-7979
10122,"5610 Overseas Highway","Stock Island",Florida,33040,305-295-2858
16263,"2650 Nw Federal Hwy",Stuart,Florida,34994,
3196,"5561 Se Federal Hwy",Stuart,Florida,34997,772-283-6940
5137,"2284 Se Federal Hwy",Stuart,Florida,34994,772-287-4819
7935,"2651 Nw Federal Hwy",Stuart,Florida,34994,772-692-1285
5226,"17817 Se 109th Ave",Summerfield,Florida,34491,352-347-6616
5110,"105 S Pebble Beach Blvd.","Sun City Center",Florida,33573,813-633-8082
10708,"18500 Collins Ave","Sunny Isles Beach",Florida,33160,305-935-0322
10733,"18500 Collins Ave, Suite A","Sunny Isles Beach",Florida,33160,305-935-0386
3630,"16850 Collins Ave Unit #101","Sunny Isles Beach",Florida,33160,305-945-4712
8903,"18290 Collins Ave.","Sunny Isles Beach",Florida,33160,305-466-2230
16262,"12801 W Sunrise Blvd",Sunrise,Florida,33323,
5056,"11100 W Oakland Park Blvd",Sunrise,Florida,33351,954-749-1848
4182,"9578 Harding Ave",Surfside,Florida,33154,305-865-3298
10482,"822 West Pensacola Street",Tallahassee,Florida,32304,850-841-1049
1256,"1300 Apalachee Pkwy",Tallahassee,Florida,32301,850-877-5168
16288,"2120 Apalachee Pkwy",Tallahassee,Florida,32301,
17089,"3700 Bradfordville Rd",Tallahassee,Florida,32309,
3910,"3479 Thomasville Rd",Tallahassee,Florida,32309,850-893-0459
4024,"5466 Thomasville Rd N, Corner Of Kerry Forest Parkway",Tallahassee,Florida,32312,850-893-8116
4469,"1819 W Tennessee St",Tallahassee,Florida,32304,850-576-0147
4478,"3831 N Monroe St",Tallahassee,Florida,32303,850-536-0417
4639,"5670 N Monroe St.",Tallahassee,Florida,32303,850-562-9348
5025,"1875 Capital Cir Ne",Tallahassee,Florida,32308,850-216-2244
633,"3090 S Monroe St",Tallahassee,Florida,32301,850-877-4119
710,"1708 N Monroe St",Tallahassee,Florida,32303,850-385-6136
7895,"3035 Apalachee Pkwy.",Tallahassee,Florida,32301,850-402-4046
7958,"3644 Coolidge Court",Tallahassee,Florida,32311,850-219-6370
5919,"6900 N. University Dr.",Tamarac,Florida,33321,954-724-1808
5929,"10004 W. Mcnab Rd.",Tamarac,Florida,33321,954-718-5095
990,"3915 W Commercial Blvd",Tamarac,Florida,33309,954-733-2552
5783,"8603 West Hillsborough Ave, Corner Of Sheldon And Hillsborough Avenue",Tampa,Florida,33615,813-882-4029
17360,"11627 W Hillsborough Ave",Tampa,Florida,33635,
998,"4401 W Gandy Blvd.",Tampa,Florida,33611,813-837-8382
16436,"3625 W Gandy Blvd",Tampa,Florida,33611,
5815,"102 S. Dale Mabry Highway, Corner Of Kennedy",Tampa,Florida,33609,813-877-8227
5196,"11670 Countryway Blvd",Tampa,Florida,33626,813-818-0287
3650,"625 W. Dr. Martin Luther King Jr Blvd",Tampa,Florida,33603,813-232-2925
17132,"1544 N Dale Mabry Hwy",Tampa,Florida,33607,
2760,"2911 E. Fowler Ave., Corner Of 30 Th Street And Fowler",Tampa,Florida,33612,813-975-1998
4181,"220 E Madison St, North",Tampa,Florida,33602,813-228-0175
2875,"11212 N. Dale Mabry Highway",Tampa,Florida,33618,813-968-1457
16249,"6295 W Waters Ave",Tampa,Florida,33634,
3662,"5357 Ehrlich Rd",Tampa,Florida,33625,813-968-4003
3814,"4120 Henderson Blvd",Tampa,Florida,33629,813-281-5353
613,"9202 N Florida Ave",Tampa,Florida,33612,813-935-1134
6007,"6206 Commerce Palms Dr.",Tampa,Florida,33647,813-971-2459
538,"7351 W Hillsborough Ave",Tampa,Florida,33634,813-884-2506
3930,"611 S Howard Ave",Tampa,Florida,33606,813-259-9911
4701,"6701 N. Dale Mabry Hwy.",Tampa,Florida,33614,813-873-0472
3811,"2502 W Hillsborough Ave",Tampa,Florida,33614,813-877-5881
11367,"1120 E. Kennedy Blvd, Unit 126",Tampa,Florida,33602,813-496-6213
2802,"3102 W. Gandy Blvd.",Tampa,Florida,33611,813-902-1833
5251,"8809 New Tampa Blvd",Tampa,Florida,33647,813-632-8989
5253,"8801 W Linebaugh Ave",Tampa,Florida,33626,813-926-3756
4640,"15499 N Dale Mabry Hwy",Tampa,Florida,33618,813-264-6803
16183,"15240 N Dale Mabry Hwy",Tampa,Florida,33618,
2898,"813 W. Bearss Ave.",Tampa,Florida,33613,813-908-0360
5207,"2725 N Macdill Ave",Tampa,Florida,33607,813-873-0259
3628,"5632 Gunn Hwy",Tampa,Florida,33624,813-963-5355
709,"1000 East Tarpon Ave.","Tarpon Springs",Florida,34689,727-937-4203
4465,"550 W Burleigh Blvd",Tavares,Florida,32778,352-343-1502
3981,"91410 Overseas Hwy",Tavernier,Florida,33070,305-852-7940
5149,"5502 E Fowler Ave","Temple Terrace",Florida,33617,813-984-1560
579,"110 Bullard Pkwy","Temple Terrace",Florida,33617,813-988-5214
7886,"260 South Us Hwy 1",Tequesta,Florida,33469,561-743-3841
17147,"716 N Us Highway 441/27","The Villages",Florida,32159,
8381,"5208 E County Rd 466","The Villages",Florida,32162,352-751-4700
17343,"3055 Columbia Blvd",Titusville,Florida,32780,
3668,"5 Garden St",Titusville,Florida,32796,321-383-0311
5864,"1820 Cheney Highway",Titusville,Florida,32780,321-383-5420
17083,"2900 Little Rd",Trinity,Florida,34655,
5229,"5403 University Pkwy","University Park",Florida,34201,941-355-0456
3660,"2109 State Rd 60 E",Valrico,Florida,33594,813-684-0583
3664,"1010 Bloomingdale Ave, Corner Of Bell Shoals",Valrico,Florida,33596,813-684-0283
1120,"215 Jacaranda Blvd.",Venice,Florida,34292,941-485-8393
16261,"4271 Tamiami Trl S",Venice,Florida,34293,
3647,"4090 S Tamiami Trl",Venice,Florida,34293,941-493-6882
4266,"100 Us 41 Byp N",Venice,Florida,34285,941-484-8814
16435,"5800 20th St","Vero Beach",Florida,32966,
3216,"5825 20th St","Vero Beach",Florida,32966,772-569-3777
3429,"5052 N A1a","Vero Beach",Florida,32963,772-231-9330
5522,"2500 53rd St","Vero Beach",Florida,32967,772-564-6110
584,"1706 Us Hwy 1","Vero Beach",Florida,32960,772-567-7136
7883,"4215 Sw 9th St","Vero Beach",Florida,32968,772-564-8235
7894,"8495 Us Hwy 1","Vero Beach",Florida,32967,772-589-2822
2030,"301 S. 6th Ave.",Wauchula,Florida,33873,863-767-1195
3758,"9204 Cortez Blvd","Weeki Wachee",Florida,34613,352-596-1446
3601,"11878 Forest Hill Blvd",Wellington,Florida,33414,561-793-2126
4188,"800 South State Rd 7",Wellington,Florida,33414,561-791-2149
1527,"5606 Post Oak Blvd.","Wesley Chapel",Florida,33544,813-973-3786
16721,"1201 County Road 581","Wesley Chapel",Florida,33544,
4362,"30050 County Line Rd.","Wesley Chapel",Florida,33543,813-907-1423
8396,"1929 Bruce B. Downs Blvd.","Wesley Chapel",Florida,33544,813-991-1293
17571,"4305 Norfolk Pkwy","West Melbourne",Florida,32904,
10131,"2393 Sw 67th Ave.","West Miami",Florida,33155,305-264-0636
3609,"1120 Weston Rd",Weston,Florida,33326,954-384-7667
5083,"324 Indian Trace Rd",Weston,Florida,33326,954-349-9323
10973,"400 Clematis Street","West Palm Beach",Florida,33401,561-273-0022
17053,"10155 Okeechobee Blvd","West Palm Beach",Florida,33411,
17484,"1760 Palm Beach Lakes Blvd","West Palm Beach",Florida,33401,
3226,"5044 Forest Hill Blvd.","West Palm Beach",Florida,33415,561-967-9118
3400,"6800 S Dixie Hwy","West Palm Beach",Florida,33405,561-586-4054
3819,"6846 Okeechobee Blvd","West Palm Beach",Florida,33411,561-683-9196
3919,"2077 North Military Trail, Village Commons Plaza","West Palm Beach",Florida,33409,561-684-4626
5140,"818 Southern Blvd","West Palm Beach",Florida,33405,561-659-0523
583,"245 S Military Trl","West Palm Beach",Florida,33415,561-683-3042
8373,"1301 N Dixie Hwy","West Palm Beach",Florida,33401,561-366-1125
3144,"901 S Main St",Wildwood,Florida,34785,352-748-1414
5173,"435 E Noble Ave",Williston,Florida,32696,352-528-4146
5174,"1150 Ne 26th St","Wilton Manors",Florida,33305,954-566-7474
1350,"2831 Maguire Rd.",Windermere,Florida,34786,407-654-0568
17338,"3343 Daniels Rd","Winter Garden",Florida,34787,
1820,"13697 W. Colonial Dr.","Winter Garden",Florida,34787,407-656-8333
176,"970 Cypress Gardens Blvd., Southeast","Winter Haven",Florida,33880,863-294-3138
262,"400 6th St Nw","Winter Haven",Florida,33881,863-294-4493
3670,"7009 Cypress Gardens Blvd","Winter Haven",Florida,33884,863-324-5873
7917,"3005 Sr 540 West","Winter Haven",Florida,33880,863-293-0193
1261,"1510 Semoran Blvd","Winter Park",Florida,32792,407-657-7960
170,"839 N Orlando Ave","Winter Park",Florida,32789,407-647-1862
17125,"3770 N Goldenrod Rd","Winter Park",Florida,32792,
280,"2527 Aloma Ave.","Winter Park",Florida,32792,407-678-5151
5239,"7496 University Blvd","Winter Park",Florida,32792,407-657-6100
3490,"5650 Red Bug Lake Rd","Winter Springs",Florida,32708,407-699-0781
17237,"463737 State Rd 200",Yulee,Florida,32097,
3619,"36440 State Road 54",Zephyrhills,Florida,33541,813-782-9515
651,"37943 Eiland Blvd",Zephyrhills,Florida,33542,813-788-0224
7176,"34502 Sr 54",Zephyrhills,Florida,33541,813-782-1865
17179,"3378 Cobb Pkwy Nw",Acworth,Georgia,30101,
2105,"4595 Highway 92",Acworth,Georgia,30102,770-529-9712
7665,"3513 Baker Rd., Ste. 500",Acworth,Georgia,30101,770-917-0408
4560,"1509 Radium Springs",Albany,Georgia,31705,229-439-2248
4569,"609 N. Westover Blvd.",Albany,Georgia,31707,229-439-2554
16377,"6000 N Point Pkwy",Alpharetta,Georgia,30022,
2081,"8430 Holcomb Bridge Rd,",Alpharetta,Georgia,30022,770-640-6576
2185,"184 North Main Street",Alpharetta,Georgia,30009,678-297-1089
2309,"3020 Windward Plaza",Alpharetta,Georgia,30005,770-475-3638
2539,"5740 Atlanta Highway",Alpharetta,Georgia,30004,678-366-2350
4409,"9920 Jones Bridge Rd",Alpharetta,Georgia,30022,770-410-1755
4718,"11625 Jones Bridge Rd.",Alpharetta,Georgia,30005,770-752-4642
7772,"10710 State Bridge Rd",Alpharetta,Georgia,30022,770-346-8432
4672,"1036 E. Forsyth St.",Americus,Georgia,31709,229-924-6916
10865,"170 West Broad St.",Athens,Georgia,30601,706-546-7476
16785,"3065 Atlanta Hwy",Athens,Georgia,30606,
3678,"196 Alps Rd Suite #20-b",Athens,Georgia,30606,706-369-3490
3771,"395 North Ave",Athens,Georgia,30601,706-546-6627
3874,"3595 Atlanta Hwy",Athens,Georgia,30606,706-549-8985
4555,"4044 Lexington Rd",Athens,Georgia,30605,706-546-7903
5704,"795 Oglethorpe Ave.",Athens,Georgia,30606,706-549-6838
4178,"895 Ralph Abernathy Blvd., Sw",Atlanta,Georgia,30310,404-755-1511
17080,"1275 Caroline St Ne",Atlanta,Georgia,30307,
2943,"842 Peachtree Street, Ne",Atlanta,Georgia,30308,404-892-8468
4729,"6370 Powers Ferry Rd.",Atlanta,Georgia,30339,770-955-1812
5731,"3221 Peachtree Road Ne",Atlanta,Georgia,30305,404-869-3308
4720,"1554 N Decatur Road, Emory Village",Atlanta,Georgia,30307,404-373-4534
4723,"439 Highland Ave. Ne",Atlanta,Georgia,30312,404-230-9385
17129,"100 Perimeter Center Pl Ne",Atlanta,Georgia,30346,
3878,"680 Ponce De Leon Avenue Ne",Atlanta,Georgia,30308,404-892-1164
4604,"865 N Highland Ave Ne",Atlanta,Georgia,30306,404-733-6089
5395,"2237 Cascade Road Sw",Atlanta,Georgia,30311,404-756-5591
17251,"2539 Piedmont Rd Ne",Atlanta,Georgia,30324,
4661,"2555 Bolton Rd",Atlanta,Georgia,30318,404-355-8855
7336,"520 Boulevard Se",Atlanta,Georgia,30312,404-624-0022
2089,"4300 Paces Ferry Rd Se, Suite 170, Vinings Jubilee Shopping Center",Atlanta,Georgia,30339,770-433-9437
2086,"2014 Powers Ferry Rd. Nw, Suite #2086, Parkwood Circle Shopping Plaza",Atlanta,Georgia,30339,770-612-0958
2082,"1943 Peachtree Road, Ne, Across From Piedmont Hospital",Atlanta,Georgia,30309,404-351-4932
5621,"3030 Headland Dr.",Atlanta,Georgia,30311,404-346-1423
7689,"1520 Avenue Place, Suite B-100",Atlanta,Georgia,30329,404-639-5575
4537,"1610 Mt. Vernon Rd, Ste #100",Atlanta,Georgia,30338,770-671-2797
17220,"375 18th St Nw",Atlanta,Georgia,30363,
2526,"3615 Clairmont Road",Atlanta,Georgia,30319,404-320-6658
2569,"3637 Peachtree Road, Ne",Atlanta,Georgia,30319,404-926-3541
16818,"2400 N Druid Hills Rd Ne",Atlanta,Georgia,30329,
4147,"5815 Campbellton Rd.",Atlanta,Georgia,30331,404-346-4164
4665,"3401 Northside Pkwy Nw",Atlanta,Georgia,30327,404-261-7123
4747,"1544 Piedmont Ave Ne",Atlanta,Georgia,30324,404-892-0074
5376,"2910 Buford Hwy",Atlanta,Georgia,30329,404-325-2735
2186,"2350 Cheshire Bridge Road",Atlanta,Georgia,30324,404-486-7289
4717,"2429 Martin Luther King Jr. Dr.",Atlanta,Georgia,30311,404-691-3344
10043,"235 Peachtree St. Ne, Suite C24",Atlanta,Georgia,30303,404-577-4054
81,"1455 Moreland Ave.",Atlanta,Georgia,30316,404-622-1819
4513,"2830 N. Druid Hills Rd. Ne",Atlanta,Georgia,30329,404-679-4666
3646,"1685 Atlanta Hwy., Northwest",Auburn,Georgia,30011,770-682-7053
16468,"235 Robert C Daniel Jr Pkwy",Augusta,Georgia,30909,
3378,"1520 Walton Way",Augusta,Georgia,30904,706-724-0598
4119,"2902 Peach Orchard Road",Augusta,Georgia,30906,706-798-8088
4209,"3231 Wrightsboro Road",Augusta,Georgia,30909,706-738-2591
4583,"2703 Washington Rd.",Augusta,Georgia,30909,706-737-4939
7746,"2559 Windsor Spring Road",Augusta,Georgia,30906,706-796-8146
16525,"4125 Austell Rd",Austell,Georgia,30106,
4522,"800 East West Connector Sw",Austell,Georgia,30106,770-438-1680
4535,"817 East Shotwell St",Bainbridge,Georgia,39819,229-243-0373
5683,"622 Veterans Parkway",Barnesville,Georgia,30204,770-358-4600
7294,"19 E. Parker St.",Baxley,Georgia,31513,912-367-7024
17539,"916 Loganville Hwy",Bethlehem,Georgia,30620,
7265,"208 Hwy 515 E",Blairsville,Georgia,30512,706-745-9601
5618,"11685 Columbia St.,",Blakely,Georgia,39823,229-723-4274
7701,"30 Orvin Lance Connector","Blue Ridge",Georgia,30513,706-632-8097
5765,"100 Oak St",Bowdon,Georgia,30108,770-258-2487
7721,"206 Alabama Ave,, South",Bremen,Georgia,30110,770-537-3847
2083,"3439 Ashford Dunwoody Road, Ne, Oglethorpe Crossing Shopping Center",Brookhaven,Georgia,30319,770-216-8605
17369,"200 Glynn Isle",Brunswick,Georgia,31525,
4567,"5421 New Jesup Hwy., Brunswick North Shopping Plaza",Brunswick,Georgia,31523,912-264-1321
16561,"3205 Woodward Crossing Blvd, Ste B",Buford,Georgia,30519,
279,"2605 Hamilton Mill Rd, Northeast",Buford,Georgia,30519,678-546-5352
5653,"1950 Buford Hwy.",Buford,Georgia,30518,770-945-7286
4506,"402 N. Wall St.",Calhoun,Georgia,30701,706-625-5452
17527,"2022 Cumming Hwy",Canton,Georgia,30115,
2470,"3785 Sixes Rd, Corner Of Bells Ferry Road",Canton,Georgia,30114,770-720-3466
7273,"129 Marietta Highway",Canton,Georgia,30114,770-479-1806
7888,"6120 Hickory Flat Hwy.",Canton,Georgia,30115,770-720-0610
4532,"2125 Maple St.",Carrollton,Georgia,30117,770-832-0005
4568,"546 Bankhead Highway",Carrollton,Georgia,30117,770-834-1091
3086,"1162 West Ave.",Cartersville,Georgia,30120,770-606-1260
5692,"13 North Tennessee St.",Cartersville,Georgia,30120,770-386-2417
8976,"965 Joe Frank Harris Pkwy Se",Cartersville,Georgia,30120,678-721-1090
5356,"511 N. Main St.",Cedartown,Georgia,30125,770-748-9944
4505,"5764 Peachtree Industrial Blvd",Chamblee,Georgia,30341,770-457-4401
7227,"1420 Highway 76",Chatsworth,Georgia,30705,706-695-0518
4217,"401 N Duval St",Claxton,Georgia,30417,912-739-1327
7759,"308 South Us Highway 441",Clayton,Georgia,30525,706-782-2722
7200,"202 N.e. Dykes St.",Cochran,Georgia,31014,478-934-9431
16537,"1591 Bradley Park Dr",Columbus,Georgia,31904,
2946,"1367 Double Churches Rd.",Columbus,Georgia,31904,706-641-8100
4579,"1622 South Lumpkin Rd.",Columbus,Georgia,31903,706-682-5282
4671,"3127 Macon Rd",Columbus,Georgia,31906,706-563-4502
4674,"7042 Moon Rd.",Columbus,Georgia,31909,706-653-2923
4677,"3617 Hilton Ave.",Columbus,Georgia,31904,706-324-0169
4679,"4561 River Rd.",Columbus,Georgia,31904,706-324-2108
7666,"4432 Miller Rd., Corner Of Warm Springs And Miller Road",Columbus,Georgia,31909,706-561-5001
5658,"2041 N. Elm St.,",Commerce,Georgia,30529,706-335-5107
17254,"2195 Hwy 20 Se",Conyers,Georgia,30013,
4542,"3481 Georgia Hwy 20, Corner Of Honey Creek",Conyers,Georgia,30013,770-922-4890
4694,"1541 Georgia Highway 20",Conyers,Georgia,30012,770-929-0310
4267,"214 East 16th Ave., Corner Of 5th Street",Cordele,Georgia,31015,229-273-6551
3798,"549 N Main St",Cornelia,Georgia,30531,706-778-5097
1359,"5384 Highway 20",Covington,Georgia,30016,770-788-6566
4695,"4183 Hwy 278 Ne",Covington,Georgia,30014,770-385-5282
8418,"10267 Highway 36",Covington,Georgia,30014,770-788-9430
8419,"4192 Salem Rd.",Covington,Georgia,30016,770-788-2026
16733,"1525 Market Place Blvd",Cumming,Georgia,30041,
191,"5510 Castleberry Road",Cumming,Georgia,30040,770-887-7720
2310,"1230 Buford Highway",Cumming,Georgia,30041,770-887-6860
3882,"450 Peachtree Pkwy.",Cumming,Georgia,30041,770-889-1301
4113,"3095 Old Atlanta Rd.",Cumming,Georgia,30041,770-844-5686
4682,"4895 Post Rd.",Cumming,Georgia,30040,678-341-6858
5355,"603 Canton Hwy.",Cumming,Georgia,30040,770-887-7771
4577,"800 Blakely St.",Cuthbert,Georgia,39840,229-732-2191
3766,"3027 Jim Moore Road",Dacula,Georgia,30019,770-339-0129
5622,"495 Charles Hardy Pkwy.",Dallas,Georgia,30157,770-445-2128
6012,"51 Seven Hills Blvd.",Dallas,Georgia,30132,678-574-3032
3767,"2791 Cleveland Hwy.",Dalton,Georgia,30721,706-259-9406
5608,"2501 East Walnut Ave.",Dalton,Georgia,30721,706-226-3664
5640,"6327 Hwy. 53 East",Dawsonville,Georgia,30534,706-216-1303
2175,"2738 N. Decatur Rd.",Decatur,Georgia,30033,404-508-8058
2367,"225 West Ponce Deleon Avenue",Decatur,Georgia,30030,404-373-9627
2504,"2586 Lawrenceville Hwy.",Decatur,Georgia,30033,770-491-8616
4530,"2458 Candler Road",Decatur,Georgia,30032,404-284-9350
4684,"4037 Glenwood Road",Decatur,Georgia,30032,404-288-4880
4742,"2444 Wesley Chapel Rd",Decatur,Georgia,30035,770-981-2532
7778,"3820 North Decatur Rd",Decatur,Georgia,30032,404-299-9154
4552,"912 W. Ward St.",Douglas,Georgia,31533,912-384-2088
154,"6031 Fairburn Rd.",Douglasville,Georgia,30134,770-942-9214
16532,"2950 Chapel Hill Rd",Douglasville,Georgia,30135,
5444,"3674 Highway 5",Douglasville,Georgia,30135,770-942-3153
5353,"1025 Hillcrest Pkwy.",Dublin,Georgia,31021,478-275-9591
16226,"5950 State Bridge Rd",Duluth,Georgia,30097,
5352,"4110 Pleasant Hill Rd.",Duluth,Georgia,30096,770-418-0510
4733,"2500 Mt. Vernon Road",Dunwoody,Georgia,30338,770-394-5130
7736,"601 Howard Simmons Rd.","East Ellijay",Georgia,30540,706-635-2500
4564,"535 Oak St.",Eastman,Georgia,31023,478-374-4713
16874,"3660 Marketplace Blvd","East Point",Georgia,30344,
4424,"2907 Main Street","East Point",Georgia,30344,404-763-8405
7744,"809 Oak St",Eatonton,Georgia,31024,706-485-5832
3776,"232 Elbert Street",Elberton,Georgia,30635,706-283-7176
5633,"80 Fairview Rd.",Ellenwood,Georgia,30294,770-474-7926
17120,"4223 Washington Rd",Evans,Georgia,30809,
2407,"4385 Hereford Farm Road",Evans,Georgia,30809,706-210-0015
8960,"5101 Washington Rd",Evans,Georgia,30809,706-650-0911
945,"1044 Furys Ferry Rd.",Evans,Georgia,30809,706-860-3945
4709,"77 Hudson Plaza",Fairburn,Georgia,30213,770-964-7167
16243,"107 Pavilion Pkwy",Fayetteville,Georgia,30214,
4760,"480 North Glynn St.,",Fayetteville,Georgia,30214,770-461-3431
4603,"816 S. Grant St.",Fitzgerald,Georgia,31750,229-423-6523
17450,"5865 Spout Springs Rd","Flowery Branch",Georgia,30542,
5995,"7395 Spout Springs Rd.","Flowery Branch",Georgia,30542,770-965-1037
792,"4050 Winder Hwy.","Flowery Branch",Georgia,30542,770-965-1979
2184,"1029 Forest Parkway","Forest Park",Georgia,30297,404-608-0751
7706,"430 Tift College Dr.",Forsyth,Georgia,31029,478-994-0193
3760,"887 Battlefield Parkway","Fort Oglethorpe",Georgia,30742,706-861-3337
4585,"104 Vineville St","Fort Valley",Georgia,31030,478-825-0080
4507,"103 Jesse Jewel Parkway, Southeast",Gainesville,Georgia,30501,770-536-3441
5071,"3709 Thompson Bridge Rd.",Gainesville,Georgia,30506,770-503-7454
5626,"1400 Park Hill Dr.",Gainesville,Georgia,30501,770-534-8408
4258,"100 Minus Ave.","Garden City",Georgia,31408,912-964-6712
8424,"6201 Lake Oconee Pkwy.",Greensboro,Georgia,30642,706-453-9094
4404,"736 S. Hill St.",Griffin,Georgia,30224,770-229-2113
4589,"869 Horizon South Parkway, Corner Of Lewiston Road",Grovetown,Georgia,30813,706-651-0306
5613,"21 North Carolina St.",Hartwell,Georgia,30643,706-376-3147
4571,"92 S. Tallahassee St., Harveys Shopping Center",Hazlehurst,Georgia,31539,912-375-7729
6956,"114 East General Screven Way",Hinesville,Georgia,31313,912-877-3002
16739,"5220 Jimmy Lee Smith Pkwy, Ste 118",Hiram,Georgia,30141,
7637,"5848 Hwy 124 West",Hoschton,Georgia,30548,706-654-1439
7782,"8895 Us Highway 29 South",Hull,Georgia,30646,706-546-9245
4531,"506 East 3rd Street",Jackson,Georgia,30233,770-775-7134
3392,"266 East Church St",Jasper,Georgia,30143,706-692-3423
4164,"1680 Old Pendergrass Rd.",Jefferson,Georgia,30549,706-367-9201
5684,"348 West Pine St.",Jesup,Georgia,31545,912-427-8006
2281,"10307 Tara Blvd.",Jonesboro,Georgia,30236,770-210-3400
4549,"8139 Tara Blvd.",Jonesboro,Georgia,30236,770-477-6848
16378,"740 Ernest W Barrett Pkwy Nw",Kennesaw,Georgia,30144,
2147,"2782 North Cobb Parkway",Kennesaw,Georgia,30152,770-420-1092
5737,"1402 Boone St., Camden Corners Shopping Center",Kingsland,Georgia,31548,912-729-6227
7223,"807 N. Main St.",Lafayette,Georgia,30728,706-638-6822
3082,"1597 Hogansville Rd.","La Grange",Georgia,30241,706-242-4902
4540,"1802 Roanoke Rd,","La Grange",Georgia,30240,706-882-5564
7615,"300 Morgan St.","La Grange",Georgia,30241,706-882-2971
2103,"2935 Five Forks Trickum Road",Lawrenceville,Georgia,30044,770-982-5202
2570,"2650 Cruse Road",Lawrenceville,Georgia,30044,770-921-8514
2841,"5710 Sugarloaf Pkwy, Northwest",Lawrenceville,Georgia,30043,770-237-2222
3991,"1525 Buford Dr",Lawrenceville,Georgia,30043,770-962-6117
4553,"202 Grayson Highway",Lawrenceville,Georgia,30045,770-963-8183
4730,"1187 Grayson Hwy.",Lawrenceville,Georgia,30045,770-338-2513
4737,"620 West Pike Street",Lawrenceville,Georgia,30046,770-339-1801
2593,"1193 Us Highway 19 South",Leesburg,Georgia,31763,229-436-1330
2084,"5575 Lawrenceville Hgwy.",Lilburn,Georgia,30047,770-935-4959
2202,"4358 Burns Rd.",Lilburn,Georgia,30047,770-564-8023
4618,"4860 Stone Mountain Hwy",Lilburn,Georgia,30047,770-972-2846
4595,"7550 Covington Hwy., Stonecrest Mall",Lithonia,Georgia,30058,770-482-4823
4138,"2720 Loganville Hwy",Loganville,Georgia,30052,770-277-5996
7712,"4377 Atlanta Hwy.",Loganville,Georgia,30052,770-466-0109
2187,"5846-5856 Mableton Parkway",Mableton,Georgia,30126,770-745-3171
10357,"1544 Bass Rd.",Macon,Georgia,31210,478-471-4494
2472,"1390 Pio Nono Avenue",Macon,Georgia,31204,478-742-5281
3772,"4291 Mercer University Drive",Macon,Georgia,31204,478-477-0434
4160,"6381 Zebulon Rd.",Macon,Georgia,31220,478-476-1911
4255,"3012 Hartley Bridge Rd.",Macon,Georgia,31216,478-785-1962
4545,"1615 Forest Hill Rd.",Macon,Georgia,31210,478-477-6648
4765,"4080 Bloomfield Rd.",Macon,Georgia,31206,478-781-4018
7212,"1271 Gray Highway",Macon,Georgia,31211,478-743-6979
7504,"4585 Hartley Bridge Rd.",Macon,Georgia,31216,478-781-9818
10358,"503 West Main St.",Manchester,Georgia,31816,706-846-1241
16526,"2535 Dallas Hwy Sw",Marietta,Georgia,30064,
17204,"1401 Johnson Ferry Rd",Marietta,Georgia,30062,
2087,"3930 Shallowford Road Ne",Marietta,Georgia,30062,770-640-5643
2102,"300 Powder Springs Road",Marietta,Georgia,30064,770-422-1413
2107,"3051 Sandy Plains Road",Marietta,Georgia,30066,770-977-7661
2215,"1172 Milford Church Rd. Sw",Marietta,Georgia,30060,770-319-2540
3013,"3905 Due West Nw Road",Marietta,Georgia,30064,678-290-5740
3687,"1295 Powder Springs Rd.",Marietta,Georgia,30064,770-919-1281
4590,"1099 Johnson Ferry Road",Marietta,Georgia,30068,770-973-1810
4669,"684 Cobb Parkway N.",Marietta,Georgia,30062,770-427-4648
5051,"4250 Roswell Rd., N.e.",Marietta,Georgia,30062,770-565-4064
6106,"100 Piedmont Rd.",Marietta,Georgia,30066,770-795-9844
7044,"687 Johnson Ferry Rd.",Marietta,Georgia,30068,770-977-9220
2359,"3527 Old Petersburg Road",Martinez,Georgia,30907,706-210-0091
5699,"4476 Columbia Rd",Martinez,Georgia,30907,706-860-5340
16793,"1850 Jonesboro Rd",Mcdonough,Georgia,30253,
5682,"2 N. Zack Hinton Parkway",Mcdonough,Georgia,30253,770-957-2984
7501,"2305 Jonesboro Rd.",Mcdonough,Georgia,30253,770-957-5864
79,"2098 Highway 20 West, West Ridge Parkway",Mcdonough,Georgia,30253,770-898-7356
8395,"2720 Highway 42 North",Mcdonough,Georgia,30253,678-432-9450
8934,"1870 Hwy 81 East",Mcdonough,Georgia,30252,678-583-0097
4251,"423 S. Wayne St.",Milledgeville,Georgia,31061,478-452-3566
4565,"960 N Columbia St",Milledgeville,Georgia,31061,478-452-5533
17488,"13055 Hwy 9 N",Milton,Georgia,30004,
2945,"13933 Alpharetta Hwy.",Milton,Georgia,30004,678-366-9633
3777,"312 So. Broad Street",Monroe,Georgia,30655,770-267-8412
5673,"501 Spaulding Road",Montezuma,Georgia,31063,478-472-7533
4580,"330 East Green Street",Monticello,Georgia,31064,706-468-1666
2088,"6716 Mt. Zion Boulevard",Morrow,Georgia,30260,770-960-0600
4203,"1027 S. Main St.",Moultrie,Georgia,31768,229-985-2282
16578,"555 Bullsboro Dr",Newnan,Georgia,30265,
7214,"2305 Hwy 34 East",Newnan,Georgia,30265,678-423-1043
7216,"239 Temple Avenue",Newnan,Georgia,30263,770-253-2694
8907,"395 Jackson St.",Newnan,Georgia,30263,770-251-3857
962,"1035 Lower Fayetteville Rd.",Newnan,Georgia,30265,678-423-8891
2108,"5095 Peachtree Pkwy",Norcross,Georgia,30092,770-209-9299
2228,"5304 North Buford Highway",Norcross,Georgia,30071,770-209-0296
7633,"1190 Indian Tr",Norcross,Georgia,30093,770-638-8958
4721,"4233 Mcever Road",Oakwood,Georgia,30566,770-532-3727
17212,"1209 N Peachtree Pkwy","Peachtree City",Georgia,30269,
2544,"101 Lexington Circle","Peachtree City",Georgia,30269,770-486-1639
4243,"1100 Washington Street",Perry,Georgia,31069,478-987-0707
11017,"500 Pooler Hwy.",Pooler,Georgia,31322,912-748-5170
60,"7300 Ga Highway 21","Port Wentworth",Georgia,31407,912-964-1797
4668,"2091 Lost Mountain Rd.","Powder Springs",Georgia,30127,770-943-4136
7783,"2324 Us Highway 17, Corner Of Highway 144","Richmond Hill",Georgia,31324,912-756-2531
7758,"410 S. Columbia Ave.",Rincon,Georgia,31326,912-826-2296
7745,"6945 Nashville Street",Ringgold,Georgia,30736,706-935-9861
7885,"4825 Battlefield Parkway",Ringgold,Georgia,30736,706-866-9278
2213,"7055 Old National Hwy",Riverdale,Georgia,30296,770-909-5672
2468,"581 Flint River Road",Riverdale,Georgia,30274,770-603-2044
7622,"22 Upper Riverdale Road",Riverdale,Georgia,30274,770-472-4566
3770,"911 Shorter Ave. Sw",Rome,Georgia,30165,706-234-5331
4502,"1915 Maple Avenue S.w.",Rome,Georgia,30161,706-234-7364
5417,"1201 Turner Mccall Blvd.",Rome,Georgia,30161,706-232-5270
5418,"1905 Martha Berry Blvd",Rome,Georgia,30165,706-295-5717
7245,"3357 Martha Berry Hwy Nw",Rome,Georgia,30165,706-235-6100
16887,"1135 Woodstock Rd",Roswell,Georgia,30075,
2178,"12070 Crabapple Road",Roswell,Georgia,30075,770-992-5446
2227,"11710 Alpharetta Hwy",Roswell,Georgia,30076,770-754-0141
2965,"1380 Woodstock Rd",Roswell,Georgia,30075,770-640-3131
3125,"895 Holcomb Bridge Road",Roswell,Georgia,30076,770-993-0194
4206,"2700 Osborne Rd.","Saint Marys",Georgia,31558,912-882-4841
4337,"30 Market St.","Saint Simons Island",Georgia,31522,912-634-0357
4575,"1605 Frederica Road, Corner Of Demere Road","Saint Simons Island",Georgia,31522,912-638-7732
4593,"206 S. Harris St.",Sandersville,Georgia,31082,478-552-0559
17399,"5570 Roswell Rd","Sandy Springs",Georgia,30342,
4504,"6330 Roswell Rd","Sandy Springs",Georgia,30328,404-255-2131
5411,"4600 Roswell Rd., Suite F100","Sandy Springs",Georgia,30342,404-236-2111
7974,"7355 Roswell Rd, Ne","Sandy Springs",Georgia,30328,678-579-9492
17028,"14065 Abercorn St",Savannah,Georgia,31419,
17397,"1907 E Victory Dr",Savannah,Georgia,31404,
3979,"4717-c E Hwy 80",Savannah,Georgia,31410,912-898-0375
4187,"119 Bull St, Corner Of State Street",Savannah,Georgia,31401,912-232-1129
4229,"12012 Abercorn Street",Savannah,Georgia,31419,912-925-5568
4230,"150 Johnny Mercer Blvd",Savannah,Georgia,31410,912-897-3220
4257,"712 Stephenson Ave.",Savannah,Georgia,31405,912-355-8601
4260,"4725 Waters Ave",Savannah,Georgia,31404,912-355-7111
4261,"2055 East Victory Dr,",Savannah,Georgia,31404,912-352-0303
5351,"301 Montgomery Cross Road",Savannah,Georgia,31406,912-920-6884
5520,"5401 Abercorn St.,, Corner Of Derenne Ave",Savannah,Georgia,31405,912-356-3170
6369,"5690 Ogeechee Rd.",Savannah,Georgia,31405,912-234-5575
7228,"7360 Skidaway Road",Savannah,Georgia,31406,912-354-3816
16144,"2201 Cobb Pkwy Se",Smyrna,Georgia,30080,
2146,"4345 South Cobb Drive, Se",Smyrna,Georgia,30080,770-438-5042
2183,"485 Concord Road",Smyrna,Georgia,30082,770-444-0182
4740,"2994 Atlanta Road",Smyrna,Georgia,30080,770-435-2178
16341,"1905 Scenic Hwy N",Snellville,Georgia,30078,
2101,"3010 Highway 124",Snellville,Georgia,30039,770-736-6601
4512,"1938 Scenic Highway",Snellville,Georgia,30078,770-979-0922
7893,"1960-a East Main St.",Snellville,Georgia,30078,770-972-4448
6861,"441 Fair Rd.",Statesboro,Georgia,30458,912-489-0943
5628,"5415 N. Henry Boulevard",Stockbridge,Georgia,30281,770-474-1355
7064,"5095 Mount Zion Pkwy
